{
  "type": "FeatureCollection",
  "features": [
    {
      "type": "Feature",
      "properties": {
        "name": "Mexico City Area"
      },
      "geometry": {
        "type": "Polygon",
        "coordinates": [
          [
            [
              -99.37646133238654,
              19.424625247228505
            ],
            [
              -99.33019143442132,
              19.46546397736755
            ],
            [
              -99.3246408783011,
              19.611671853484623
            ],
            [
              -99.37047545121696,
              19.589745108023934
            ],
            [
              -99.4242214188468,
              19.602910327875648
            ],
            [
              -99.47018706881265,
              19.544023897373478
            ],
            [
              -99.43206881405857,
              19.419754893857345
            ],
            [
              -99.37646133238654,
              19.424625247228505
            ]
          ]
        ]
      }
    }
  ]
}