{
"type": "FeatureCollection",
"name": "route",
"crs": { "type": "name", "properties": { "name": "urn:ogc:def:crs:OGC:1.3:CRS84" } },
"features": [
{ "type": "Feature", "properties": { "id": 1 }, "geometry": { "type": "LineString", "coordinates": [ [ -99.326091338618909, 19.609821689986394 ], [ -99.326391433857083, 19.609521663473167 ], [ -99.326691529095243, 19.609221636959941 ], [ -99.326991624333417, 19.608921610446714 ], [ -99.327291719571576, 19.608621583933484 ], [ -99.32759181480975, 19.608321557420258 ], [ -99.327891910047924, 19.608021530907031 ], [ -99.328192005286084, 19.607721504393805 ], [ -99.328492100524258, 19.607421477880578 ], [ -99.328792195762418, 19.607121451367352 ], [ -99.329092291000592, 19.606821424854125 ], [ -99.329392386238766, 19.606521398340899 ], [ -99.329692481476926, 19.606221371827672 ], [ -99.3299925767151, 19.605921345314446 ], [ -99.330292671953259, 19.605621318801219 ], [ -99.330592767191433, 19.605321292287993 ], [ -99.330892862429593, 19.605021265774766 ], [ -99.331192957667767, 19.60472123926154 ], [ -99.331493052905941, 19.604421212748314 ], [ -99.331793148144101, 19.604121186235087 ], [ -99.332093243382275, 19.603821159721861 ], [ -99.332393338620435, 19.603521133208634 ], [ -99.332693433858609, 19.603221106695408 ], [ -99.332993529096782, 19.602921080182181 ], [ -99.333293624334942, 19.602621053668955 ], [ -99.333593719573116, 19.602321027155728 ], [ -99.333893814811276, 19.602021000642502 ], [ -99.33419391004945, 19.601720974129275 ], [ -99.334494005287624, 19.601420947616049 ], [ -99.334794100525784, 19.601120921102822 ], [ -99.335094195763958, 19.600820894589596 ], [ -99.335394291002117, 19.600520868076369 ], [ -99.335694386240291, 19.600220841563143 ], [ -99.335994481478451, 19.599920815049913 ], [ -99.336294576716625, 19.599620788536686 ], [ -99.336594671954799, 19.59932076202346 ], [ -99.336894767192959, 19.599020735510233 ], [ -99.337194862431133, 19.598720708997007 ], [ -99.337494957669293, 19.598420682483781 ], [ -99.337795052907467, 19.598120655970554 ], [ -99.338095148145641, 19.597820629457328 ], [ -99.3383952433838, 19.597520602944101 ], [ -99.338695338621974, 19.597220576430875 ], [ -99.338995433860134, 19.596920549917648 ], [ -99.339295529098308, 19.596620523404422 ], [ -99.339595624336482, 19.596320496891195 ], [ -99.339895719574642, 19.596020470377969 ], [ -99.340195814812816, 19.595720443864742 ], [ -99.340495910050976, 19.595420417351516 ], [ -99.34079600528915, 19.595120390838289 ], [ -99.341096100527324, 19.594820364325063 ], [ -99.341396195765483, 19.594520337811836 ], [ -99.341696291003657, 19.59422031129861 ], [ -99.341996386241817, 19.593920284785384 ], [ -99.342296481479991, 19.593620258272157 ], [ -99.342596576718151, 19.593320231758931 ], [ -99.342896671956325, 19.593020205245704 ], [ -99.343196767194499, 19.592720178732478 ], [ -99.343496862432659, 19.592420152219251 ], [ -99.343796957670833, 19.592120125706025 ], [ -99.344097052908992, 19.591820099192798 ], [ -99.344397148147166, 19.591520072679568 ], [ -99.34469724338534, 19.591220046166342 ], [ -99.3449973386235, 19.590920019653115 ], [ -99.345297433861674, 19.590619993139889 ], [ -99.345597529099834, 19.590319966626662 ], [ -99.345897624338008, 19.590019940113436 ], [ -99.346197719576182, 19.589719913600209 ], [ -99.346497814814342, 19.589419887086983 ], [ -99.346797910052516, 19.589119860573756 ], [ -99.347098005290675, 19.58881983406053 ], [ -99.347398100528849, 19.588519807547303 ], [ -99.347698195767009, 19.588219781034077 ], [ -99.347998291005183, 19.587919754520851 ], [ -99.348298386243357, 19.587619728007624 ], [ -99.348298386243357, 19.587319701494398 ], [ -99.348298386243357, 19.587019674981171 ], [ -99.348298386243357, 19.586719648467945 ], [ -99.348298386243357, 19.586419621954718 ], [ -99.348298386243357, 19.586119595441492 ], [ -99.348298386243357, 19.585819568928265 ], [ -99.348298386243357, 19.585519542415039 ], [ -99.348298386243357, 19.585219515901812 ], [ -99.348298386243357, 19.584919489388586 ], [ -99.348298386243357, 19.584619462875359 ], [ -99.348598481481517, 19.584319436362133 ], [ -99.348898576719691, 19.584019409848906 ], [ -99.349198671957851, 19.58371938333568 ], [ -99.349498767196025, 19.583419356822453 ], [ -99.349798862434199, 19.583119330309227 ], [ -99.350098957672358, 19.582819303795997 ], [ -99.350399052910532, 19.582519277282771 ], [ -99.350699148148692, 19.582219250769544 ], [ -99.350999243386866, 19.581919224256318 ], [ -99.35129933862504, 19.581619197743091 ], [ -99.3515994338632, 19.581319171229865 ], [ -99.351899529101374, 19.581019144716638 ], [ -99.352199624339534, 19.580719118203412 ], [ -99.352499719577708, 19.580419091690185 ], [ -99.352799814815867, 19.580119065176959 ], [ -99.353099910054041, 19.579819038663732 ], [ -99.353400005292215, 19.579519012150506 ], [ -99.353700100530375, 19.579218985637279 ], [ -99.354000195768549, 19.578918959124053 ], [ -99.354300291006709, 19.578618932610826 ], [ -99.354600386244883, 19.5783189060976 ], [ -99.354900481483057, 19.578018879584373 ], [ -99.355200576721217, 19.577718853071147 ], [ -99.355500671959391, 19.577418826557921 ], [ -99.35580076719755, 19.577118800044694 ], [ -99.356100862435724, 19.576818773531468 ], [ -99.356400957673898, 19.576518747018241 ], [ -99.356701052912058, 19.576218720505015 ], [ -99.357001148150232, 19.575918693991788 ], [ -99.357301243388392, 19.575618667478562 ], [ -99.357601338626566, 19.575318640965335 ], [ -99.35790143386474, 19.575018614452109 ], [ -99.358201529102899, 19.574718587938882 ], [ -99.358501624341073, 19.574418561425652 ], [ -99.358801719579233, 19.574118534912426 ], [ -99.359101814817407, 19.573818508399199 ], [ -99.359101814817407, 19.573518481885973 ], [ -99.359101814817407, 19.573218455372746 ], [ -99.359101814817407, 19.57291842885952 ], [ -99.359101814817407, 19.572618402346293 ], [ -99.359101814817407, 19.572318375833067 ], [ -99.359101814817407, 19.572018349319841 ], [ -99.359101814817407, 19.571718322806614 ], [ -99.359101814817407, 19.571418296293388 ], [ -99.359101814817407, 19.571118269780161 ], [ -99.359101814817407, 19.570818243266935 ], [ -99.359101814817407, 19.570518216753708 ], [ -99.359101814817407, 19.570218190240482 ], [ -99.359101814817407, 19.569918163727255 ], [ -99.359101814817407, 19.569618137214029 ], [ -99.359101814817407, 19.569318110700802 ], [ -99.359101814817407, 19.569018084187576 ], [ -99.359101814817407, 19.568718057674349 ], [ -99.359101814817407, 19.568418031161123 ], [ -99.359101814817407, 19.568118004647896 ], [ -99.359101814817407, 19.56781797813467 ], [ -99.359101814817407, 19.567517951621443 ], [ -99.359101814817407, 19.567217925108217 ], [ -99.359101814817407, 19.566917898594991 ], [ -99.359101814817407, 19.566617872081764 ], [ -99.359101814817407, 19.566317845568538 ], [ -99.359101814817407, 19.566017819055311 ], [ -99.359101814817407, 19.565717792542081 ], [ -99.359101814817407, 19.565417766028855 ], [ -99.359101814817407, 19.565117739515628 ], [ -99.359101814817407, 19.564817713002402 ], [ -99.359101814817407, 19.564517686489175 ], [ -99.359101814817407, 19.564217659975949 ], [ -99.359101814817407, 19.563917633462722 ], [ -99.359101814817407, 19.563617606949496 ], [ -99.359101814817407, 19.563317580436269 ], [ -99.359101814817407, 19.563017553923043 ], [ -99.359101814817407, 19.562717527409816 ], [ -99.359101814817407, 19.56241750089659 ], [ -99.359101814817407, 19.562117474383363 ], [ -99.359101814817407, 19.561817447870137 ], [ -99.359101814817407, 19.561517421356911 ], [ -99.359101814817407, 19.561217394843684 ], [ -99.359101814817407, 19.560917368330458 ], [ -99.359101814817407, 19.560617341817231 ], [ -99.359101814817407, 19.560317315304005 ], [ -99.359101814817407, 19.560017288790778 ], [ -99.359101814817407, 19.559717262277552 ], [ -99.359101814817407, 19.559417235764325 ], [ -99.359101814817407, 19.559117209251099 ], [ -99.359101814817407, 19.558817182737872 ], [ -99.359101814817407, 19.558517156224646 ], [ -99.359101814817407, 19.558217129711419 ], [ -99.359401910055567, 19.557917103198193 ], [ -99.359702005293741, 19.557617076684966 ], [ -99.360002100531915, 19.55731705017174 ], [ -99.360302195770075, 19.55701702365851 ], [ -99.360602291008249, 19.556716997145283 ], [ -99.360602291008249, 19.556416970632057 ], [ -99.360902386246408, 19.556116944118831 ], [ -99.361202481484582, 19.555816917605604 ], [ -99.361502576722756, 19.555516891092378 ], [ -99.361802671960916, 19.555216864579151 ], [ -99.36210276719909, 19.554916838065925 ], [ -99.36240286243725, 19.554616811552698 ], [ -99.362702957675424, 19.554316785039472 ], [ -99.363003052913598, 19.554016758526245 ], [ -99.363303148151758, 19.553716732013019 ], [ -99.363603243389932, 19.553416705499792 ], [ -99.363903338628091, 19.553116678986566 ], [ -99.364203433866265, 19.552816652473339 ], [ -99.364503529104425, 19.552516625960113 ], [ -99.364803624342599, 19.552216599446886 ], [ -99.365103719580773, 19.55191657293366 ], [ -99.365403814818933, 19.551616546420433 ], [ -99.365703910057107, 19.551316519907207 ], [ -99.366004005295267, 19.551016493393981 ], [ -99.366304100533441, 19.550716466880754 ], [ -99.366604195771615, 19.550416440367528 ], [ -99.366904291009774, 19.550116413854301 ], [ -99.367204386247948, 19.549816387341075 ], [ -99.367504481486108, 19.549516360827848 ], [ -99.367804576724282, 19.549216334314622 ], [ -99.368104671962456, 19.548916307801395 ], [ -99.368404767200616, 19.548616281288165 ], [ -99.36870486243879, 19.548316254774939 ], [ -99.36900495767695, 19.548016228261712 ], [ -99.369305052915124, 19.547716201748486 ], [ -99.369605148153298, 19.547416175235259 ], [ -99.369905243391457, 19.547116148722033 ], [ -99.370205338629631, 19.546816122208806 ], [ -99.370505433867791, 19.54651609569558 ], [ -99.370805529105965, 19.546216069182353 ], [ -99.371105624344125, 19.545916042669127 ], [ -99.371405719582299, 19.5456160161559 ], [ -99.371705814820473, 19.545315989642674 ], [ -99.372005910058633, 19.545015963129448 ], [ -99.372306005296807, 19.544715936616221 ], [ -99.372606100534966, 19.544415910102995 ], [ -99.37290619577314, 19.544115883589768 ], [ -99.373206291011314, 19.543815857076542 ], [ -99.373506386249474, 19.543515830563315 ], [ -99.373806481487648, 19.543215804050089 ], [ -99.374106576725808, 19.542915777536862 ], [ -99.374406671963982, 19.542615751023636 ], [ -99.374706767202156, 19.542315724510409 ], [ -99.375006862440316, 19.542015697997183 ], [ -99.37530695767849, 19.541715671483956 ], [ -99.375607052916649, 19.54141564497073 ], [ -99.375907148154823, 19.541115618457503 ], [ -99.376207243392983, 19.540815591944277 ], [ -99.376507338631157, 19.540515565431051 ], [ -99.376807433869331, 19.540215538917824 ], [ -99.377107529107491, 19.539915512404594 ], [ -99.377407624345665, 19.539615485891368 ], [ -99.377707719583825, 19.539315459378141 ], [ -99.378007814821999, 19.539015432864915 ], [ -99.378307910060173, 19.538715406351688 ], [ -99.378608005298332, 19.538415379838462 ], [ -99.378908100536506, 19.538115353325235 ], [ -99.379208195774666, 19.537815326812009 ], [ -99.37950829101284, 19.537515300298782 ], [ -99.379808386251014, 19.537215273785556 ], [ -99.380108481489174, 19.536915247272329 ], [ -99.380408576727348, 19.536615220759103 ], [ -99.380708671965508, 19.536315194245876 ], [ -99.381008767203681, 19.53601516773265 ], [ -99.381308862441855, 19.535715141219423 ], [ -99.381608957680015, 19.535415114706197 ], [ -99.381909052918189, 19.53511508819297 ], [ -99.382209148156349, 19.534815061679744 ], [ -99.382509243394523, 19.534515035166518 ], [ -99.382509243394523, 19.534215008653291 ], [ -99.382809338632683, 19.533914982140065 ], [ -99.382809338632683, 19.533614955626838 ], [ -99.382809338632683, 19.533314929113612 ], [ -99.382809338632683, 19.533014902600385 ], [ -99.382809338632683, 19.532714876087159 ], [ -99.382809338632683, 19.532414849573932 ], [ -99.382809338632683, 19.532114823060706 ], [ -99.382809338632683, 19.531814796547479 ], [ -99.382809338632683, 19.531514770034253 ], [ -99.382809338632683, 19.531214743521023 ], [ -99.383109433870857, 19.530914717007796 ], [ -99.383409529109031, 19.53061469049457 ], [ -99.38370962434719, 19.530314663981343 ], [ -99.384009719585364, 19.530014637468117 ], [ -99.384309814823524, 19.52971461095489 ], [ -99.384609910061698, 19.529414584441664 ], [ -99.384910005299872, 19.529114557928438 ], [ -99.385210100538032, 19.528814531415211 ], [ -99.385510195776206, 19.528514504901985 ], [ -99.385810291014366, 19.528214478388758 ], [ -99.38611038625254, 19.527914451875532 ], [ -99.386410481490714, 19.527614425362305 ], [ -99.386710576728873, 19.527314398849079 ], [ -99.387010671967047, 19.527014372335852 ], [ -99.387310767205207, 19.526714345822626 ], [ -99.387610862443381, 19.526414319309399 ], [ -99.387910957681541, 19.526114292796173 ], [ -99.388211052919715, 19.525814266282946 ], [ -99.388511148157889, 19.52551423976972 ], [ -99.388811243396049, 19.525214213256493 ], [ -99.389111338634223, 19.524914186743267 ], [ -99.389411433872382, 19.52461416023004 ], [ -99.389711529110556, 19.524314133716814 ], [ -99.39001162434873, 19.524014107203588 ], [ -99.39031171958689, 19.523714080690361 ], [ -99.390611814825064, 19.523414054177135 ], [ -99.390911910063224, 19.523114027663908 ], [ -99.391212005301398, 19.522814001150678 ], [ -99.391512100539572, 19.522513974637452 ], [ -99.391812195777732, 19.522213948124225 ], [ -99.392112291015906, 19.521913921610999 ], [ -99.392412386254065, 19.521613895097772 ], [ -99.392712481492239, 19.521313868584546 ], [ -99.393012576730413, 19.521013842071319 ], [ -99.393312671968573, 19.520713815558093 ], [ -99.393612767206747, 19.520413789044866 ], [ -99.393912862444907, 19.52011376253164 ], [ -99.394212957683081, 19.519813736018413 ], [ -99.394513052921241, 19.519513709505187 ], [ -99.394813148159415, 19.51921368299196 ], [ -99.395113243397589, 19.518913656478734 ], [ -99.395413338635748, 19.518613629965508 ], [ -99.395713433873922, 19.518313603452281 ], [ -99.396013529112082, 19.518013576939055 ], [ -99.396313624350256, 19.517713550425828 ], [ -99.39661371958843, 19.517413523912602 ], [ -99.39691381482659, 19.517113497399375 ], [ -99.397213910064764, 19.516813470886149 ], [ -99.397514005302924, 19.516513444372922 ], [ -99.397814100541098, 19.516213417859696 ], [ -99.398114195779272, 19.515913391346469 ], [ -99.398414291017431, 19.515613364833243 ] ] } }
]
}
