{
"type": "FeatureCollection",
"name": "nodes",
"crs": { "type": "name", "properties": { "name": "urn:ogc:def:crs:OGC:1.3:CRS84" } },
"features": [
{ "type": "Feature", "properties": { "id": 0, "utm_x": 700025.8537834197, "utm_y": 5707362.2669963436, "lon": -0.11917568858846496, "lat": 51.481990925104895 }, "geometry": { "type": "Point", "coordinates": [ -0.119175688588465, 51.481990925104895 ] } },
{ "type": "Feature", "properties": { "id": 1, "utm_x": 700025.8537834197, "utm_y": 5707585.8737940937, "lon": -0.11904905547566934, "lat": 51.483998998800708 }, "geometry": { "type": "Point", "coordinates": [ -0.119049055475669, 51.483998998800708 ] } },
{ "type": "Feature", "properties": { "id": 2, "utm_x": 700025.8537834197, "utm_y": 5707809.4805918438, "lon": -0.11892240770609136, "lat": 51.486007071581874 }, "geometry": { "type": "Point", "coordinates": [ -0.118922407706091, 51.486007071581874 ] } },
{ "type": "Feature", "properties": { "id": 3, "utm_x": 700025.8537834197, "utm_y": 5708033.087389593, "lon": -0.11879574527749111, "lat": 51.488015143448351 }, "geometry": { "type": "Point", "coordinates": [ -0.118795745277491, 51.488015143448351 ] } },
{ "type": "Feature", "properties": { "id": 4, "utm_x": 700025.8537834197, "utm_y": 5708256.6941873431, "lon": -0.11866906818763068, "lat": 51.490023214400139 }, "geometry": { "type": "Point", "coordinates": [ -0.118669068187631, 51.490023214400139 ] } },
{ "type": "Feature", "properties": { "id": 5, "utm_x": 700025.8537834197, "utm_y": 5708480.3009850932, "lon": -0.11854237643427014, "lat": 51.492031284437218 }, "geometry": { "type": "Point", "coordinates": [ -0.11854237643427, 51.492031284437218 ] } },
{ "type": "Feature", "properties": { "id": 6, "utm_x": 700025.8537834197, "utm_y": 5708703.9077828433, "lon": -0.1184156700151708, "lat": 51.494039353559536 }, "geometry": { "type": "Point", "coordinates": [ -0.118415670015171, 51.494039353559536 ] } },
{ "type": "Feature", "properties": { "id": 7, "utm_x": 700025.8537834197, "utm_y": 5708927.5145805934, "lon": -0.11828894892808997, "lat": 51.496047421767102 }, "geometry": { "type": "Point", "coordinates": [ -0.11828894892809, 51.496047421767102 ] } },
{ "type": "Feature", "properties": { "id": 8, "utm_x": 700025.8537834197, "utm_y": 5709151.1213783436, "lon": -0.11816221317078893, "lat": 51.498055489059851 }, "geometry": { "type": "Point", "coordinates": [ -0.118162213170789, 51.498055489059851 ] } },
{ "type": "Feature", "properties": { "id": 9, "utm_x": 700025.8537834197, "utm_y": 5709374.7281760937, "lon": -0.11803546274102499, "lat": 51.500063555437805 }, "geometry": { "type": "Point", "coordinates": [ -0.118035462741025, 51.500063555437805 ] } },
{ "type": "Feature", "properties": { "id": 10, "utm_x": 700025.8537834197, "utm_y": 5709598.3349738428, "lon": -0.11790869763655865, "lat": 51.502071620900892 }, "geometry": { "type": "Point", "coordinates": [ -0.117908697636559, 51.502071620900892 ] } },
{ "type": "Feature", "properties": { "id": 11, "utm_x": 700025.8537834197, "utm_y": 5709821.9417715929, "lon": -0.11778191785514483, "lat": 51.504079685449128 }, "geometry": { "type": "Point", "coordinates": [ -0.117781917855145, 51.504079685449128 ] } },
{ "type": "Feature", "properties": { "id": 12, "utm_x": 700025.8537834197, "utm_y": 5710045.5485693431, "lon": -0.11765512339454243, "lat": 51.506087749082482 }, "geometry": { "type": "Point", "coordinates": [ -0.117655123394542, 51.506087749082482 ] } },
{ "type": "Feature", "properties": { "id": 13, "utm_x": 700025.8537834197, "utm_y": 5710269.1553670932, "lon": -0.11752831425250758, "lat": 51.508095811800921 }, "geometry": { "type": "Point", "coordinates": [ -0.117528314252508, 51.508095811800921 ] } },
{ "type": "Feature", "properties": { "id": 14, "utm_x": 700025.8537834197, "utm_y": 5710492.7621648433, "lon": -0.11740149042679678, "lat": 51.510103873604422 }, "geometry": { "type": "Point", "coordinates": [ -0.117401490426797, 51.510103873604422 ] } },
{ "type": "Feature", "properties": { "id": 15, "utm_x": 700025.8537834197, "utm_y": 5710716.3689625934, "lon": -0.11727465191516616, "lat": 51.512111934492964 }, "geometry": { "type": "Point", "coordinates": [ -0.117274651915166, 51.512111934492964 ] } },
{ "type": "Feature", "properties": { "id": 16, "utm_x": 700025.8537834197, "utm_y": 5710939.9757603435, "lon": -0.11714779871537143, "lat": 51.514119994466512 }, "geometry": { "type": "Point", "coordinates": [ -0.117147798715371, 51.514119994466512 ] } },
{ "type": "Feature", "properties": { "id": 17, "utm_x": 700025.8537834197, "utm_y": 5711163.5825580936, "lon": -0.11702093082516674, "lat": 51.516128053525058 }, "geometry": { "type": "Point", "coordinates": [ -0.117020930825167, 51.516128053525058 ] } },
{ "type": "Feature", "properties": { "id": 18, "utm_x": 700025.8537834197, "utm_y": 5711387.1893558428, "lon": -0.1168940482423062, "lat": 51.518136111668568 }, "geometry": { "type": "Point", "coordinates": [ -0.116894048242306, 51.518136111668568 ] } },
{ "type": "Feature", "properties": { "id": 19, "utm_x": 700249.4605811697, "utm_y": 5707362.2669963436, "lon": -0.11595962992933691, "lat": 51.48191181738715 }, "geometry": { "type": "Point", "coordinates": [ -0.115959629929337, 51.48191181738715 ] } },
{ "type": "Feature", "properties": { "id": 20, "utm_x": 700249.4605811697, "utm_y": 5707585.8737940937, "lon": -0.11583285592511959, "lat": 51.483919885428953 }, "geometry": { "type": "Point", "coordinates": [ -0.11583285592512, 51.483919885428953 ] } },
{ "type": "Feature", "properties": { "id": 21, "utm_x": 700249.4605811697, "utm_y": 5707809.4805918438, "lon": -0.11570606724787402, "lat": 51.485927952555627 }, "geometry": { "type": "Point", "coordinates": [ -0.115706067247874, 51.485927952555627 ] } },
{ "type": "Feature", "properties": { "id": 22, "utm_x": 700249.4605811697, "utm_y": 5708033.087389593, "lon": -0.11557926389536231, "lat": 51.487936018767101 }, "geometry": { "type": "Point", "coordinates": [ -0.115579263895362, 51.487936018767101 ] } },
{ "type": "Feature", "properties": { "id": 23, "utm_x": 700249.4605811697, "utm_y": 5708256.6941873431, "lon": -0.11545244586533936, "lat": 51.48994408406341 }, "geometry": { "type": "Point", "coordinates": [ -0.115452445865339, 51.48994408406341 ] } },
{ "type": "Feature", "properties": { "id": 24, "utm_x": 700249.4605811697, "utm_y": 5708480.3009850932, "lon": -0.11532561315556526, "lat": 51.491952148444511 }, "geometry": { "type": "Point", "coordinates": [ -0.115325613155565, 51.491952148444511 ] } },
{ "type": "Feature", "properties": { "id": 25, "utm_x": 700249.4605811697, "utm_y": 5708703.9077828433, "lon": -0.11519876576379774, "lat": 51.493960211910355 }, "geometry": { "type": "Point", "coordinates": [ -0.115198765763798, 51.493960211910355 ] } },
{ "type": "Feature", "properties": { "id": 26, "utm_x": 700249.4605811697, "utm_y": 5708927.5145805934, "lon": -0.1150719036877941, "lat": 51.495968274460949 }, "geometry": { "type": "Point", "coordinates": [ -0.115071903687794, 51.495968274460949 ] } },
{ "type": "Feature", "properties": { "id": 27, "utm_x": 700249.4605811697, "utm_y": 5709151.1213783436, "lon": -0.11494502692531007, "lat": 51.497976336096244 }, "geometry": { "type": "Point", "coordinates": [ -0.11494502692531, 51.497976336096244 ] } },
{ "type": "Feature", "properties": { "id": 28, "utm_x": 700249.4605811697, "utm_y": 5709374.7281760937, "lon": -0.11481813547410256, "lat": 51.499984396816231 }, "geometry": { "type": "Point", "coordinates": [ -0.114818135474103, 51.499984396816231 ] } },
{ "type": "Feature", "properties": { "id": 29, "utm_x": 700249.4605811697, "utm_y": 5709598.3349738428, "lon": -0.11469122933192769, "lat": 51.501992456620883 }, "geometry": { "type": "Point", "coordinates": [ -0.114691229331928, 51.501992456620883 ] } },
{ "type": "Feature", "properties": { "id": 30, "utm_x": 700249.4605811697, "utm_y": 5709821.9417715929, "lon": -0.11456430849653997, "lat": 51.504000515510164 }, "geometry": { "type": "Point", "coordinates": [ -0.11456430849654, 51.504000515510164 ] } },
{ "type": "Feature", "properties": { "id": 31, "utm_x": 700249.4605811697, "utm_y": 5710045.5485693431, "lon": -0.11443737296569355, "lat": 51.506008573484081 }, "geometry": { "type": "Point", "coordinates": [ -0.114437372965694, 51.506008573484081 ] } },
{ "type": "Feature", "properties": { "id": 32, "utm_x": 700249.4605811697, "utm_y": 5710269.1553670932, "lon": -0.11431042273714415, "lat": 51.508016630542585 }, "geometry": { "type": "Point", "coordinates": [ -0.114310422737144, 51.508016630542585 ] } },
{ "type": "Feature", "properties": { "id": 33, "utm_x": 700249.4605811697, "utm_y": 5710492.7621648433, "lon": -0.1141834578086455, "lat": 51.510024686685654 }, "geometry": { "type": "Point", "coordinates": [ -0.114183457808645, 51.510024686685654 ] } },
{ "type": "Feature", "properties": { "id": 34, "utm_x": 700249.4605811697, "utm_y": 5710716.3689625934, "lon": -0.11405647817795014, "lat": 51.512032741913259 }, "geometry": { "type": "Point", "coordinates": [ -0.11405647817795, 51.512032741913259 ] } },
{ "type": "Feature", "properties": { "id": 35, "utm_x": 700249.4605811697, "utm_y": 5710939.9757603435, "lon": -0.1139294838428126, "lat": 51.514040796225409 }, "geometry": { "type": "Point", "coordinates": [ -0.113929483842813, 51.514040796225409 ] } },
{ "type": "Feature", "properties": { "id": 36, "utm_x": 700249.4605811697, "utm_y": 5711163.5825580936, "lon": -0.11380247480098303, "lat": 51.516048849622031 }, "geometry": { "type": "Point", "coordinates": [ -0.113802474800983, 51.516048849622031 ] } },
{ "type": "Feature", "properties": { "id": 37, "utm_x": 700249.4605811697, "utm_y": 5711387.1893558428, "lon": -0.11367545105021597, "lat": 51.518056902103112 }, "geometry": { "type": "Point", "coordinates": [ -0.113675451050216, 51.518056902103112 ] } },
{ "type": "Feature", "properties": { "id": 38, "utm_x": 700473.06737891969, "utm_y": 5707362.2669963436, "lon": -0.11274358594099761, "lat": 51.481832621565957 }, "geometry": { "type": "Point", "coordinates": [ -0.112743585940998, 51.481832621565957 ] } },
{ "type": "Feature", "properties": { "id": 39, "utm_x": 700473.06737891969, "utm_y": 5707585.8737940937, "lon": -0.11261667104759769, "lat": 51.483840683947484 }, "geometry": { "type": "Point", "coordinates": [ -0.112616671047598, 51.483840683947484 ] } },
{ "type": "Feature", "properties": { "id": 40, "utm_x": 700473.06737891969, "utm_y": 5707809.4805918438, "lon": -0.11248974146492682, "lat": 51.485848745413378 }, "geometry": { "type": "Point", "coordinates": [ -0.112489741464927, 51.485848745413378 ] } },
{ "type": "Feature", "properties": { "id": 41, "utm_x": 700473.06737891969, "utm_y": 5708033.087389593, "lon": -0.11236279719074393, "lat": 51.487856805963595 }, "geometry": { "type": "Point", "coordinates": [ -0.112362797190744, 51.487856805963595 ] } },
{ "type": "Feature", "properties": { "id": 42, "utm_x": 700473.06737891969, "utm_y": 5708256.6941873431, "lon": -0.11223583822280037, "lat": 51.489864865598143 }, "geometry": { "type": "Point", "coordinates": [ -0.1122358382228, 51.489864865598143 ] } },
{ "type": "Feature", "properties": { "id": 43, "utm_x": 700473.06737891969, "utm_y": 5708480.3009850932, "lon": -0.11210886455885501, "lat": 51.491872924316979 }, "geometry": { "type": "Point", "coordinates": [ -0.112108864558855, 51.491872924316979 ] } },
{ "type": "Feature", "properties": { "id": 44, "utm_x": 700473.06737891969, "utm_y": 5708703.9077828433, "lon": -0.11198187619666398, "lat": 51.493880982120068 }, "geometry": { "type": "Point", "coordinates": [ -0.111981876196664, 51.493880982120068 ] } },
{ "type": "Feature", "properties": { "id": 45, "utm_x": 700473.06737891969, "utm_y": 5708927.5145805934, "lon": -0.11185487313397825, "lat": 51.495889039007416 }, "geometry": { "type": "Point", "coordinates": [ -0.111854873133978, 51.495889039007416 ] } },
{ "type": "Feature", "properties": { "id": 46, "utm_x": 700473.06737891969, "utm_y": 5709151.1213783436, "lon": -0.1117278553685559, "lat": 51.49789709497896 }, "geometry": { "type": "Point", "coordinates": [ -0.111727855368556, 51.49789709497896 ] } },
{ "type": "Feature", "properties": { "id": 47, "utm_x": 700473.06737891969, "utm_y": 5709374.7281760937, "lon": -0.11160082289814829, "lat": 51.499905150034714 }, "geometry": { "type": "Point", "coordinates": [ -0.111600822898148, 51.499905150034714 ] } },
{ "type": "Feature", "properties": { "id": 48, "utm_x": 700473.06737891969, "utm_y": 5709598.3349738428, "lon": -0.11147377572050995, "lat": 51.501913204174627 }, "geometry": { "type": "Point", "coordinates": [ -0.11147377572051, 51.501913204174627 ] } },
{ "type": "Feature", "properties": { "id": 49, "utm_x": 700473.06737891969, "utm_y": 5709821.9417715929, "lon": -0.11134671383339262, "lat": 51.50392125739868 }, "geometry": { "type": "Point", "coordinates": [ -0.111346713833393, 51.50392125739868 ] } },
{ "type": "Feature", "properties": { "id": 50, "utm_x": 700473.06737891969, "utm_y": 5710045.5485693431, "lon": -0.11121963723455004, "lat": 51.505929309706865 }, "geometry": { "type": "Point", "coordinates": [ -0.11121963723455, 51.505929309706865 ] } },
{ "type": "Feature", "properties": { "id": 51, "utm_x": 700473.06737891969, "utm_y": 5710269.1553670932, "lon": -0.11109254592173197, "lat": 51.507937361099152 }, "geometry": { "type": "Point", "coordinates": [ -0.111092545921732, 51.507937361099152 ] } },
{ "type": "Feature", "properties": { "id": 52, "utm_x": 700473.06737891969, "utm_y": 5710492.7621648433, "lon": -0.11096543989269093, "lat": 51.509945411575522 }, "geometry": { "type": "Point", "coordinates": [ -0.110965439892691, 51.509945411575522 ] } },
{ "type": "Feature", "properties": { "id": 53, "utm_x": 700473.06737891969, "utm_y": 5710716.3689625934, "lon": -0.11083831914517908, "lat": 51.51195346113591 }, "geometry": { "type": "Point", "coordinates": [ -0.110838319145179, 51.51195346113591 ] } },
{ "type": "Feature", "properties": { "id": 54, "utm_x": 700473.06737891969, "utm_y": 5710939.9757603435, "lon": -0.11071118367694578, "lat": 51.513961509780337 }, "geometry": { "type": "Point", "coordinates": [ -0.110711183676946, 51.513961509780337 ] } },
{ "type": "Feature", "properties": { "id": 55, "utm_x": 700473.06737891969, "utm_y": 5711163.5825580936, "lon": -0.11058403348574039, "lat": 51.515969557508761 }, "geometry": { "type": "Point", "coordinates": [ -0.11058403348574, 51.515969557508761 ] } },
{ "type": "Feature", "properties": { "id": 56, "utm_x": 700473.06737891969, "utm_y": 5711387.1893558428, "lon": -0.11045686856931386, "lat": 51.517977604321153 }, "geometry": { "type": "Point", "coordinates": [ -0.110456868569314, 51.517977604321153 ] } },
{ "type": "Feature", "properties": { "id": 57, "utm_x": 700473.06737891969, "utm_y": 5711610.7961535929, "lon": -0.11032968892541316, "lat": 51.519985650217514 }, "geometry": { "type": "Point", "coordinates": [ -0.110329688925413, 51.519985650217514 ] } },
{ "type": "Feature", "properties": { "id": 58, "utm_x": 700696.67417666968, "utm_y": 5707362.2669963436, "lon": -0.10952755663968376, "lat": 51.481753337642274 }, "geometry": { "type": "Point", "coordinates": [ -0.109527556639684, 51.481753337642274 ] } },
{ "type": "Feature", "properties": { "id": 59, "utm_x": 700696.67417666968, "utm_y": 5707585.8737940937, "lon": -0.10940050085934591, "lat": 51.483761394357238 }, "geometry": { "type": "Point", "coordinates": [ -0.109400500859346, 51.483761394357238 ] } },
{ "type": "Feature", "properties": { "id": 60, "utm_x": 700696.67417666968, "utm_y": 5707809.4805918438, "lon": -0.10927343037349366, "lat": 51.485769450156084 }, "geometry": { "type": "Point", "coordinates": [ -0.109273430373494, 51.485769450156084 ] } },
{ "type": "Feature", "properties": { "id": 61, "utm_x": 700696.67417666968, "utm_y": 5708033.087389593, "lon": -0.10914634517988189, "lat": 51.487777505038757 }, "geometry": { "type": "Point", "coordinates": [ -0.109146345179882, 51.487777505038757 ] } },
{ "type": "Feature", "properties": { "id": 62, "utm_x": 700696.67417666968, "utm_y": 5708256.6941873431, "lon": -0.10901924527626317, "lat": 51.489785559005249 }, "geometry": { "type": "Point", "coordinates": [ -0.109019245276263, 51.489785559005249 ] } },
{ "type": "Feature", "properties": { "id": 63, "utm_x": 700696.67417666968, "utm_y": 5708480.3009850932, "lon": -0.10889213066039241, "lat": 51.491793612055552 }, "geometry": { "type": "Point", "coordinates": [ -0.108892130660392, 51.491793612055552 ] } },
{ "type": "Feature", "properties": { "id": 64, "utm_x": 700696.67417666968, "utm_y": 5708703.9077828433, "lon": -0.10876500133002057, "lat": 51.493801664189604 }, "geometry": { "type": "Point", "coordinates": [ -0.108765001330021, 51.493801664189604 ] } },
{ "type": "Feature", "properties": { "id": 65, "utm_x": 700696.67417666968, "utm_y": 5708927.5145805934, "lon": -0.10863785728290137, "lat": 51.495809715407418 }, "geometry": { "type": "Point", "coordinates": [ -0.108637857282901, 51.495809715407418 ] } },
{ "type": "Feature", "properties": { "id": 66, "utm_x": 700696.67417666968, "utm_y": 5709151.1213783436, "lon": -0.10851069851678539, "lat": 51.497817765708959 }, "geometry": { "type": "Point", "coordinates": [ -0.108510698516785, 51.497817765708959 ] } },
{ "type": "Feature", "properties": { "id": 67, "utm_x": 700696.67417666968, "utm_y": 5709374.7281760937, "lon": -0.10838352502942475, "lat": 51.499825815094184 }, "geometry": { "type": "Point", "coordinates": [ -0.108383525029425, 51.499825815094184 ] } },
{ "type": "Feature", "properties": { "id": 68, "utm_x": 700696.67417666968, "utm_y": 5709598.3349738428, "lon": -0.1082563368185708, "lat": 51.501833863563071 }, "geometry": { "type": "Point", "coordinates": [ -0.108256336818571, 51.501833863563071 ] } },
{ "type": "Feature", "properties": { "id": 69, "utm_x": 700696.67417666968, "utm_y": 5709821.9417715929, "lon": -0.10812913388197133, "lat": 51.503841911115629 }, "geometry": { "type": "Point", "coordinates": [ -0.108129133881971, 51.503841911115629 ] } },
{ "type": "Feature", "properties": { "id": 70, "utm_x": 700696.67417666968, "utm_y": 5710045.5485693431, "lon": -0.10800191621737845, "lat": 51.505849957751806 }, "geometry": { "type": "Point", "coordinates": [ -0.108001916217378, 51.505849957751806 ] } },
{ "type": "Feature", "properties": { "id": 71, "utm_x": 700696.67417666968, "utm_y": 5710269.1553670932, "lon": -0.10787468382254155, "lat": 51.507858003471583 }, "geometry": { "type": "Point", "coordinates": [ -0.107874683822542, 51.507858003471583 ] } },
{ "type": "Feature", "properties": { "id": 72, "utm_x": 700696.67417666968, "utm_y": 5710492.7621648433, "lon": -0.10774743669520877, "lat": 51.509866048274937 }, "geometry": { "type": "Point", "coordinates": [ -0.107747436695209, 51.509866048274937 ] } },
{ "type": "Feature", "properties": { "id": 73, "utm_x": 700696.67417666968, "utm_y": 5710716.3689625934, "lon": -0.10762017483312829, "lat": 51.511874092161847 }, "geometry": { "type": "Point", "coordinates": [ -0.107620174833128, 51.511874092161847 ] } },
{ "type": "Feature", "properties": { "id": 74, "utm_x": 700696.67417666968, "utm_y": 5710939.9757603435, "lon": -0.10749289823404948, "lat": 51.513882135132278 }, "geometry": { "type": "Point", "coordinates": [ -0.107492898234049, 51.513882135132278 ] } },
{ "type": "Feature", "properties": { "id": 75, "utm_x": 700696.67417666968, "utm_y": 5711163.5825580936, "lon": -0.1073656068957185, "lat": 51.515890177186208 }, "geometry": { "type": "Point", "coordinates": [ -0.107365606895719, 51.515890177186208 ] } },
{ "type": "Feature", "properties": { "id": 76, "utm_x": 700696.67417666968, "utm_y": 5711387.1893558428, "lon": -0.10723830081588315, "lat": 51.51789821832363 }, "geometry": { "type": "Point", "coordinates": [ -0.107238300815883, 51.51789821832363 ] } },
{ "type": "Feature", "properties": { "id": 77, "utm_x": 700696.67417666968, "utm_y": 5711610.7961535929, "lon": -0.10711097999228958, "lat": 51.519906258544495 }, "geometry": { "type": "Point", "coordinates": [ -0.10711097999229, 51.519906258544495 ] } },
{ "type": "Feature", "properties": { "id": 78, "utm_x": 700920.28097441955, "utm_y": 5707362.2669963436, "lon": -0.10631154204164085, "lat": 51.481673965617027 }, "geometry": { "type": "Point", "coordinates": [ -0.106311542041641, 51.481673965617027 ] } },
{ "type": "Feature", "properties": { "id": 79, "utm_x": 700920.28097441955, "utm_y": 5707585.8737940937, "lon": -0.10618434537660817, "lat": 51.483682016659166 }, "geometry": { "type": "Point", "coordinates": [ -0.106184345376608, 51.483682016659166 ] } },
{ "type": "Feature", "properties": { "id": 80, "utm_x": 700920.28097441955, "utm_y": 5707809.4805918438, "lon": -0.10605713398982076, "lat": 51.48569006678467 }, "geometry": { "type": "Point", "coordinates": [ -0.106057133989821, 51.48569006678467 ] } },
{ "type": "Feature", "properties": { "id": 81, "utm_x": 700920.28097441955, "utm_y": 5708033.087389593, "lon": -0.10592990787902759, "lat": 51.487698115993524 }, "geometry": { "type": "Point", "coordinates": [ -0.105929907879028, 51.487698115993524 ] } },
{ "type": "Feature", "properties": { "id": 82, "utm_x": 700920.28097441955, "utm_y": 5708256.6941873431, "lon": -0.10580266704197959, "lat": 51.4897061642857 }, "geometry": { "type": "Point", "coordinates": [ -0.10580266704198, 51.4897061642857 ] } },
{ "type": "Feature", "properties": { "id": 83, "utm_x": 700920.28097441955, "utm_y": 5708480.3009850932, "lon": -0.1056754114764301, "lat": 51.491714211661176 }, "geometry": { "type": "Point", "coordinates": [ -0.10567541147643, 51.491714211661176 ] } },
{ "type": "Feature", "properties": { "id": 84, "utm_x": 700920.28097441955, "utm_y": 5708703.9077828433, "lon": -0.10554814118012729, "lat": 51.493722258119909 }, "geometry": { "type": "Point", "coordinates": [ -0.105548141180127, 51.493722258119909 ] } },
{ "type": "Feature", "properties": { "id": 85, "utm_x": 700920.28097441955, "utm_y": 5708927.5145805934, "lon": -0.10542085615082131, "lat": 51.495730303661929 }, "geometry": { "type": "Point", "coordinates": [ -0.105420856150821, 51.495730303661929 ] } },
{ "type": "Feature", "properties": { "id": 86, "utm_x": 700920.28097441955, "utm_y": 5709151.1213783436, "lon": -0.10529355638626192, "lat": 51.497738348287136 }, "geometry": { "type": "Point", "coordinates": [ -0.105293556386262, 51.497738348287136 ] } },
{ "type": "Feature", "properties": { "id": 87, "utm_x": 700920.28097441955, "utm_y": 5709374.7281760937, "lon": -0.10516624188419652, "lat": 51.499746391995572 }, "geometry": { "type": "Point", "coordinates": [ -0.105166241884197, 51.499746391995572 ] } },
{ "type": "Feature", "properties": { "id": 88, "utm_x": 700920.28097441955, "utm_y": 5709598.3349738428, "lon": -0.10503891264237561, "lat": 51.501754434787173 }, "geometry": { "type": "Point", "coordinates": [ -0.105038912642376, 51.501754434787173 ] } },
{ "type": "Feature", "properties": { "id": 89, "utm_x": 700920.28097441955, "utm_y": 5709821.9417715929, "lon": -0.10491156865854581, "lat": 51.503762476661919 }, "geometry": { "type": "Point", "coordinates": [ -0.104911568658546, 51.503762476661919 ] } },
{ "type": "Feature", "properties": { "id": 90, "utm_x": 700920.28097441955, "utm_y": 5710045.5485693431, "lon": -0.10478420993045408, "lat": 51.505770517619816 }, "geometry": { "type": "Point", "coordinates": [ -0.104784209930454, 51.505770517619816 ] } },
{ "type": "Feature", "properties": { "id": 91, "utm_x": 700920.28097441955, "utm_y": 5710269.1553670932, "lon": -0.10465683645584778, "lat": 51.507778557660799 }, "geometry": { "type": "Point", "coordinates": [ -0.104656836455848, 51.507778557660799 ] } },
{ "type": "Feature", "properties": { "id": 92, "utm_x": 700920.28097441955, "utm_y": 5710492.7621648433, "lon": -0.1045294482324743, "lat": 51.509786596784878 }, "geometry": { "type": "Point", "coordinates": [ -0.104529448232474, 51.509786596784878 ] } },
{ "type": "Feature", "properties": { "id": 93, "utm_x": 700920.28097441955, "utm_y": 5710716.3689625934, "lon": -0.10440204525807863, "lat": 51.511794634992 }, "geometry": { "type": "Point", "coordinates": [ -0.104402045258079, 51.511794634992 ] } },
{ "type": "Feature", "properties": { "id": 94, "utm_x": 700920.28097441955, "utm_y": 5710939.9757603435, "lon": -0.10427462753040613, "lat": 51.513802672282168 }, "geometry": { "type": "Point", "coordinates": [ -0.104274627530406, 51.513802672282168 ] } },
{ "type": "Feature", "properties": { "id": 95, "utm_x": 700920.28097441955, "utm_y": 5711163.5825580936, "lon": -0.1041471950472022, "lat": 51.515810708655323 }, "geometry": { "type": "Point", "coordinates": [ -0.104147195047202, 51.515810708655323 ] } },
{ "type": "Feature", "properties": { "id": 96, "utm_x": 700920.28097441955, "utm_y": 5711387.1893558428, "lon": -0.10401974780621263, "lat": 51.517818744111452 }, "geometry": { "type": "Point", "coordinates": [ -0.104019747806213, 51.517818744111452 ] } },
{ "type": "Feature", "properties": { "id": 97, "utm_x": 700920.28097441955, "utm_y": 5711610.7961535929, "lon": -0.10389228580517881, "lat": 51.519826778650575 }, "geometry": { "type": "Point", "coordinates": [ -0.103892285805179, 51.519826778650575 ] } },
{ "type": "Feature", "properties": { "id": 98, "utm_x": 701143.88777216955, "utm_y": 5707362.2669963436, "lon": -0.10309554216310522, "lat": 51.481594505491159 }, "geometry": { "type": "Point", "coordinates": [ -0.103095542163105, 51.481594505491159 ] } },
{ "type": "Feature", "properties": { "id": 99, "utm_x": 701143.88777216955, "utm_y": 5707585.8737940937, "lon": -0.10296820461562796, "lat": 51.483602550854179 }, "geometry": { "type": "Point", "coordinates": [ -0.102968204615628, 51.483602550854179 ] } },
{ "type": "Feature", "properties": { "id": 100, "utm_x": 701143.88777216955, "utm_y": 5707809.4805918438, "lon": -0.10284085233015128, "lat": 51.485610595300081 }, "geometry": { "type": "Point", "coordinates": [ -0.102840852330151, 51.485610595300081 ] } },
{ "type": "Feature", "properties": { "id": 101, "utm_x": 701143.88777216955, "utm_y": 5708033.087389593, "lon": -0.10271348530442652, "lat": 51.48761863882882 }, "geometry": { "type": "Point", "coordinates": [ -0.102713485304427, 51.48761863882882 ] } },
{ "type": "Feature", "properties": { "id": 102, "utm_x": 701143.88777216955, "utm_y": 5708256.6941873431, "lon": -0.10258610353619987, "lat": 51.489626681440392 }, "geometry": { "type": "Point", "coordinates": [ -0.1025861035362, 51.489626681440392 ] } },
{ "type": "Feature", "properties": { "id": 103, "utm_x": 701143.88777216955, "utm_y": 5708480.3009850932, "lon": -0.10245870702322031, "lat": 51.491634723134787 }, "geometry": { "type": "Point", "coordinates": [ -0.10245870702322, 51.491634723134787 ] } },
{ "type": "Feature", "properties": { "id": 104, "utm_x": 701143.88777216955, "utm_y": 5708703.9077828433, "lon": -0.10233129576323598, "lat": 51.493642763911936 }, "geometry": { "type": "Point", "coordinates": [ -0.102331295763236, 51.493642763911936 ] } },
{ "type": "Feature", "properties": { "id": 105, "utm_x": 701143.88777216955, "utm_y": 5708927.5145805934, "lon": -0.10220386975399386, "lat": 51.495650803771845 }, "geometry": { "type": "Point", "coordinates": [ -0.102203869753994, 51.495650803771845 ] } },
{ "type": "Feature", "properties": { "id": 106, "utm_x": 701143.88777216955, "utm_y": 5709151.1213783436, "lon": -0.10207642899324171, "lat": 51.497658842714486 }, "geometry": { "type": "Point", "coordinates": [ -0.102076428993242, 51.497658842714486 ] } },
{ "type": "Feature", "properties": { "id": 107, "utm_x": 701143.88777216955, "utm_y": 5709374.7281760937, "lon": -0.10194897347872454, "lat": 51.499666880739824 }, "geometry": { "type": "Point", "coordinates": [ -0.101948973478725, 51.499666880739824 ] } },
{ "type": "Feature", "properties": { "id": 108, "utm_x": 701143.88777216955, "utm_y": 5709598.3349738428, "lon": -0.10182150320818932, "lat": 51.501674917847843 }, "geometry": { "type": "Point", "coordinates": [ -0.101821503208189, 51.501674917847843 ] } },
{ "type": "Feature", "properties": { "id": 109, "utm_x": 701143.88777216955, "utm_y": 5709821.9417715929, "lon": -0.10169401817938023, "lat": 51.503682954038531 }, "geometry": { "type": "Point", "coordinates": [ -0.10169401817938, 51.503682954038531 ] } },
{ "type": "Feature", "properties": { "id": 110, "utm_x": 701143.88777216955, "utm_y": 5710045.5485693431, "lon": -0.10156651839004266, "lat": 51.505690989311837 }, "geometry": { "type": "Point", "coordinates": [ -0.101566518390043, 51.505690989311837 ] } },
{ "type": "Feature", "properties": { "id": 111, "utm_x": 701143.88777216955, "utm_y": 5710269.1553670932, "lon": -0.1014390038379224, "lat": 51.507699023667762 }, "geometry": { "type": "Point", "coordinates": [ -0.101439003837922, 51.507699023667762 ] } },
{ "type": "Feature", "properties": { "id": 112, "utm_x": 701143.88777216955, "utm_y": 5710492.7621648433, "lon": -0.10131147452076124, "lat": 51.509707057106269 }, "geometry": { "type": "Point", "coordinates": [ -0.101311474520761, 51.509707057106269 ] } },
{ "type": "Feature", "properties": { "id": 113, "utm_x": 701143.88777216955, "utm_y": 5710716.3689625934, "lon": -0.10118393043630418, "lat": 51.51171508962733 }, "geometry": { "type": "Point", "coordinates": [ -0.101183930436304, 51.51171508962733 ] } },
{ "type": "Feature", "properties": { "id": 114, "utm_x": 701143.88777216955, "utm_y": 5710939.9757603435, "lon": -0.10105637158229341, "lat": 51.513723121230925 }, "geometry": { "type": "Point", "coordinates": [ -0.101056371582293, 51.513723121230925 ] } },
{ "type": "Feature", "properties": { "id": 115, "utm_x": 701143.88777216955, "utm_y": 5711163.5825580936, "lon": -0.10092879795647314, "lat": 51.515731151917024 }, "geometry": { "type": "Point", "coordinates": [ -0.100928797956473, 51.515731151917024 ] } },
{ "type": "Feature", "properties": { "id": 116, "utm_x": 701143.88777216955, "utm_y": 5711387.1893558428, "lon": -0.10080120955658357, "lat": 51.517739181685606 }, "geometry": { "type": "Point", "coordinates": [ -0.100801209556584, 51.517739181685606 ] } },
{ "type": "Feature", "properties": { "id": 117, "utm_x": 701143.88777216955, "utm_y": 5711610.7961535929, "lon": -0.10067360638036651, "lat": 51.519747210536664 }, "geometry": { "type": "Point", "coordinates": [ -0.100673606380367, 51.519747210536664 ] } },
{ "type": "Feature", "properties": { "id": 118, "utm_x": 701367.49456991954, "utm_y": 5707362.2669963436, "lon": -0.099879557020317186, "lat": 51.48151495726561 }, "geometry": { "type": "Point", "coordinates": [ -0.099879557020317, 51.48151495726561 ] } },
{ "type": "Feature", "properties": { "id": 119, "utm_x": 701367.49456991954, "utm_y": 5707585.8737940937, "lon": -0.099752078592645163, "lat": 51.48352299694325 }, "geometry": { "type": "Point", "coordinates": [ -0.099752078592645, 51.48352299694325 ] } },
{ "type": "Feature", "properties": { "id": 120, "utm_x": 701367.49456991954, "utm_y": 5707809.4805918438, "lon": -0.099624585410732241, "lat": 51.485531035703268 }, "geometry": { "type": "Point", "coordinates": [ -0.099624585410732, 51.485531035703268 ] } },
{ "type": "Feature", "properties": { "id": 121, "utm_x": 701367.49456991954, "utm_y": 5708033.087389593, "lon": -0.099497077472325363, "lat": 51.487539073545626 }, "geometry": { "type": "Point", "coordinates": [ -0.099497077472325, 51.487539073545626 ] } },
{ "type": "Feature", "properties": { "id": 122, "utm_x": 701367.49456991954, "utm_y": 5708256.6941873431, "lon": -0.099369554775171912, "lat": 51.489547110470312 }, "geometry": { "type": "Point", "coordinates": [ -0.099369554775172, 51.489547110470312 ] } },
{ "type": "Feature", "properties": { "id": 123, "utm_x": 701367.49456991954, "utm_y": 5708480.3009850932, "lon": -0.099242017317015277, "lat": 51.491555146477324 }, "geometry": { "type": "Point", "coordinates": [ -0.099242017317015, 51.491555146477324 ] } },
{ "type": "Feature", "properties": { "id": 124, "utm_x": 701367.49456991954, "utm_y": 5708703.9077828433, "lon": -0.099114465095602053, "lat": 51.4935631815666 }, "geometry": { "type": "Point", "coordinates": [ -0.099114465095602, 51.4935631815666 ] } },
{ "type": "Feature", "properties": { "id": 125, "utm_x": 701367.49456991954, "utm_y": 5708927.5145805934, "lon": -0.098986898108677598, "lat": 51.495571215738153 }, "geometry": { "type": "Point", "coordinates": [ -0.098986898108678, 51.495571215738153 ] } },
{ "type": "Feature", "properties": { "id": 126, "utm_x": 701367.49456991954, "utm_y": 5709151.1213783436, "lon": -0.09885931635398533, "lat": 51.497579248991919 }, "geometry": { "type": "Point", "coordinates": [ -0.098859316353985, 51.497579248991919 ] } },
{ "type": "Feature", "properties": { "id": 127, "utm_x": 701367.49456991954, "utm_y": 5709374.7281760937, "lon": -0.098731719829270231, "lat": 51.499587281327898 }, "geometry": { "type": "Point", "coordinates": [ -0.09873171982927, 51.499587281327898 ] } },
{ "type": "Feature", "properties": { "id": 128, "utm_x": 701367.49456991954, "utm_y": 5709598.3349738428, "lon": -0.098604108532275303, "lat": 51.501595312746048 }, "geometry": { "type": "Point", "coordinates": [ -0.098604108532275, 51.501595312746048 ] } },
{ "type": "Feature", "properties": { "id": 129, "utm_x": 701367.49456991954, "utm_y": 5709821.9417715929, "lon": -0.098476482460743142, "lat": 51.503603343246368 }, "geometry": { "type": "Point", "coordinates": [ -0.098476482460743, 51.503603343246368 ] } },
{ "type": "Feature", "properties": { "id": 130, "utm_x": 701367.49456991954, "utm_y": 5710045.5485693431, "lon": -0.09834884161241475, "lat": 51.505611372828831 }, "geometry": { "type": "Point", "coordinates": [ -0.098348841612415, 51.505611372828831 ] } },
{ "type": "Feature", "properties": { "id": 131, "utm_x": 701367.49456991954, "utm_y": 5710269.1553670932, "lon": -0.098221185985034723, "lat": 51.5076194014934 }, "geometry": { "type": "Point", "coordinates": [ -0.098221185985035, 51.5076194014934 ] } },
{ "type": "Feature", "properties": { "id": 132, "utm_x": 701367.49456991954, "utm_y": 5710492.7621648433, "lon": -0.098093515576342882, "lat": 51.509627429240055 }, "geometry": { "type": "Point", "coordinates": [ -0.098093515576343, 51.509627429240055 ] } },
{ "type": "Feature", "properties": { "id": 133, "utm_x": 701367.49456991954, "utm_y": 5710716.3689625934, "lon": -0.097965830384082242, "lat": 51.511635456068767 }, "geometry": { "type": "Point", "coordinates": [ -0.097965830384082, 51.511635456068767 ] } },
{ "type": "Feature", "properties": { "id": 134, "utm_x": 701367.49456991954, "utm_y": 5710939.9757603435, "lon": -0.097838130405991, "lat": 51.513643481979507 }, "geometry": { "type": "Point", "coordinates": [ -0.097838130405991, 51.513643481979507 ] } },
{ "type": "Feature", "properties": { "id": 135, "utm_x": 701367.49456991954, "utm_y": 5711163.5825580936, "lon": -0.097710415639810186, "lat": 51.515651506972283 }, "geometry": { "type": "Point", "coordinates": [ -0.09771041563981, 51.515651506972283 ] } },
{ "type": "Feature", "properties": { "id": 136, "utm_x": 701367.49456991954, "utm_y": 5711387.1893558428, "lon": -0.097582686083280801, "lat": 51.517659531047009 }, "geometry": { "type": "Point", "coordinates": [ -0.097582686083281, 51.517659531047009 ] } },
{ "type": "Feature", "properties": { "id": 137, "utm_x": 701367.49456991954, "utm_y": 5711610.7961535929, "lon": -0.097454941734139489, "lat": 51.519667554203721 }, "geometry": { "type": "Point", "coordinates": [ -0.097454941734139, 51.519667554203721 ] } },
{ "type": "Feature", "properties": { "id": 138, "utm_x": 701591.10136766953, "utm_y": 5707362.2669963436, "lon": -0.096663586629517823, "lat": 51.481435320941337 }, "geometry": { "type": "Point", "coordinates": [ -0.096663586629518, 51.481435320941337 ] } },
{ "type": "Feature", "properties": { "id": 139, "utm_x": 701591.10136766953, "utm_y": 5707585.8737940937, "lon": -0.096535967323902114, "lat": 51.483443354927303 }, "geometry": { "type": "Point", "coordinates": [ -0.096535967323902, 51.483443354927303 ] } },
{ "type": "Feature", "properties": { "id": 140, "utm_x": 701591.10136766953, "utm_y": 5707809.4805918438, "lon": -0.096408333247805553, "lat": 51.485451387995155 }, "geometry": { "type": "Point", "coordinates": [ -0.096408333247806, 51.485451387995155 ] } },
{ "type": "Feature", "properties": { "id": 141, "utm_x": 701591.10136766953, "utm_y": 5708033.087389593, "lon": -0.09628068439897236, "lat": 51.487459420144859 }, "geometry": { "type": "Point", "coordinates": [ -0.096280684398972, 51.487459420144859 ] } },
{ "type": "Feature", "properties": { "id": 142, "utm_x": 701591.10136766953, "utm_y": 5708256.6941873431, "lon": -0.096153020775144732, "lat": 51.489467451376399 }, "geometry": { "type": "Point", "coordinates": [ -0.096153020775145, 51.489467451376399 ] } },
{ "type": "Feature", "properties": { "id": 143, "utm_x": 701591.10136766953, "utm_y": 5708480.3009850932, "lon": -0.096025342374065667, "lat": 51.491475481689747 }, "geometry": { "type": "Point", "coordinates": [ -0.096025342374066, 51.491475481689747 ] } },
{ "type": "Feature", "properties": { "id": 144, "utm_x": 701591.10136766953, "utm_y": 5708703.9077828433, "lon": -0.095897649193479734, "lat": 51.493483511084875 }, "geometry": { "type": "Point", "coordinates": [ -0.09589764919348, 51.493483511084875 ] } },
{ "type": "Feature", "properties": { "id": 145, "utm_x": 701591.10136766953, "utm_y": 5708927.5145805934, "lon": -0.095769941231127975, "lat": 51.495491539561769 }, "geometry": { "type": "Point", "coordinates": [ -0.095769941231128, 51.495491539561769 ] } },
{ "type": "Feature", "properties": { "id": 146, "utm_x": 701591.10136766953, "utm_y": 5709151.1213783436, "lon": -0.095642218484753377, "lat": 51.497499567120386 }, "geometry": { "type": "Point", "coordinates": [ -0.095642218484753, 51.497499567120386 ] } },
{ "type": "Feature", "properties": { "id": 147, "utm_x": 701591.10136766953, "utm_y": 5709374.7281760937, "lon": -0.095514480952095762, "lat": 51.499507593760733 }, "geometry": { "type": "Point", "coordinates": [ -0.095514480952096, 51.499507593760733 ] } },
{ "type": "Feature", "properties": { "id": 148, "utm_x": 701591.10136766953, "utm_y": 5709598.3349738428, "lon": -0.095386728630898115, "lat": 51.501515619482738 }, "geometry": { "type": "Point", "coordinates": [ -0.095386728630898, 51.501515619482738 ] } },
{ "type": "Feature", "properties": { "id": 149, "utm_x": 701591.10136766953, "utm_y": 5709821.9417715929, "lon": -0.09525896151889908, "lat": 51.50352364428641 }, "geometry": { "type": "Point", "coordinates": [ -0.095258961518899, 51.50352364428641 ] } },
{ "type": "Feature", "properties": { "id": 150, "utm_x": 701591.10136766953, "utm_y": 5710045.5485693431, "lon": -0.095131179613839656, "lat": 51.505531668171741 }, "geometry": { "type": "Point", "coordinates": [ -0.09513117961384, 51.505531668171741 ] } },
{ "type": "Feature", "properties": { "id": 151, "utm_x": 701591.10136766953, "utm_y": 5710269.1553670932, "lon": -0.095003382913459264, "lat": 51.507539691138668 }, "geometry": { "type": "Point", "coordinates": [ -0.095003382913459, 51.507539691138668 ] } },
{ "type": "Feature", "properties": { "id": 152, "utm_x": 701591.10136766953, "utm_y": 5710492.7621648433, "lon": -0.094875571415495741, "lat": 51.509547713187175 }, "geometry": { "type": "Point", "coordinates": [ -0.094875571415496, 51.509547713187175 ] } },
{ "type": "Feature", "properties": { "id": 153, "utm_x": 701591.10136766953, "utm_y": 5710716.3689625934, "lon": -0.094747745117690088, "lat": 51.511555734317255 }, "geometry": { "type": "Point", "coordinates": [ -0.09474774511769, 51.511555734317255 ] } },
{ "type": "Feature", "properties": { "id": 154, "utm_x": 701591.10136766953, "utm_y": 5710939.9757603435, "lon": -0.094619904017778159, "lat": 51.513563754528874 }, "geometry": { "type": "Point", "coordinates": [ -0.094619904017778, 51.513563754528874 ] } },
{ "type": "Feature", "properties": { "id": 155, "utm_x": 701591.10136766953, "utm_y": 5711163.5825580936, "lon": -0.094492048113497776, "lat": 51.515571773822003 }, "geometry": { "type": "Point", "coordinates": [ -0.094492048113498, 51.515571773822003 ] } },
{ "type": "Feature", "properties": { "id": 156, "utm_x": 701591.10136766953, "utm_y": 5711387.1893558428, "lon": -0.094364177402588775, "lat": 51.517579792196614 }, "geometry": { "type": "Point", "coordinates": [ -0.094364177402589, 51.517579792196614 ] } },
{ "type": "Feature", "properties": { "id": 157, "utm_x": 701591.10136766953, "utm_y": 5711610.7961535929, "lon": -0.094236291882784179, "lat": 51.519587809652705 }, "geometry": { "type": "Point", "coordinates": [ -0.094236291882784, 51.519587809652705 ] } },
{ "type": "Feature", "properties": { "id": 158, "utm_x": 701814.70816541952, "utm_y": 5707362.2669963436, "lon": -0.093447631006944698, "lat": 51.481355596519258 }, "geometry": { "type": "Point", "coordinates": [ -0.093447631006945, 51.481355596519258 ] } },
{ "type": "Feature", "properties": { "id": 159, "utm_x": 701814.70816541952, "utm_y": 5707585.8737940937, "lon": -0.093319870825642262, "lat": 51.483363624807289 }, "geometry": { "type": "Point", "coordinates": [ -0.093319870825642, 51.483363624807289 ] } },
{ "type": "Feature", "properties": { "id": 160, "utm_x": 701814.70816541952, "utm_y": 5707809.4805918438, "lon": -0.093192095857618298, "lat": 51.48537165217671 }, "geometry": { "type": "Point", "coordinates": [ -0.093192095857618, 51.48537165217671 ] } },
{ "type": "Feature", "properties": { "id": 161, "utm_x": 701814.70816541952, "utm_y": 5708033.087389593, "lon": -0.093064306100612615, "lat": 51.48737967862747 }, "geometry": { "type": "Point", "coordinates": [ -0.093064306100613, 51.48737967862747 ] } },
{ "type": "Feature", "properties": { "id": 162, "utm_x": 701814.70816541952, "utm_y": 5708256.6941873431, "lon": -0.092936501552367795, "lat": 51.489387704159576 }, "geometry": { "type": "Point", "coordinates": [ -0.092936501552368, 51.489387704159576 ] } },
{ "type": "Feature", "properties": { "id": 163, "utm_x": 701814.70816541952, "utm_y": 5708480.3009850932, "lon": -0.092808682210624077, "lat": 51.491395728772993 }, "geometry": { "type": "Point", "coordinates": [ -0.092808682210624, 51.491395728772993 ] } },
{ "type": "Feature", "properties": { "id": 164, "utm_x": 701814.70816541952, "utm_y": 5708703.9077828433, "lon": -0.092680848073122477, "lat": 51.493403752467685 }, "geometry": { "type": "Point", "coordinates": [ -0.092680848073122, 51.493403752467685 ] } },
{ "type": "Feature", "properties": { "id": 165, "utm_x": 701814.70816541952, "utm_y": 5708927.5145805934, "lon": -0.092552999137601205, "lat": 51.495411775243653 }, "geometry": { "type": "Point", "coordinates": [ -0.092552999137601, 51.495411775243653 ] } },
{ "type": "Feature", "properties": { "id": 166, "utm_x": 701814.70816541952, "utm_y": 5709151.1213783436, "lon": -0.092425135401802069, "lat": 51.497419797100846 }, "geometry": { "type": "Point", "coordinates": [ -0.092425135401802, 51.497419797100846 ] } },
{ "type": "Feature", "properties": { "id": 167, "utm_x": 701814.70816541952, "utm_y": 5709374.7281760937, "lon": -0.092297256863462102, "lat": 51.499427818039251 }, "geometry": { "type": "Point", "coordinates": [ -0.092297256863462, 51.499427818039251 ] } },
{ "type": "Feature", "properties": { "id": 168, "utm_x": 701814.70816541952, "utm_y": 5709598.3349738428, "lon": -0.092169363520321942, "lat": 51.501435838058839 }, "geometry": { "type": "Point", "coordinates": [ -0.092169363520322, 51.501435838058839 ] } },
{ "type": "Feature", "properties": { "id": 169, "utm_x": 701814.70816541952, "utm_y": 5709821.9417715929, "lon": -0.09204145537011621, "lat": 51.503443857159589 }, "geometry": { "type": "Point", "coordinates": [ -0.092041455370116, 51.503443857159589 ] } },
{ "type": "Feature", "properties": { "id": 170, "utm_x": 701814.70816541952, "utm_y": 5710045.5485693431, "lon": -0.091913532410585128, "lat": 51.505451875341485 }, "geometry": { "type": "Point", "coordinates": [ -0.091913532410585, 51.505451875341485 ] } },
{ "type": "Feature", "properties": { "id": 171, "utm_x": 701814.70816541952, "utm_y": 5710269.1553670932, "lon": -0.091785594639464563, "lat": 51.507459892604494 }, "geometry": { "type": "Point", "coordinates": [ -0.091785594639465, 51.507459892604494 ] } },
{ "type": "Feature", "properties": { "id": 172, "utm_x": 701814.70816541952, "utm_y": 5710492.7621648433, "lon": -0.091657642054491506, "lat": 51.509467908948608 }, "geometry": { "type": "Point", "coordinates": [ -0.091657642054492, 51.509467908948608 ] } },
{ "type": "Feature", "properties": { "id": 173, "utm_x": 701814.70816541952, "utm_y": 5710716.3689625934, "lon": -0.091529674653403031, "lat": 51.511475924373755 }, "geometry": { "type": "Point", "coordinates": [ -0.091529674653403, 51.511475924373755 ] } },
{ "type": "Feature", "properties": { "id": 174, "utm_x": 701814.70816541952, "utm_y": 5710939.9757603435, "lon": -0.091401692433933382, "lat": 51.513483938879958 }, "geometry": { "type": "Point", "coordinates": [ -0.091401692433933, 51.513483938879958 ] } },
{ "type": "Feature", "properties": { "id": 175, "utm_x": 701814.70816541952, "utm_y": 5711163.5825580936, "lon": -0.091273695393817189, "lat": 51.515491952467173 }, "geometry": { "type": "Point", "coordinates": [ -0.091273695393817, 51.515491952467173 ] } },
{ "type": "Feature", "properties": { "id": 176, "utm_x": 701814.70816541952, "utm_y": 5711387.1893558428, "lon": -0.091145683530790722, "lat": 51.517499965135364 }, "geometry": { "type": "Point", "coordinates": [ -0.091145683530791, 51.517499965135364 ] } },
{ "type": "Feature", "properties": { "id": 177, "utm_x": 701814.70816541952, "utm_y": 5711610.7961535929, "lon": -0.091017656842587016, "lat": 51.51950797688454 }, "geometry": { "type": "Point", "coordinates": [ -0.091017656842587, 51.51950797688454 ] } },
{ "type": "Feature", "properties": { "id": 178, "utm_x": 702038.31496316951, "utm_y": 5707362.2669963436, "lon": -0.090231690168835296, "lat": 51.481275784000353 }, "geometry": { "type": "Point", "coordinates": [ -0.090231690168835, 51.481275784000353 ] } },
{ "type": "Feature", "properties": { "id": 179, "utm_x": 702038.31496316951, "utm_y": 5707585.8737940937, "lon": -0.090103789114104757, "lat": 51.483283806584154 }, "geometry": { "type": "Point", "coordinates": [ -0.090103789114105, 51.483283806584154 ] } },
{ "type": "Feature", "properties": { "id": 180, "utm_x": 702038.31496316951, "utm_y": 5707809.4805918438, "lon": -0.089975873256409974, "lat": 51.485291828248855 }, "geometry": { "type": "Point", "coordinates": [ -0.08997587325641, 51.485291828248855 ] } },
{ "type": "Feature", "properties": { "id": 181, "utm_x": 702038.31496316951, "utm_y": 5708033.087389593, "lon": -0.089847942593492769, "lat": 51.487299848994397 }, "geometry": { "type": "Point", "coordinates": [ -0.089847942593493, 51.487299848994397 ] } },
{ "type": "Feature", "properties": { "id": 182, "utm_x": 702038.31496316951, "utm_y": 5708256.6941873431, "lon": -0.08971999712308977, "lat": 51.489307868820795 }, "geometry": { "type": "Point", "coordinates": [ -0.08971999712309, 51.489307868820795 ] } },
{ "type": "Feature", "properties": { "id": 183, "utm_x": 702038.31496316951, "utm_y": 5708480.3009850932, "lon": -0.089592036842941189, "lat": 51.491315887727993 }, "geometry": { "type": "Point", "coordinates": [ -0.089592036842941, 51.491315887727993 ] } },
{ "type": "Feature", "properties": { "id": 184, "utm_x": 702038.31496316951, "utm_y": 5708703.9077828433, "lon": -0.089464061750783683, "lat": 51.493323905715975 }, "geometry": { "type": "Point", "coordinates": [ -0.089464061750784, 51.493323905715975 ] } },
{ "type": "Feature", "properties": { "id": 185, "utm_x": 702038.31496316951, "utm_y": 5708927.5145805934, "lon": -0.089336071844353868, "lat": 51.495331922784736 }, "geometry": { "type": "Point", "coordinates": [ -0.089336071844354, 51.495331922784736 ] } },
{ "type": "Feature", "properties": { "id": 186, "utm_x": 702038.31496316951, "utm_y": 5709151.1213783436, "lon": -0.089208067121391579, "lat": 51.497339938934225 }, "geometry": { "type": "Point", "coordinates": [ -0.089208067121392, 51.497339938934225 ] } },
{ "type": "Feature", "properties": { "id": 187, "utm_x": 702038.31496316951, "utm_y": 5709374.7281760937, "lon": -0.089080047579630256, "lat": 51.499347954164421 }, "geometry": { "type": "Point", "coordinates": [ -0.08908004757963, 51.499347954164421 ] } },
{ "type": "Feature", "properties": { "id": 188, "utm_x": 702038.31496316951, "utm_y": 5709598.3349738428, "lon": -0.088952013216808137, "lat": 51.501355968475302 }, "geometry": { "type": "Point", "coordinates": [ -0.088952013216808, 51.501355968475302 ] } },
{ "type": "Feature", "properties": { "id": 189, "utm_x": 702038.31496316951, "utm_y": 5709821.9417715929, "lon": -0.088823964030660271, "lat": 51.503363981866855 }, "geometry": { "type": "Point", "coordinates": [ -0.08882396403066, 51.503363981866855 ] } },
{ "type": "Feature", "properties": { "id": 190, "utm_x": 702038.31496316951, "utm_y": 5710045.5485693431, "lon": -0.088695900018919319, "lat": 51.50537199433905 }, "geometry": { "type": "Point", "coordinates": [ -0.088695900018919, 51.50537199433905 ] } },
{ "type": "Feature", "properties": { "id": 191, "utm_x": 702038.31496316951, "utm_y": 5710269.1553670932, "lon": -0.088567821179323505, "lat": 51.507380005891847 }, "geometry": { "type": "Point", "coordinates": [ -0.088567821179324, 51.507380005891847 ] } },
{ "type": "Feature", "properties": { "id": 192, "utm_x": 702038.31496316951, "utm_y": 5710492.7621648433, "lon": -0.088439727509603508, "lat": 51.50938801652525 }, "geometry": { "type": "Point", "coordinates": [ -0.088439727509604, 51.50938801652525 ] } },
{ "type": "Feature", "properties": { "id": 193, "utm_x": 702038.31496316951, "utm_y": 5710716.3689625934, "lon": -0.08831161900749597, "lat": 51.511396026239211 }, "geometry": { "type": "Point", "coordinates": [ -0.088311619007496, 51.511396026239211 ] } },
{ "type": "Feature", "properties": { "id": 194, "utm_x": 702038.31496316951, "utm_y": 5710939.9757603435, "lon": -0.088183495670733136, "lat": 51.513404035033702 }, "geometry": { "type": "Point", "coordinates": [ -0.088183495670733, 51.513404035033702 ] } },
{ "type": "Feature", "properties": { "id": 195, "utm_x": 702038.31496316951, "utm_y": 5711163.5825580936, "lon": -0.088055357497045711, "lat": 51.515412042908729 }, "geometry": { "type": "Point", "coordinates": [ -0.088055357497046, 51.515412042908729 ] } },
{ "type": "Feature", "properties": { "id": 196, "utm_x": 702038.31496316951, "utm_y": 5711387.1893558428, "lon": -0.087927204484169505, "lat": 51.517420049864214 }, "geometry": { "type": "Point", "coordinates": [ -0.08792720448417, 51.517420049864214 ] } },
{ "type": "Feature", "properties": { "id": 197, "utm_x": 702038.31496316951, "utm_y": 5711610.7961535929, "lon": -0.087799036629832031, "lat": 51.519428055900192 }, "geometry": { "type": "Point", "coordinates": [ -0.087799036629832, 51.519428055900192 ] } },
{ "type": "Feature", "properties": { "id": 198, "utm_x": 702261.9217609195, "utm_y": 5707362.2669963436, "lon": -0.087015764131429571, "lat": 51.481195883385531 }, "geometry": { "type": "Point", "coordinates": [ -0.08701576413143, 51.481195883385531 ] } },
{ "type": "Feature", "properties": { "id": 199, "utm_x": 702261.9217609195, "utm_y": 5707585.8737940937, "lon": -0.086887722205529497, "lat": 51.483203900258843 }, "geometry": { "type": "Point", "coordinates": [ -0.086887722205529, 51.483203900258843 ] } },
{ "type": "Feature", "properties": { "id": 200, "utm_x": 702261.9217609195, "utm_y": 5707809.4805918438, "lon": -0.086759665460426072, "lat": 51.485211916212542 }, "geometry": { "type": "Point", "coordinates": [ -0.086759665460426, 51.485211916212542 ] } },
{ "type": "Feature", "properties": { "id": 201, "utm_x": 702261.9217609195, "utm_y": 5708033.087389593, "lon": -0.086631593893858327, "lat": 51.487219931246592 }, "geometry": { "type": "Point", "coordinates": [ -0.086631593893858, 51.487219931246592 ] } },
{ "type": "Feature", "properties": { "id": 202, "utm_x": 702261.9217609195, "utm_y": 5708256.6941873431, "lon": -0.086503507503559313, "lat": 51.489227945361002 }, "geometry": { "type": "Point", "coordinates": [ -0.086503507503559, 51.489227945361002 ] } },
{ "type": "Feature", "properties": { "id": 203, "utm_x": 702261.9217609195, "utm_y": 5708480.3009850932, "lon": -0.086375406287266449, "lat": 51.49123595855572 }, "geometry": { "type": "Point", "coordinates": [ -0.086375406287266, 51.49123595855572 ] } },
{ "type": "Feature", "properties": { "id": 204, "utm_x": 702261.9217609195, "utm_y": 5708703.9077828433, "lon": -0.086247290242715602, "lat": 51.493243970830704 }, "geometry": { "type": "Point", "coordinates": [ -0.086247290242716, 51.493243970830704 ] } },
{ "type": "Feature", "properties": { "id": 205, "utm_x": 702261.9217609195, "utm_y": 5708927.5145805934, "lon": -0.086119159367640613, "lat": 51.495251982185984 }, "geometry": { "type": "Point", "coordinates": [ -0.086119159367641, 51.495251982185984 ] } },
{ "type": "Feature", "properties": { "id": 206, "utm_x": 702261.9217609195, "utm_y": 5709151.1213783436, "lon": -0.085991013659778515, "lat": 51.49725999262148 }, "geometry": { "type": "Point", "coordinates": [ -0.085991013659779, 51.49725999262148 ] } },
{ "type": "Feature", "properties": { "id": 207, "utm_x": 702261.9217609195, "utm_y": 5709374.7281760937, "lon": -0.085862853116860385, "lat": 51.499268002137192 }, "geometry": { "type": "Point", "coordinates": [ -0.08586285311686, 51.499268002137192 ] } },
{ "type": "Feature", "properties": { "id": 208, "utm_x": 702261.9217609195, "utm_y": 5709598.3349738428, "lon": -0.085734677736621676, "lat": 51.501276010733086 }, "geometry": { "type": "Point", "coordinates": [ -0.085734677736622, 51.501276010733086 ] } },
{ "type": "Feature", "properties": { "id": 209, "utm_x": 702261.9217609195, "utm_y": 5709821.9417715929, "lon": -0.085606487516793839, "lat": 51.503284018409147 }, "geometry": { "type": "Point", "coordinates": [ -0.085606487516794, 51.503284018409147 ] } },
{ "type": "Feature", "properties": { "id": 210, "utm_x": 702261.9217609195, "utm_y": 5710045.5485693431, "lon": -0.085478282455110743, "lat": 51.505292025165353 }, "geometry": { "type": "Point", "coordinates": [ -0.085478282455111, 51.505292025165353 ] } },
{ "type": "Feature", "properties": { "id": 211, "utm_x": 702261.9217609195, "utm_y": 5710269.1553670932, "lon": -0.085350062549304259, "lat": 51.507300031001677 }, "geometry": { "type": "Point", "coordinates": [ -0.085350062549304, 51.507300031001677 ] } },
{ "type": "Feature", "properties": { "id": 212, "utm_x": 702261.9217609195, "utm_y": 5710492.7621648433, "lon": -0.085221827797104646, "lat": 51.509308035918089 }, "geometry": { "type": "Point", "coordinates": [ -0.085221827797105, 51.509308035918089 ] } },
{ "type": "Feature", "properties": { "id": 213, "utm_x": 702261.9217609195, "utm_y": 5710716.3689625934, "lon": -0.085093578196245773, "lat": 51.511316039914547 }, "geometry": { "type": "Point", "coordinates": [ -0.085093578196246, 51.511316039914547 ] } },
{ "type": "Feature", "properties": { "id": 214, "utm_x": 702261.9217609195, "utm_y": 5710939.9757603435, "lon": -0.084965313744455123, "lat": 51.513324042991073 }, "geometry": { "type": "Point", "coordinates": [ -0.084965313744455, 51.513324042991073 ] } },
{ "type": "Feature", "properties": { "id": 215, "utm_x": 702261.9217609195, "utm_y": 5711163.5825580936, "lon": -0.084837034439465761, "lat": 51.515332045147595 }, "geometry": { "type": "Point", "coordinates": [ -0.084837034439466, 51.515332045147595 ] } },
{ "type": "Feature", "properties": { "id": 216, "utm_x": 702261.9217609195, "utm_y": 5711387.1893558428, "lon": -0.084708740279007169, "lat": 51.517340046384099 }, "geometry": { "type": "Point", "coordinates": [ -0.084708740279007, 51.517340046384099 ] } },
{ "type": "Feature", "properties": { "id": 217, "utm_x": 702261.9217609195, "utm_y": 5711610.7961535929, "lon": -0.084580431260804861, "lat": 51.519348046700593 }, "geometry": { "type": "Point", "coordinates": [ -0.084580431260805, 51.519348046700593 ] } },
{ "type": "Feature", "properties": { "id": 218, "utm_x": 702485.5285586695, "utm_y": 5707362.2669963436, "lon": -0.083799852910964215, "lat": 51.481115894675753 }, "geometry": { "type": "Point", "coordinates": [ -0.083799852910964, 51.481115894675753 ] } },
{ "type": "Feature", "properties": { "id": 219, "utm_x": 702485.5285586695, "utm_y": 5707585.8737940937, "lon": -0.083671670116157587, "lat": 51.483123905832301 }, "geometry": { "type": "Point", "coordinates": [ -0.083671670116158, 51.483123905832301 ] } },
{ "type": "Feature", "properties": { "id": 220, "utm_x": 702485.5285586695, "utm_y": 5707809.4805918438, "lon": -0.083543472485909293, "lat": 51.485131916068731 }, "geometry": { "type": "Point", "coordinates": [ -0.083543472485909, 51.485131916068731 ] } },
{ "type": "Feature", "properties": { "id": 221, "utm_x": 702485.5285586695, "utm_y": 5708033.087389593, "lon": -0.083415260017952769, "lat": 51.487139925385016 }, "geometry": { "type": "Point", "coordinates": [ -0.083415260017953, 51.487139925385016 ] } },
{ "type": "Feature", "properties": { "id": 222, "utm_x": 702485.5285586695, "utm_y": 5708256.6941873431, "lon": -0.083287032710021483, "lat": 51.489147933781148 }, "geometry": { "type": "Point", "coordinates": [ -0.083287032710021, 51.489147933781148 ] } },
{ "type": "Feature", "properties": { "id": 223, "utm_x": 702485.5285586695, "utm_y": 5708480.3009850932, "lon": -0.083158790559850898, "lat": 51.491155941257091 }, "geometry": { "type": "Point", "coordinates": [ -0.083158790559851, 51.491155941257091 ] } },
{ "type": "Feature", "properties": { "id": 224, "utm_x": 702485.5285586695, "utm_y": 5708703.9077828433, "lon": -0.083030533565172052, "lat": 51.493163947812825 }, "geometry": { "type": "Point", "coordinates": [ -0.083030533565172, 51.493163947812825 ] } },
{ "type": "Feature", "properties": { "id": 225, "utm_x": 702485.5285586695, "utm_y": 5708927.5145805934, "lon": -0.082902261723716841, "lat": 51.495171953448327 }, "geometry": { "type": "Point", "coordinates": [ -0.082902261723717, 51.495171953448327 ] } },
{ "type": "Feature", "properties": { "id": 226, "utm_x": 702485.5285586695, "utm_y": 5709151.1213783436, "lon": -0.082773975033221092, "lat": 51.497179958163557 }, "geometry": { "type": "Point", "coordinates": [ -0.082773975033221, 51.497179958163557 ] } },
{ "type": "Feature", "properties": { "id": 227, "utm_x": 702485.5285586695, "utm_y": 5709374.7281760937, "lon": -0.0826456734914119, "lat": 51.499187961958505 }, "geometry": { "type": "Point", "coordinates": [ -0.082645673491412, 51.499187961958505 ] } },
{ "type": "Feature", "properties": { "id": 228, "utm_x": 702485.5285586695, "utm_y": 5709598.3349738428, "lon": -0.082517357096023536, "lat": 51.501195964833123 }, "geometry": { "type": "Point", "coordinates": [ -0.082517357096024, 51.501195964833123 ] } },
{ "type": "Feature", "properties": { "id": 229, "utm_x": 702485.5285586695, "utm_y": 5709821.9417715929, "lon": -0.082389025844785066, "lat": 51.503203966787417 }, "geometry": { "type": "Point", "coordinates": [ -0.082389025844785, 51.503203966787417 ] } },
{ "type": "Feature", "properties": { "id": 230, "utm_x": 702485.5285586695, "utm_y": 5710045.5485693431, "lon": -0.082260679735425973, "lat": 51.505211967821353 }, "geometry": { "type": "Point", "coordinates": [ -0.082260679735426, 51.505211967821353 ] } },
{ "type": "Feature", "properties": { "id": 231, "utm_x": 702485.5285586695, "utm_y": 5710269.1553670932, "lon": -0.082132318765676934, "lat": 51.507219967934908 }, "geometry": { "type": "Point", "coordinates": [ -0.082132318765677, 51.507219967934908 ] } },
{ "type": "Feature", "properties": { "id": 232, "utm_x": 702485.5285586695, "utm_y": 5710492.7621648433, "lon": -0.082003942933267432, "lat": 51.509227967128055 }, "geometry": { "type": "Point", "coordinates": [ -0.082003942933267, 51.509227967128055 ] } },
{ "type": "Feature", "properties": { "id": 233, "utm_x": 702485.5285586695, "utm_y": 5710716.3689625934, "lon": -0.08187555223592495, "lat": 51.511235965400743 }, "geometry": { "type": "Point", "coordinates": [ -0.081875552235925, 51.511235965400743 ] } },
{ "type": "Feature", "properties": { "id": 234, "utm_x": 702485.5285586695, "utm_y": 5710939.9757603435, "lon": -0.081747146671379792, "lat": 51.513243962752995 }, "geometry": { "type": "Point", "coordinates": [ -0.08174714667138, 51.513243962752995 ] } },
{ "type": "Feature", "properties": { "id": 235, "utm_x": 702485.5285586695, "utm_y": 5711163.5825580936, "lon": -0.081618726237356637, "lat": 51.515251959184745 }, "geometry": { "type": "Point", "coordinates": [ -0.081618726237357, 51.515251959184745 ] } },
{ "type": "Feature", "properties": { "id": 236, "utm_x": 702485.5285586695, "utm_y": 5711387.1893558428, "lon": -0.08149029093158619, "lat": 51.51725995469598 }, "geometry": { "type": "Point", "coordinates": [ -0.081490290931586, 51.51725995469598 ] } },
{ "type": "Feature", "properties": { "id": 237, "utm_x": 702485.5285586695, "utm_y": 5711610.7961535929, "lon": -0.081361840751791134, "lat": 51.519267949286707 }, "geometry": { "type": "Point", "coordinates": [ -0.081361840751791, 51.519267949286707 ] } },
{ "type": "Feature", "properties": { "id": 238, "utm_x": 702709.13535641949, "utm_y": 5707362.2669963436, "lon": -0.080583956523675199, "lat": 51.481035817871977 }, "geometry": { "type": "Point", "coordinates": [ -0.080583956523675, 51.481035817871977 ] } },
{ "type": "Feature", "properties": { "id": 239, "utm_x": 702709.13535641949, "utm_y": 5707585.8737940937, "lon": -0.080455632862226956, "lat": 51.483043823305479 }, "geometry": { "type": "Point", "coordinates": [ -0.080455632862227, 51.483043823305479 ] } },
{ "type": "Feature", "properties": { "id": 240, "utm_x": 702709.13535641949, "utm_y": 5707809.4805918438, "lon": -0.080327294349097939, "lat": 51.485051827818367 }, "geometry": { "type": "Point", "coordinates": [ -0.080327294349098, 51.485051827818367 ] } },
{ "type": "Feature", "properties": { "id": 241, "utm_x": 702709.13535641949, "utm_y": 5708033.087389593, "lon": -0.080198940982021169, "lat": 51.487059831410598 }, "geometry": { "type": "Point", "coordinates": [ -0.080198940982021, 51.487059831410598 ] } },
{ "type": "Feature", "properties": { "id": 242, "utm_x": 702709.13535641949, "utm_y": 5708256.6941873431, "lon": -0.080070572758724173, "lat": 51.489067834082185 }, "geometry": { "type": "Point", "coordinates": [ -0.080070572758724, 51.489067834082185 ] } }
]
}
