{
"type": "FeatureCollection",
"name": "route",
"crs": { "type": "name", "properties": { "name": "urn:ogc:def:crs:OGC:1.3:CRS84" } },
"features": [
{ "type": "Feature", "properties": { }, "geometry": { "type": "LineString", "coordinates": [ [ -0.08365670299195, 51.480000567145602 ], [ -0.120000015370955, 51.480899430631595 ], [ -0.12000003003515, 51.481798861141954 ], [ -0.080000014048642, 51.480808939681602 ], [ -0.080000028988414, 51.481708377356412 ], [ -0.120000043992553, 51.482698291531051 ], [ -0.120000057243139, 51.483597721798901 ], [ -0.080000043211587, 51.482607814910445 ], [ -0.080000056718132, 51.483507252343713 ], [ -0.120000069786881, 51.484497151945504 ], [ -0.120000081623749, 51.485396581970846 ], [ -0.08000006950802, 51.48440668965624 ], [ -0.080000081581222, 51.485306126847981 ], [ -0.120000092753715, 51.486296011874948 ], [ -0.120000103176756, 51.487195441657818 ], [ -0.080000092937713, 51.486205563918979 ], [ -0.080000103577462, 51.487105000869207 ], [ -0.120000112892839, 51.488094871319426 ], [ -0.12000012190194, 51.48899430085978 ], [ -0.080000113500443, 51.488004437698677 ], [ -0.080000122706627, 51.488903874407384 ], [ -0.120000130204029, 51.489893730278894 ], [ -0.120000137799077, 51.490793159576768 ], [ -0.080000131195986, 51.489803310995335 ], [ -0.080000138968492, 51.490702747462521 ], [ -0.120000144687063, 51.491692588753388 ], [ -0.120000150867951, 51.492592017808768 ], [ -0.080000146024117, 51.491602183808951 ], [ -0.080000152362833, 51.492501620034623 ], [ -0.120000156341718, 51.493491446742894 ], [ -0.120000161108335, 51.494390875555794 ], [ -0.080000157984611, 51.49340105613954 ], [ -0.080000162889423, 51.494300492123699 ], [ -0.120000165167775, 51.495290304247433 ], [ -0.12000016852001, 51.496189732817832 ], [ -0.080000167077244, 51.495199927987102 ], [ -0.080000170548042, 51.496099363729741 ], [ -0.120000171165013, 51.497089161266992 ], [ -0.120000173102753, 51.497988589594904 ], [ -0.080000173301789, 51.49699879935163 ], [ -0.080000175338462, 51.497898234852762 ], [ -0.120000174333206, 51.498888017801569 ], [ -0.120000174856345, 51.499787445887002 ], [ -0.080000176658025, 51.498797670233138 ], [ -0.080000177260456, 51.499697105492757 ], [ -0.120000174672137, 51.500686873851187 ], [ -0.120000173780561, 51.50158630169414 ], [ -0.080000177145723, 51.500596540631626 ], [ -0.080000176313803, 51.501495975649739 ], [ -0.120000172181582, 51.502485729415845 ], [ -0.120000169875178, 51.503385157016311 ], [ -0.080000174764663, 51.502395410547095 ], [ -0.080000172498276, 51.503294845323694 ], [ -0.120000166861319, 51.504284584495537 ], [ -0.120000163139979, 51.505184011853522 ], [ -0.080000169514616, 51.504194279979551 ], [ -0.080000165813652, 51.505093714514651 ], [ -0.120000158711126, 51.50608343909029 ], [ -0.120000153574738, 51.506982866205803 ], [ -0.080000161395357, 51.505993148929015 ], [ -0.080000156259705, 51.506892583222594 ], [ -0.120000147730782, 51.507882293200076 ], [ -0.120000141179233, 51.508781720073102 ], [ -0.080000150406665, 51.507792017395452 ], [ -0.080000143836207, 51.508691451447554 ], [ -0.120000133920065, 51.509681146824903 ], [ -0.120000125953245, 51.510580573455485 ], [ -0.080000136548309, 51.509590885378891 ], [ -0.080000128542939, 51.5104903191895 ], [ -0.120000117278749, 51.51147999996482 ], [ -0.120000107896551, 51.512379426352908 ], [ -0.080000119820067, 51.511389752879346 ], [ -0.08000011037967, 51.512289186448442 ], [ -0.120000097806619, 51.513278852619763 ], [ -0.120000087008929, 51.514178278765385 ], [ -0.080000100221716, 51.513188619896788 ], [ -0.080000089346177, 51.514088053224391 ], [ -0.120000075503448, 51.515077704789768 ], [ -0.120000063290152, 51.515977130692939 ], [ -0.080000077753026, 51.514987486431245 ], [ -0.080000065442235, 51.515886919517364 ], [ -0.120000050369014, 51.51687655647487 ], [ -0.120000036740004, 51.517775982135554 ], [ -0.080000052413775, 51.516786352482718 ], [ -0.080000038667619, 51.517685785327345 ], [ -0.120000022403095, 51.518675407675019 ], [ -0.120000007358261, 51.519574833093245 ], [ -0.080000024203737, 51.518585218051214 ], [ -0.080000009022103, 51.519484650654334 ], [ -0.100830300612401, 51.520001703522134 ] ] } }
]
}
