<?xml version="1.0" encoding="UTF-8"?>
<kml xmlns="http://www.opengis.net/kml/2.2" xmlns:gx="http://www.google.com/kml/ext/2.2">
    <Document id="1">
        <Style id="4">
            <LineStyle id="5">
                <colorMode>normal</colorMode>
                <width>3</width>
            </LineStyle>
        </Style>
        <Placemark id="3">
            <name>route</name>
            <styleUrl>#4</styleUrl>
            <LineString id="2">
                <altitudeMode>clampToGround</altitudeMode>
                <coordinates>-0.08365670299194986,51.4800005671456,0.0 -0.12000001537095534,51.480899430631595,0.0 -0.12000003003514959,51.481798861141954,0.0 -0.08000001404864221,51.4808089396816,0.0 -0.08000002898841443,51.48170837735641,0.0 -0.12000004399255262,51.48269829153105,0.0 -0.120000057243139,51.4835977217989,0.0 -0.080000043211587,51.482607814910445,0.0 -0.08000005671813211,51.48350725234371,0.0 -0.1200000697868805,51.484497151945504,0.0 -0.1200000816237485,51.485396581970846,0.0 -0.08000006950801952,51.48440668965624,0.0 -0.08000008158122221,51.48530612684798,0.0 -0.12000009275371476,51.48629601187495,0.0 -0.12000010317675583,51.48719544165782,0.0 -0.08000009293771274,51.48620556391898,0.0 -0.0800001035774625,51.48710500086921,0.0 -0.12000011289283871,51.488094871319426,0.0 -0.12000012190193995,51.48899430085978,0.0 -0.08000011350044284,51.48800443769868,0.0 -0.08000012270662714,51.488903874407384,0.0 -0.12000013020402893,51.489893730278894,0.0 -0.12000013779907741,51.49079315957677,0.0 -0.08000013119598638,51.489803310995335,0.0 -0.08000013896849194,51.49070274746252,0.0 -0.12000014468706316,51.49169258875339,0.0 -0.12000015086795075,51.49259201780877,0.0 -0.08000014602411676,51.49160218380895,0.0 -0.08000015236283263,51.49250162003462,0.0 -0.12000015634171836,51.493491446742894,0.0 -0.12000016110833496,51.494390875555794,0.0 -0.08000015798461053,51.49340105613954,0.0 -0.08000016288942302,51.4943004921237,0.0 -0.12000016516777509,51.49529030424743,0.0 -0.12000016852000976,51.49618973281783,0.0 -0.08000016707724426,51.4951999279871,0.0 -0.08000017054804165,51.49609936372974,0.0 -0.1200001711650127,51.49708916126699,0.0 -0.12000017310275332,51.497988589594904,0.0 -0.08000017330178935,51.49699879935163,0.0 -0.08000017533846192,51.49789823485276,0.0 -0.12000017433320616,51.49888801780157,0.0 -0.12000017485634538,51.499787445887,0.0 -0.08000017665802515,51.49879767023314,0.0 -0.08000017726045601,51.49969710549276,0.0 -0.1200001746721372,51.50068687385119,0.0 -0.12000017378056092,51.50158630169414,0.0 -0.08000017714572306,51.500596540631626,0.0 -0.08000017631380286,51.50149597564974,0.0 -0.12000017218158199,51.502485729415845,0.0 -0.12000016987517771,51.50338515701631,0.0 -0.08000017476466321,51.502395410547095,0.0 -0.08000017249827589,51.503294845323694,0.0 -0.12000016686131948,51.50428458449554,0.0 -0.12000016313997866,51.50518401185352,0.0 -0.08000016951461622,51.50419427997955,0.0 -0.08000016581365242,51.50509371451465,0.0 -0.12000015871112625,51.50608343909029,0.0 -0.12000015357473756,51.5069828662058,0.0 -0.08000016139535707,51.505993148929015,0.0 -0.08000015625970508,51.506892583222594,0.0 -0.12000014773078202,51.507882293200076,0.0 -0.12000014117923258,51.5087817200731,0.0 -0.08000015040666468,51.50779201739545,0.0 -0.08000014383620722,51.508691451447554,0.0 -0.12000013392006458,51.5096811468249,0.0 -0.12000012595324502,51.510580573455485,0.0 -0.08000013654830888,51.50959088537889,0.0 -0.08000012854293863,51.5104903191895,0.0 -0.12000011727874887,51.51147999996482,0.0 -0.12000010789655148,51.51237942635291,0.0 -0.08000011982006704,51.511389752879346,0.0 -0.08000011037967027,51.51228918644844,0.0 -0.12000009780661865,51.51327885261976,0.0 -0.12000008700892931,51.514178278765385,0.0 -0.0800001002217165,51.51318861989679,0.0 -0.08000008934617713,51.51408805322439,0.0 -0.12000007550344848,51.51507770478977,0.0 -0.1200000632901523,51.51597713069294,0.0 -0.08000007775302588,51.514987486431245,0.0 -0.08000006544223497,51.515886919517364,0.0 -0.12000005036901412,51.51687655647487,0.0 -0.12000003674000415,51.517775982135554,0.0 -0.08000005241377534,51.51678635248272,0.0 -0.08000003866761918,51.517685785327345,0.0 -0.12000002240309494,51.51867540767502,0.0 -0.12000000735826105,51.519574833093245,0.0 -0.08000002420373746,51.518585218051214,0.0 -0.08000000902210314,51.519484650654334,0.0 -0.10083030061240143,51.520001703522134,0.0</coordinates>
            </LineString>
        </Placemark>
    </Document>
</kml>
