{
"type": "FeatureCollection",
"name": "route",
"crs": { "type": "name", "properties": { "name": "urn:ogc:def:crs:OGC:1.3:CRS84" } },
"features": [
{ "type": "Feature", "properties": { }, "geometry": { "type": "LineString", "coordinates": [ [ -99.379350600866715, 19.424391209871093 ], [ -99.384113297691499, 19.424381198046703 ], [ -99.388875991554443, 19.424371061316251 ], [ -99.393638682418811, 19.424360799680063 ], [ -99.398401370247882, 19.424350413138477 ], [ -99.403164055004936, 19.424339901691845 ], [ -99.407926736653266, 19.424329265340504 ], [ -99.412689415156137, 19.424318504084813 ], [ -99.417452090476829, 19.42430761792512 ], [ -99.422214762578633, 19.424296606861784 ], [ -99.426977431424802, 19.424285470895175 ], [ -99.431740096978643, 19.424274210025654 ], [ -99.431752033823443, 19.428792713898989 ], [ -99.426989236600178, 19.428803977592668 ], [ -99.422226436084173, 19.428815116352109 ], [ -99.417463632312121, 19.428826130176954 ], [ -99.412700825320769, 19.42883701906683 ], [ -99.40793801514684, 19.428847783021389 ], [ -99.403175201827068, 19.42885842204026 ], [ -99.39841238539816, 19.428868936123106 ], [ -99.393649565896851, 19.428879325269577 ], [ -99.388886743359862, 19.428889589479319 ], [ -99.384123917823914, 19.428899728752008 ], [ -99.379361089325755, 19.428909743087306 ], [ -99.374598257902093, 19.42891963248487 ], [ -99.369845651552879, 19.433447932836625 ], [ -99.374608617576143, 19.433438165928713 ], [ -99.379371580710284, 19.43342827405143 ], [ -99.384134540918566, 19.433418257205101 ], [ -99.388897498164226, 19.433408115390037 ], [ -99.393660452410572, 19.433397848606592 ], [ -99.398423403620853, 19.433387456855101 ], [ -99.403186351758336, 19.433376940135904 ], [ -99.407949296786285, 19.433366298449354 ], [ -99.412712238668007, 19.433355531795801 ], [ -99.417475177366725, 19.433344640175587 ], [ -99.422238112845747, 19.433333623589089 ], [ -99.427001045068323, 19.433322482036665 ], [ -99.431763973997718, 19.433311215518678 ], [ -99.436538974843842, 19.437818320545304 ], [ -99.431775917501895, 19.437829714884266 ], [ -99.427012856829634, 19.43784098422671 ], [ -99.422249792863752, 19.437852128572267 ], [ -99.417486725641055, 19.43786314792057 ], [ -99.412723655198207, 19.437874042271257 ], [ -99.407960581571999, 19.437884811623963 ], [ -99.40319750479911, 19.437895455978332 ], [ -99.398434424916317, 19.437905975334022 ], [ -99.393671341960342, 19.437916369690676 ], [ -99.38890825596792, 19.437926639047955 ], [ -99.384145166975799, 19.437936783405519 ], [ -99.379382075020686, 19.437946802763033 ], [ -99.374618980139346, 19.437956697120164 ], [ -99.369855882368498, 19.437966466476592 ], [ -99.365092781744877, 19.437976110831986 ], [ -99.360339648403908, 19.442504166376612 ], [ -99.365102883628595, 19.442494644636575 ], [ -99.369866116036889, 19.442484997863858 ], [ -99.374629345592041, 19.442475226058786 ], [ -99.379392572257331, 19.442465329221669 ], [ -99.384155795996008, 19.442455307352848 ], [ -99.388919016771339, 19.442445160452642 ], [ -99.393682234546574, 19.442434888521394 ], [ -99.398445449284978, 19.442424491559432 ], [ -99.403208660949815, 19.442413969567113 ], [ -99.407971869504337, 19.442403322544784 ], [ -99.412735074911808, 19.44239255049278 ], [ -99.417498277135479, 19.44238165341147 ], [ -99.42226147613863, 19.442370631301213 ], [ -99.42702467188451, 19.442359484162377 ], [ -99.431787864336385, 19.44234821199532 ], [ -99.436551053457521, 19.442336814800417 ], [ -99.436563135438689, 19.446855306800394 ], [ -99.43179981450163, 19.446866706851399 ], [ -99.427036490233419, 19.446877981843212 ], [ -99.422273162670777, 19.446889131775485 ], [ -99.417509831850452, 19.446900156647843 ], [ -99.412746497809195, 19.446911056459921 ], [ -99.407983160583726, 19.446921831211355 ], [ -99.403219820210822, 19.446932480901793 ], [ -99.398456476727205, 19.446943005530891 ], [ -99.393693130169638, 19.446953405098284 ], [ -99.388929780574841, 19.446963679603648 ], [ -99.384166427979565, 19.446973829046634 ], [ -99.379403072420573, 19.446983853426904 ], [ -99.374639713934599, 19.446993752744131 ], [ -99.369876352558407, 19.447003526997989 ], [ -99.36511298832869, 19.44701317618815 ], [ -99.360349621282239, 19.447022700314303 ], [ -99.355586251455804, 19.447032099376127 ], [ -99.34606908369058, 19.451569060960658 ], [ -99.350832590826343, 19.451559909736172 ], [ -99.355596095255265, 19.451550633415405 ], [ -99.360359596940583, 19.451541231998672 ], [ -99.365123095845547, 19.451531705486271 ], [ -99.369886591933408, 19.451522053878531 ], [ -99.374650085167403, 19.451512277175762 ], [ -99.379413575510824, 19.451502375378286 ], [ -99.384177062926852, 19.451492348486436 ], [ -99.388940547378809, 19.451482196500542 ], [ -99.393704028829902, 19.451471919420928 ], [ -99.398467507243396, 19.451461517247949 ], [ -99.403230982582528, 19.451450989981943 ], [ -99.407994454810577, 19.451440337623254 ], [ -99.412757923890766, 19.45142956017224 ], [ -99.417521389786359, 19.451418657629244 ], [ -99.422284852460606, 19.451407629994645 ], [ -99.427048311876746, 19.451396477268787 ], [ -99.431811767998056, 19.451385199452055 ], [ -99.436575220787773, 19.451373796544814 ], [ -99.441338670209134, 19.451362268547442 ], [ -99.441350890815542, 19.455880753148115 ], [ -99.4365873095052, 19.455892284033222 ], [ -99.43182372482606, 19.455903689796866 ], [ -99.427060136814916, 19.455914970438663 ], [ -99.422296545508516, 19.455926125958239 ], [ -99.41753295094361, 19.45593715635524 ], [ -99.412769353156946, 19.455948061629297 ], [ -99.408005752185261, 19.455958841780038 ], [ -99.403242148065345, 19.455969496807118 ], [ -99.398478540833935, 19.455980026710179 ], [ -99.393714930527779, 19.455990431488885 ], [ -99.38895131718364, 19.456000711142874 ], [ -99.384187700838254, 19.456010865671821 ], [ -99.379424081528413, 19.456020895075387 ], [ -99.374660459290823, 19.456030799353243 ], [ -99.369896834162262, 19.456040578505053 ], [ -99.365133206179507, 19.456050232530501 ], [ -99.360369575379281, 19.456059761429273 ], [ -99.355605941798331, 19.45606916520104 ], [ -99.350842305473449, 19.456078443845506 ], [ -99.346078666441372, 19.456087597362355 ], [ -99.341315024738847, 19.45609662575129 ], [ -99.336560701956728, 19.460624067650837 ], [ -99.341324478226667, 19.460615162160305 ], [ -99.346088251862611, 19.460606131510222 ], [ -99.350852022827752, 19.460596975700888 ], [ -99.35561579108537, 19.460587694732599 ], [ -99.360379556598673, 19.460578288605667 ], [ -99.365143319330912, 19.460568757320402 ], [ -99.369907079245337, 19.460559100877113 ], [ -99.374670836305199, 19.460549319276129 ], [ -99.379434590473721, 19.460539412517761 ], [ -99.384198341714139, 19.460529380602352 ], [ -99.38896208998969, 19.460519223530216 ], [ -99.393725835263638, 19.460508941301701 ], [ -99.39848957749922, 19.460498533917136 ], [ -99.403253316659658, 19.460488001376874 ], [ -99.408017052708217, 19.460477343681262 ], [ -99.41278078560812, 19.460466560830646 ], [ -99.417544515322618, 19.460455652825392 ], [ -99.42230824181496, 19.46044461966585 ], [ -99.427071965048356, 19.460433461352387 ], [ -99.431835684986083, 19.460422177885373 ], [ -99.43659940159138, 19.460410769265181 ], [ -99.441363114827482, 19.46039923549219 ], [ -99.441375342245351, 19.464917715579212 ], [ -99.436611497046769, 19.46492925224025 ], [ -99.431847648478566, 19.464940663717144 ], [ -99.427083796577477, 19.464951950009532 ], [ -99.422319941380309, 19.464963111117022 ], [ -99.417556082923795, 19.464974147039257 ], [ -99.412792221244715, 19.464985057775866 ], [ -99.408028356379816, 19.464995843326495 ], [ -99.403264488365863, 19.465006503690784 ], [ -99.398500617239634, 19.465017038868382 ], [ -99.393736743037877, 19.465027448858944 ], [ -99.388972865797371, 19.465037733662122 ], [ -99.384208985554864, 19.465047893277578 ], [ -99.379445102347134, 19.465057927704972 ], [ -99.374681216210917, 19.46506783694398 ], [ -99.369917327183003, 19.465077620994276 ], [ -99.365153435300144, 19.465087279855528 ], [ -99.360389540599115, 19.465096813527424 ], [ -99.355625643116667, 19.465106222009645 ], [ -99.350861742889592, 19.465115505301878 ], [ -99.346097839954624, 19.46512466340382 ], [ -99.341333934348526, 19.465133696315174 ], [ -99.336570026108078, 19.465142604035634 ], [ -99.331806115270041, 19.465151386564912 ], [ -99.331815310011393, 19.469669922893949 ], [ -99.336579352857015, 19.469661138165968 ], [ -99.341343393104722, 19.469652228215459 ], [ -99.346107430717751, 19.46964319304271 ], [ -99.35087146565931, 19.469634032648035 ], [ -99.355635497892649, 19.469624747031723 ], [ -99.360399527380977, 19.469615336194092 ], [ -99.365163554087559, 19.469605800135447 ], [ -99.369927577975588, 19.469596138856097 ], [ -99.374691599008329, 19.469586352356369 ], [ -99.379455617149006, 19.46957644063658 ], [ -99.384219632360825, 19.469566403697065 ], [ -99.388983644607038, 19.46955624153815 ], [ -99.39374765385088, 19.469545954160171 ], [ -99.398511660055561, 19.469535541563477 ], [ -99.403275663184345, 19.469525003748398 ], [ -99.408039663200455, 19.469514340715289 ], [ -99.412803660067098, 19.469503552464499 ], [ -99.41756765374754, 19.469492638996389 ], [ -99.422331644204988, 19.469481600311315 ], [ -99.427095631402693, 19.469470436409647 ], [ -99.431859615303878, 19.469459147291747 ], [ -99.436623595871779, 19.469447732957988 ], [ -99.441387573069633, 19.469436193408754 ], [ -99.446151546860662, 19.469424528644421 ], [ -99.446163913127336, 19.473943001296348 ], [ -99.441399807300712, 19.47395466898038 ], [ -99.436635698066837, 19.473966211417967 ], [ -99.431871585462488, 19.473977628608729 ], [ -99.427107469524429, 19.473988920552298 ], [ -99.422343350289438, 19.474000087248303 ], [ -99.417579227794278, 19.474011128696358 ], [ -99.412815102075712, 19.474022044896117 ], [ -99.408050973170546, 19.474032835847208 ], [ -99.403286841115531, 19.474043501549282 ], [ -99.398522705947428, 19.474054042001978 ], [ -99.393758567703017, 19.474064457204957 ], [ -99.388994426419089, 19.474074747157871 ], [ -99.384230282132393, 19.47408491186038 ], [ -99.379466134879721, 19.474094951312146 ], [ -99.374701984697822, 19.474104865512842 ], [ -99.369937831623488, 19.474114654462142 ], [ -99.365173675693498, 19.474124318159713 ], [ -99.360409516944614, 19.474133856605246 ], [ -99.355645355413614, 19.474143269798418 ], [ -99.350881191137262, 19.474152557738925 ], [ -99.346117024152335, 19.474161720426459 ], [ -99.341352854495625, 19.474170757860712 ], [ -99.336588682203882, 19.474179670041391 ], [ -99.331824507313883, 19.474188456968207 ], [ -99.33183370717785, 19.478706988787216 ], [ -99.33659801414899, 19.478698199661466 ], [ -99.341362318521533, 19.478689285250496 ], [ -99.34612662025873, 19.478680245554607 ], [ -99.350890919323788, 19.478671080574095 ], [ -99.355655215679931, 19.478661790309275 ], [ -99.360419509290367, 19.478652374760429 ], [ -99.365183800118345, 19.478642833927889 ], [ -99.36994808812706, 19.47863316781196 ], [ -99.374712373279749, 19.478623376412962 ], [ -99.379476655539648, 19.478613459731228 ], [ -99.38424093486995, 19.478603417767069 ], [ -99.389005211233894, 19.478593250520831 ], [ -99.393769484594685, 19.478582957992845 ], [ -99.398533754915576, 19.478572540183443 ], [ -99.40329802215976, 19.478561997092985 ], [ -99.408062286290487, 19.478551328721807 ], [ -99.412826547270953, 19.478540535070266 ], [ -99.417590805064393, 19.478529616138719 ], [ -99.422355059634043, 19.47851857192752 ], [ -99.427119310943098, 19.478507402437049 ], [ -99.431883558954809, 19.478496107667656 ], [ -99.436647803632383, 19.478484687619726 ], [ -99.441412044939057, 19.478473142293634 ], [ -99.446176282838039, 19.478461471689755 ], [ -99.450953022556433, 19.482968140991577 ], [ -99.446188655993197, 19.482979939824205 ], [ -99.441424285985079, 19.482991613348087 ], [ -99.436659912568842, 19.483003161562845 ], [ -99.431895535781265, 19.483014584468087 ], [ -99.42713115565914, 19.483025882063455 ], [ -99.422366772239229, 19.483037054348557 ], [ -99.417602385558325, 19.483048101323035 ], [ -99.412837995653206, 19.483059022986524 ], [ -99.408073602560677, 19.483069819338656 ], [ -99.403309206317488, 19.483080490379084 ], [ -99.39854480696043, 19.483091036107446 ], [ -99.393780404526282, 19.4831014565234 ], [ -99.389015999051836, 19.483111751626605 ], [ -99.384251590573868, 19.483121921416711 ], [ -99.379487179129157, 19.483131965893389 ], [ -99.374722764754495, 19.483141885056298 ], [ -99.369958347486659, 19.483151678905127 ], [ -99.365193927362441, 19.483161347439538 ], [ -99.36042950441859, 19.483170890659217 ], [ -99.355665078691928, 19.483180308563853 ], [ -99.350900650219216, 19.483189601153125 ], [ -99.346136219037248, 19.483198768426735 ], [ -99.341371785182815, 19.483207810384378 ], [ -99.336607348692667, 19.483216727025752 ], [ -99.331842909603623, 19.483225518350565 ], [ -99.331852114591527, 19.487744045657809 ], [ -99.336616685835267, 19.48773525213382 ], [ -99.341381254479771, 19.487726333261914 ], [ -99.346145820488246, 19.487717289042397 ], [ -99.350910383823916, 19.487708119475567 ], [ -99.355674944449973, 19.487698824561718 ], [ -99.360439502329641, 19.487689404301168 ], [ -99.365204057426126, 19.487679858694221 ], [ -99.369968609702639, 19.487670187741191 ], [ -99.3747331591224, 19.487660391442404 ], [ -99.379497705648632, 19.487650469798179 ], [ -99.384262249244514, 19.487640422808845 ], [ -99.389026789873299, 19.487630250474734 ], [ -99.393791327498164, 19.487619952796191 ], [ -99.398555862082361, 19.487609529773536 ], [ -99.403320393589055, 19.487598981407125 ], [ -99.408084921981512, 19.487588307697305 ], [ -99.412849447222897, 19.487577508644435 ], [ -99.417613969276459, 19.487566584248864 ], [ -99.422378488105394, 19.487555534510957 ], [ -99.427143003672924, 19.487544359431066 ], [ -99.431907515942271, 19.487533059009586 ], [ -99.436672024876628, 19.487521633246867 ], [ -99.441436530439205, 19.487510082143292 ], [ -99.446201032593251, 19.487498405699249 ], [ -99.450965531301961, 19.487486603915119 ], [ -99.450978043529631, 19.49200506457866 ], [ -99.446213412638642, 19.492016869314455 ], [ -99.441448778301904, 19.49202854867881 ], [ -99.436684140556167, 19.492040102671353 ], [ -99.431919499438251, 19.492051531291697 ], [ -99.42715485498492, 19.49206283453946 ], [ -99.422390207232979, 19.492074012414271 ], [ -99.417625556219235, 19.492085064915763 ], [ -99.412860901980437, 19.49209599204357 ], [ -99.408096244553406, 19.492106793797326 ], [ -99.403331583974904, 19.492117470176673 ], [ -99.398566920281766, 19.492128021181269 ], [ -99.393802253510756, 19.49213844681076 ], [ -99.389037583698666, 19.492148747064793 ], [ -99.384272910882302, 19.492158921943048 ], [ -99.379508235098427, 19.492168971445171 ], [ -99.374743556383862, 19.492178895570838 ], [ -99.369978874775384, 19.492188694319722 ], [ -99.365214190309786, 19.49219836769149 ], [ -99.360449503023872, 19.492207915685832 ], [ -99.355684812954422, 19.492217338302428 ], [ -99.350920120138213, 19.49222663554097 ], [ -99.346155424612064, 19.492235807401148 ], [ -99.341390726412769, 19.49224485388266 ], [ -99.336626025577118, 19.492253774985212 ], [ -99.331861322141862, 19.492262570708501 ], [ -99.331870532254996, 19.496781093502218 ], [ -99.336635367918518, 19.496772295579508 ], [ -99.341400200982136, 19.496763372246193 ], [ -99.346165031409058, 19.496754323502561 ], [ -99.350929859162463, 19.496745149348918 ], [ -99.355694684205588, 19.496735849785551 ], [ -99.360459506501627, 19.496726424812781 ], [ -99.365224326013774, 19.49671687443092 ], [ -99.369989142705236, 19.496707198640276 ], [ -99.374753956539223, 19.496697397441174 ], [ -99.379518767478928, 19.49668747083393 ], [ -99.384283575487558, 19.496677418818877 ], [ -99.389048380528322, 19.496667241396352 ], [ -99.393813182564415, 19.496656938566687 ], [ -99.398577981559043, 19.496646510330219 ], [ -99.403342777475416, 19.4966359566873 ], [ -99.408107570276727, 19.496625277638266 ], [ -99.412872359926197, 19.496614473183485 ], [ -99.417637146387023, 19.496603543323303 ], [ -99.422401929622396, 19.496592488058088 ], [ -99.427166709595525, 19.496581307388198 ], [ -99.431931486269633, 19.496570001314005 ], [ -99.436696259607913, 19.496558569835891 ], [ -99.441461029573574, 19.49654701295422 ], [ -99.446225796129809, 19.496535330669378 ], [ -99.450990559239855, 19.496523522981757 ], [ -99.455767970315506, 19.50103004305063 ], [ -99.451003078433089, 19.501041979123983 ], [ -99.446238183067194, 19.501053789763581 ], [ -99.44147328425467, 19.501065474969053 ], [ -99.436708382032279, 19.501077034740003 ], [ -99.431943476436857, 19.501088469076056 ], [ -99.42717856750518, 19.501099777976822 ], [ -99.422413655274028, 19.501110961441942 ], [ -99.417648739780248, 19.501122019471033 ], [ -99.412883821060618, 19.501132952063735 ], [ -99.408118899151916, 19.501143759219698 ], [ -99.403353974090976, 19.501154440938546 ], [ -99.398589045914576, 19.501164997219941 ], [ -99.393824114659537, 19.501175428063519 ], [ -99.389059180362636, 19.501185733468954 ], [ -99.384294243060694, 19.50119591343589 ], [ -99.379529302790502, 19.501205967964001 ], [ -99.374764359588866, 19.501215897052951 ], [ -99.369999413492579, 19.50122570070241 ], [ -99.365234464538446, 19.501235378912057 ], [ -99.360469512763274, 19.501244931681573 ], [ -99.355704558203854, 19.501254359010641 ], [ -99.350939600897007, 19.50126366089895 ], [ -99.346174640879525, 19.501272837346189 ], [ -99.341409678188185, 19.501281888352057 ], [ -99.336644712859822, 19.50129081391626 ], [ -99.331879744931229, 19.501299614038494 ], [ -99.331888960170886, 19.505818132316922 ], [ -99.336654060401372, 19.505809329995031 ], [ -99.341419158031286, 19.505800402199824 ], [ -99.346184253023821, 19.505791348931599 ], [ -99.350949345342187, 19.505782170190642 ], [ -99.355714434949576, 19.50577286597726 ], [ -99.360479521809168, 19.505763436291772 ], [ -99.365244605884172, 19.505753881134478 ], [ -99.370009687137767, 19.505744200505703 ], [ -99.374774765533147, 19.505734394405756 ], [ -99.37953984103352, 19.505724462834962 ], [ -99.38430491360208, 19.505714405793654 ], [ -99.38906998320202, 19.505704223282166 ], [ -99.393835049796508, 19.505693915300828 ], [ -99.398600113348778, 19.505683481849992 ], [ -99.403365173821996, 19.505672922929993 ], [ -99.408130231179356, 19.505662238541177 ], [ -99.412895285384067, 19.505651428683901 ], [ -99.417660336399337, 19.505640493358523 ], [ -99.42242538418833, 19.505629432565406 ], [ -99.427190428714269, 19.505618246304916 ], [ -99.43195546994032, 19.505606934577415 ], [ -99.436720507829705, 19.505595497383283 ], [ -99.441485542345603, 19.505583934722893 ], [ -99.446250573451223, 19.505572246596635 ], [ -99.451015601109745, 19.505560433004888 ], [ -99.45578062528439, 19.505548493948044 ], [ -99.455793283773971, 19.510066942583542 ], [ -99.45102812727032, 19.510078884624033 ], [ -99.446262967282337, 19.510090701168078 ], [ -99.441497803846829, 19.510102392215284 ], [ -99.436732637000603, 19.510113957765267 ], [ -99.431967466780463, 19.510125397817639 ], [ -99.427202293223232, 19.510136712372017 ], [ -99.4224371163657, 19.510147901428041 ], [ -99.417671936244673, 19.51015896498533 ], [ -99.412906752897001, 19.510169903043526 ], [ -99.408141566359447, 19.510180715602264 ], [ -99.403376376668845, 19.510191402661182 ], [ -99.398611183861988, 19.510201964219934 ], [ -99.393845987975709, 19.510212400278171 ], [ -99.389080789046815, 19.510222710835549 ], [ -99.384315587112084, 19.510232895891725 ], [ -99.379550382208365, 19.510242955446362 ], [ -99.374785174372448, 19.510252889499128 ], [ -99.370019963641155, 19.51026269804969 ], [ -99.365254750051278, 19.510272381097739 ], [ -99.360489533639651, 19.510281938642937 ], [ -99.35572431444308, 19.510291370684978 ], [ -99.350959092498357, 19.510300677223547 ], [ -99.346193867842302, 19.510309858258339 ], [ -99.341428640511751, 19.510318913789053 ], [ -99.336663410543466, 19.510327843815389 ], [ -99.331898177974296, 19.510336648337045 ], [ -99.331907398341798, 19.514855162098428 ], [ -99.336672763286472, 19.514846355376886 ], [ -99.341438125629907, 19.514837423119307 ], [ -99.346203485335309, 19.514828365325986 ], [ -99.350968842365845, 19.514819181997233 ], [ -99.355734196684722, 19.514809873133341 ], [ -99.360499548255092, 19.514800438734625 ], [ -99.365264897040177, 19.514790878801389 ], [ -99.370030243003129, 19.514781193333953 ], [ -99.37479558610714, 19.514771382332636 ], [ -99.379560926315406, 19.514761445797763 ], [ -99.384326263591106, 19.514751383729664 ], [ -99.389091597897433, 19.514741196128664 ], [ -99.393856929197554, 19.514730882995106 ], [ -99.398622257454662, 19.514720444329335 ], [ -99.40338758263195, 19.514709880131687 ], [ -99.408152904692585, 19.51469919040251 ], [ -99.412918223599789, 19.514688375142171 ], [ -99.417683539316712, 19.514677434351007 ], [ -99.42244885180655, 19.514666368029399 ], [ -99.427214161032481, 19.514655176177701 ], [ -99.431979466957713, 19.514643858796287 ], [ -99.436744769545413, 19.514632415885522 ], [ -99.441510068758774, 19.514620847445801 ], [ -99.446275364560975, 19.51460915347749 ], [ -99.451040656915239, 19.514597333980984 ], [ -99.455805945784704, 19.514585388956672 ], [ -99.460571231132576, 19.514573318404949 ], [ -99.460584029067064, 19.519091759499954 ], [ -99.455818611317014, 19.51910383306701 ], [ -99.451053190044917, 19.519115781075296 ], [ -99.446287765287593, 19.519127603524424 ], [ -99.441522337081878, 19.519139300413986 ], [ -99.436756905464563, 19.519150871743616 ], [ -99.431991470472482, 19.519162317512919 ], [ -99.427226032142457, 19.519173637721519 ], [ -99.422460590511292, 19.519184832369046 ], [ -99.417695145615809, 19.519195901455127 ], [ -99.412929697492842, 19.519206844979401 ], [ -99.408164246179197, 19.519217662941493 ], [ -99.403398791711695, 19.51922835534106 ], [ -99.398633334127155, 19.519238922177742 ], [ -99.393867873462398, 19.519249363451198 ], [ -99.389102409754244, 19.51925967916107 ], [ -99.3843369430395, 19.519269869307024 ], [ -99.379571473355, 19.519279933888729 ], [ -99.374806000737564, 19.519289872905844 ], [ -99.370040525224027, 19.519299686358043 ], [ -99.365275046851167, 19.519309374244997 ], [ -99.360509565655832, 19.5193189365664 ], [ -99.355744081674843, 19.519328373321926 ], [ -99.350978594945005, 19.519337684511257 ], [ -99.346213105503168, 19.519346870134097 ], [ -99.341447613386109, 19.519355930190134 ], [ -99.336682118630691, 19.51936486467908 ], [ -99.331916621273706, 19.519373673600629 ], [ -99.331925846770346, 19.523892182843216 ], [ -99.336691476576462, 19.523883371721546 ], [ -99.341457103780698, 19.523874435001112 ], [ -99.346222728346206, 19.523865372682227 ], [ -99.350988350236193, 19.523856184765179 ], [ -99.355753969413811, 19.523846871250274 ], [ -99.360519585842241, 19.523837432137825 ], [ -99.365285199484646, 19.523827867428132 ], [ -99.370050810304221, 19.523818177121523 ], [ -99.374816418264132, 19.523808361218308 ], [ -99.379582023327558, 19.523798419718823 ], [ -99.384347625457664, 19.523788352623388 ], [ -99.389113224617631, 19.523778159932334 ], [ -99.393878820770638, 19.523767841646002 ], [ -99.398644413879865, 19.523757397764737 ], [ -99.403410003908476, 19.523746828288871 ], [ -99.408175590819653, 19.523736133218765 ], [ -99.412941174576574, 19.523725312554774 ], [ -99.417706755142405, 19.523714366297241 ], [ -99.422472332480339, 19.523703294446545 ], [ -99.427237906553543, 19.523692097003043 ], [ -99.432003477325196, 19.523680773967097 ], [ -99.436769044758478, 19.523669325339103 ], [ -99.441534608816553, 19.523657751119412 ], [ -99.446300169462617, 19.523646051308436 ], [ -99.45106572665982, 19.523634225906537 ], [ -99.45583128037137, 19.523622274914118 ], [ -99.460596830560434, 19.523610198331561 ], [ -99.460609635613096, 19.528128634899332 ], [ -99.455843952948214, 19.528140714497539 ], [ -99.451078266760391, 19.528152668474259 ], [ -99.446312577086459, 19.528164496829088 ], [ -99.441546883963255, 19.528176199561646 ], [ -99.436781187427584, 19.528187776671547 ], [ -99.432015487516281, 19.528199228158392 ], [ -99.427249784266195, 19.528210554021818 ], [ -99.422484077714131, 19.528221754261455 ], [ -99.417718367896924, 19.52823282887692 ], [ -99.412952654851381, 19.52824377786785 ], [ -99.408186938614378, 19.528254601233893 ], [ -99.403421219222693, 19.528265298974677 ], [ -99.398655496713175, 19.528275871089857 ], [ -99.393889771122673, 19.528286317579081 ], [ -99.389124042487978, 19.528296638442008 ], [ -99.38435831084594, 19.528306833678293 ], [ -99.379592576233406, 19.5283169032876 ], [ -99.37482683868717, 19.528326847269597 ], [ -99.370061098244079, 19.52833666562395 ], [ -99.365295354940969, 19.528346358350348 ], [ -99.360529608814645, 19.528355925448459 ], [ -99.355763859901955, 19.528365366917967 ], [ -99.350998108239736, 19.528374682758567 ], [ -99.346232353864806, 19.528383872969947 ], [ -99.341466596814001, 19.5283929375518 ], [ -99.336700837124141, 19.528401876503832 ], [ -99.331935074832046, 19.528410689825748 ], [ -99.331944305459146, 19.532929194547783 ], [ -99.336710200274013, 19.532920379025512 ], [ -99.341476092486332, 19.532911437841751 ], [ -99.346241982059269, 19.532902370996808 ], [ -99.351007868955989, 19.532893178490969 ], [ -99.355773753139658, 19.532883860324553 ], [ -99.360539634573428, 19.532874416497862 ], [ -99.365305513220491, 19.532864847011204 ], [ -99.370071389043972, 19.532855151864897 ], [ -99.374837262007077, 19.532845331059267 ], [ -99.379603132072944, 19.532835384594627 ], [ -99.384368999204753, 19.532825312471317 ], [ -99.389134863365683, 19.532815114689662 ], [ -99.393900724518872, 19.532804791250001 ], [ -99.398666582627499, 19.532794342152677 ], [ -99.403432437654743, 19.532783767398037 ], [ -99.408198289563742, 19.532773066986426 ], [ -99.412964138317676, 19.532762240918199 ], [ -99.417729983879738, 19.532751289193712 ], [ -99.422495826213066, 19.532740211813334 ], [ -99.42726166528081, 19.532729008777423 ], [ -99.432027501046193, 19.53271768008635 ], [ -99.436793333472323, 19.532706225740498 ], [ -99.441559162522424, 19.532694645740232 ], [ -99.446324988159603, 19.532682940085948 ], [ -99.451090810347083, 19.532671108778022 ], [ -99.455856629048, 19.532659151816851 ], [ -99.460622444225535, 19.532647069202827 ], [ -99.465388255842839, 19.532634860936351 ], [ -99.465401200564528, 19.537153289927783 ], [ -99.460635256398177, 19.537165501241606 ], [ -99.455869308671168, 19.537177586871611 ], [ -99.451103357420322, 19.537189546817395 ], [ -99.446337402682474, 19.537201381078578 ], [ -99.441571444494457, 19.537213089654745 ], [ -99.436805482893135, 19.537224672545538 ], [ -99.432039517915314, 19.53723612975055 ], [ -99.427273549597828, 19.537247461269413 ], [ -99.422507577977541, 19.537258667101753 ], [ -99.417741603091287, 19.537269747247194 ], [ -99.412975624975886, 19.537280701705377 ], [ -99.408209643668187, 19.53729153047594 ], [ -99.40344365920501, 19.537302233558513 ], [ -99.398677671623219, 19.537312810952763 ], [ -99.393911680959633, 19.537323262658322 ], [ -99.389145687251101, 19.537333588674855 ], [ -99.384379690534459, 19.537343789002012 ], [ -99.379613690846554, 19.537353863639467 ], [ -99.374847688224207, 19.537363812586879 ], [ -99.370081682704253, 19.53737363584392 ], [ -99.365315674323554, 19.537383333410268 ], [ -99.360549663118931, 19.537392905285603 ], [ -99.355783649127233, 19.537402351469609 ], [ -99.351017632385307, 19.537411671961969 ], [ -99.346251612929962, 19.537420866762382 ], [ -99.341485590798072, 19.537429935870534 ], [ -99.33671956602646, 19.537438879286139 ], [ -99.331953538651945, 19.537447697008893 ], [ -99.331962774410798, 19.541966197208623 ], [ -99.336728934381767, 19.541957377285271 ], [ -99.341495091749522, 19.541948431637707 ], [ -99.346261246477212, 19.541939360266213 ], [ -99.351027398528018, 19.541930163171106 ], [ -99.355793547865062, 19.541920840352674 ], [ -99.360559694451524, 19.541911391811237 ], [ -99.365325838250541, 19.541901817547092 ], [ -99.370091979225307, 19.541892117560572 ], [ -99.374858117338917, 19.541882291851991 ], [ -99.379624252554578, 19.541872340421669 ], [ -99.384390384835442, 19.541862263269941 ], [ -99.389156514144645, 19.541852060397133 ], [ -99.393922640445339, 19.541841731803601 ], [ -99.398688763700719, 19.54183127748966 ], [ -99.40345488387392, 19.54182069745567 ], [ -99.40822100092808, 19.541809991701978 ], [ -99.412987114826393, 19.54179916022894 ], [ -99.417753225531968, 19.541788203036916 ], [ -99.422519333008012, 19.541777120126252 ], [ -99.427285437217662, 19.541765911497336 ], [ -99.432051538124085, 19.541754577150527 ], [ -99.436817635690417, 19.541743117086202 ], [ -99.441583729879838, 19.541731531304738 ], [ -99.446349820655499, 19.541719819806517 ], [ -99.451115907980551, 19.541707982591934 ], [ -99.455881991818174, 19.541696019661366 ], [ -99.460648072131491, 19.541683931015218 ], [ -99.46541414888371, 19.541671716653891 ], [ -99.465427100800852, 19.546190141114241 ], [ -99.46066089142596, 19.546202358523242 ], [ -99.455894678489457, 19.546214450185694 ], [ -99.451128462028223, 19.546226416101192 ], [ -99.446362242079132, 19.546238256269351 ], [ -99.441596018678979, 19.546249970689768 ], [ -99.436829791864625, 19.546261559362069 ], [ -99.432063561672933, 19.546273022285863 ], [ -99.427297328140739, 19.546284359460767 ], [ -99.422531091304876, 19.546295570886414 ], [ -99.417764851202222, 19.546306656562429 ], [ -99.412998607869596, 19.546317616488455 ], [ -99.408232361343835, 19.546328450664117 ], [ -99.403466111661842, 19.546339159089062 ], [ -99.398699858860411, 19.546349741762942 ], [ -99.393933602976404, 19.546360198685395 ], [ -99.389167344046669, 19.546370529856087 ], [ -99.38440108210807, 19.546380735274671 ], [ -99.379634817197427, 19.546390814940811 ], [ -99.374868549351618, 19.546400768854166 ], [ -99.370102278607447, 19.546410597014425 ], [ -99.365336005001808, 19.546420299421246 ], [ -99.360569728571548, 19.546429876074324 ], [ -99.355803449353473, 19.546439326973328 ], [ -99.351037167384476, 19.546448652117952 ], [ -99.346270882701361, 19.546457851507892 ], [ -99.341504595341036, 19.546466925142834 ], [ -99.33673830534029, 19.546475873022487 ], [ -99.331972012736017, 19.546484695146546 ], [ -99.327205717565036, 19.546493391514737 ], [ -99.327214825786456, 19.551011889359877 ], [ -99.33198125362793, 19.551003190822229 ], [ -99.33674767890237, 19.550994366497335 ], [ -99.341514101572926, 19.55098541638548 ], [ -99.346280521602765, 19.550976340486958 ], [ -99.351046938955008, 19.550967138802072 ], [ -99.355813353592822, 19.550957811331131 ], [ -99.360579765479358, 19.550948358074432 ], [ -99.365346174577724, 19.550938779032297 ], [ -99.370112580851099, 19.55092907420504 ], [ -99.374878984262637, 19.550919243592979 ], [ -99.379645384775458, 19.550909287196447 ], [ -99.384411782352728, 19.550899205015753 ], [ -99.389178176957586, 19.550888997051256 ], [ -99.393944568553181, 19.55087866330328 ], [ -99.398710957102665, 19.550868203772161 ], [ -99.403477342569175, 19.550857618458256 ], [ -99.408243724915877, 19.550846907361912 ], [ -99.413010104105908, 19.550836070483481 ], [ -99.417776480102404, 19.550825107823318 ], [ -99.422542852868546, 19.550814019381789 ], [ -99.427309222367455, 19.550802805159268 ], [ -99.43207558856227, 19.550791465156109 ], [ -99.436841951416184, 19.550779999372697 ], [ -99.441608310892306, 19.550768407809407 ], [ -99.446374666953787, 19.550756690466635 ], [ -99.451141019563806, 19.550744847344749 ], [ -99.455907368685473, 19.550732878444148 ], [ -99.460673714281967, 19.550720783765232 ], [ -99.460686540700038, 19.55523920674074 ], [ -99.455920062406676, 19.555251304436283 ], [ -99.4511535805877, 19.555263276322147 ], [ -99.446387095279945, 19.555275122397912 ], [ -99.441620606520274, 19.555286842663211 ], [ -99.436854114345522, 19.555298437117642 ], [ -99.432087618792551, 19.555309905760826 ], [ -99.427321119898252, 19.555321248592385 ], [ -99.422554617699433, 19.555332465611947 ], [ -99.417788112232984, 19.555343556819125 ], [ -99.413021603535753, 19.555354522213573 ], [ -99.408255091644591, 19.555365361794923 ], [ -99.403488576596345, 19.555376075562812 ], [ -99.398722058427893, 19.555386663516888 ], [ -99.393955537176069, 19.5553971256568 ], [ -99.389189012877765, 19.555407461982202 ], [ -99.384422485569786, 19.555417672492759 ], [ -99.379655955289039, 19.55542775718812 ], [ -99.374889422072357, 19.555437716067971 ], [ -99.370122885956604, 19.555447549131969 ], [ -99.365356346978629, 19.555457256379785 ], [ -99.360589805175294, 19.555466837811114 ], [ -99.355823260583463, 19.555476293425627 ], [ -99.351056713239998, 19.555485623223017 ], [ -99.346290163181749, 19.55549482720297 ], [ -99.341523610445563, 19.555503905365192 ], [ -99.336757055068318, 19.555512857709378 ], [ -99.331990497086849, 19.55552168423522 ], [ -99.327223936538047, 19.555530384942447 ], [ -99.327233049820123, 19.560048878262013 ], [ -99.33199974311313, 19.560040175385094 ], [ -99.336766433838477, 19.560031346658178 ], [ -99.341533121959259, 19.560022392081549 ], [ -99.346299807438655, 19.56001331165551 ], [ -99.351066490239759, 19.560004105380361 ], [ -99.355833170325752, 19.559994773256399 ], [ -99.360599847659756, 19.559985315283949 ], [ -99.365366522204894, 19.5599757314633 ], [ -99.370133193924318, 19.559966021794782 ], [ -99.374899862781149, 19.559956186278722 ], [ -99.379666528738554, 19.559946224915436 ], [ -99.384433191759641, 19.559936137705247 ], [ -99.389199851807575, 19.559925924648503 ], [ -99.393966508845466, 19.559915585745532 ], [ -99.398733162836479, 19.559905120996682 ], [ -99.403499813743721, 19.559894530402293 ], [ -99.40826646153036, 19.55988381396272 ], [ -99.413033106159531, 19.55987297167831 ], [ -99.417799747594344, 19.559862003549433 ], [ -99.422566385797978, 19.55985090957644 ], [ -99.427333020733556, 19.559839689759698 ], [ -99.432099652364201, 19.559828344099586 ], [ -99.436866280653064, 19.559816872596475 ], [ -99.441632905563296, 19.559805275250739 ], [ -99.44639952705802, 19.559793552062771 ], [ -99.451166145100373, 19.559781703032957 ], [ -99.455932759653521, 19.559769728161676 ], [ -99.45117871310228, 19.564300127476738 ], [ -99.446411962288451, 19.564311979460758 ], [ -99.441645208021811, 19.564323705571553 ], [ -99.43687845033925, 19.564335305808743 ], [ -99.432111689277605, 19.564346780171938 ], [ -99.427344924873765, 19.564358128660757 ], [ -99.42257815716458, 19.564369351274824 ], [ -99.417811386186912, 19.564380448013779 ], [ -99.413044611977639, 19.564391418877239 ], [ -99.408277834573624, 19.564402263864849 ], [ -99.40351105401173, 19.564412982976258 ], [ -99.398744270328805, 19.564423576211102 ], [ -99.393977483561756, 19.56443404356903 ], [ -99.389210693747415, 19.564444385049704 ], [ -99.384443900922676, 19.564454600652777 ], [ -99.379677105124372, 19.564464690377914 ], [ -99.374910306389395, 19.564474654224782 ], [ -99.370143504754608, 19.564484492193046 ], [ -99.365376700256874, 19.564494204282383 ], [ -99.360609892933056, 19.564503790492473 ], [ -99.35584308282003, 19.564513250823005 ], [ -99.35107626995466, 19.564522585273657 ], [ -99.346309454373824, 19.564531793844129 ], [ -99.341542636114369, 19.56454087653411 ], [ -99.336775815213173, 19.5645498333433 ], [ -99.332008991707113, 19.564558664271406 ], [ -99.327242165633024, 19.564567369318134 ], [ -99.327251283977063, 19.569085858110373 ], [ -99.332018242869069, 19.569077150893712 ], [ -99.336785199192747, 19.569068317764302 ], [ -99.34155215291122, 19.569059358722424 ], [ -99.346319103987597, 19.569050273768379 ], [ -99.351086052385043, 19.569041062902471 ], [ -99.355852998066666, 19.569031726124997 ], [ -99.360619940995576, 19.569022263436267 ], [ -99.365386881134938, 19.5690126748366 ], [ -99.370153818447847, 19.569002960326305 ], [ -99.374920752897452, 19.568993119905709 ], [ -99.379687684446878, 19.568983153575136 ], [ -99.384454613059233, 19.568973061334912 ], [ -99.389221538697683, 19.568962843185375 ], [ -99.393988461325321, 19.568952499126858 ], [ -99.398755380905286, 19.568942029159704 ], [ -99.403522297400727, 19.568931433284263 ], [ -99.408289210774754, 19.568920711500887 ], [ -99.41305612099049, 19.568909863809917 ], [ -99.417823028011085, 19.568898890211727 ], [ -99.422589931799649, 19.568887790706672 ], [ -99.427356832319319, 19.56887656529512 ], [ -99.432123729533231, 19.568865213977443 ], [ -99.436890623404508, 19.568853736754019 ], [ -99.441657513896274, 19.568842133625211 ], [ -99.446424400971679, 19.568830404591434 ], [ -99.44643684310816, 19.573348827454353 ], [ -99.441669823187127, 19.573360559411288 ], [ -99.436902799849278, 19.573372165431856 ], [ -99.432135773131492, 19.573383645515673 ], [ -99.427368743070645, 19.573394999662362 ], [ -99.422601709703613, 19.573406227871544 ], [ -99.417834673067276, 19.573417330142853 ], [ -99.413067633198494, 19.573428306475925 ], [ -99.408300590134175, 19.573439156870382 ], [ -99.403533543911152, 19.573449881325878 ], [ -99.398766494566317, 19.573460479842058 ], [ -99.393999442136547, 19.573470952418575 ], [ -99.389232386658733, 19.573481299055064 ], [ -99.384465328169725, 19.573491519751208 ], [ -99.379698266706427, 19.573501614506657 ], [ -99.374931202305689, 19.573511583321075 ], [ -99.370164135004401, 19.573521426194134 ], [ -99.365397064839428, 19.573531143125511 ], [ -99.360629991847659, 19.573540734114886 ], [ -99.355862916065988, 19.573550199161943 ], [ -99.351095837531247, 19.573559538266363 ], [ -99.346328756280329, 19.573568751427835 ], [ -99.341561672350139, 19.57357783864607 ], [ -99.336794585777525, 19.573586799920754 ], [ -99.332027496599366, 19.573595635251589 ], [ -99.327260404852566, 19.573604344638291 ], [ -99.327269528259833, 19.578122828901456 ], [ -99.332036752898333, 19.578114117344587 ], [ -99.336803974967836, 19.578105279812206 ], [ -99.341571194431481, 19.578096316304599 ], [ -99.346338411252361, 19.57808722682206 ], [ -99.351105625393615, 19.578078011364891 ], [ -99.355872836818335, 19.578068669933405 ], [ -99.360640045489674, 19.578059202527896 ], [ -99.365407251370726, 19.578049609148689 ], [ -99.370174454424628, 19.578039889796091 ], [ -99.374941654614489, 19.578030044470434 ], [ -99.379708851903402, 19.578020073172045 ], [ -99.384476046254534, 19.578009975901235 ], [ -99.389243237630964, 19.577999752658357 ], [ -99.394010425995859, 19.577989403443745 ], [ -99.398777611312283, 19.577978928257728 ], [ -99.403544793543375, 19.577968327100667 ], [ -99.408311972652257, 19.577957599972901 ], [ -99.413079148602066, 19.577946746874797 ], [ -99.417846321355896, 19.577935767806711 ], [ -99.422613490876884, 19.577924662768996 ], [ -99.427380657128154, 19.577913431762028 ], [ -99.4321478200728, 19.577902074786177 ], [ -99.436914979673972, 19.577890591841818 ], [ -99.441682135894766, 19.577878982929327 ], [ -99.43692716287903, 19.582409015983465 ], [ -99.432159870357609, 19.582420501788526 ], [ -99.427392574492259, 19.582431861593697 ], [ -99.422625275319888, 19.582443095398595 ], [ -99.417857972877371, 19.582454203202861 ], [ -99.413090667201601, 19.582465185006122 ], [ -99.40832335832944, 19.582476040808015 ], [ -99.403556046297808, 19.582486770608181 ], [ -99.398788731143554, 19.582497374406266 ], [ -99.394021412903584, 19.582507852201918 ], [ -99.389254091614774, 19.582518203994798 ], [ -99.38448676731403, 19.582528429784553 ], [ -99.379719440038201, 19.582538529570854 ], [ -99.374952109824193, 19.582548503353362 ], [ -99.370184776708896, 19.582558351131741 ], [ -99.365417440729189, 19.582568072905687 ], [ -99.360650101921976, 19.582577668674855 ], [ -99.355882760324107, 19.582587138438942 ], [ -99.351115415972487, 19.58259648219763 ], [ -99.346348068904021, 19.582605699950609 ], [ -99.341580719155573, 19.582614791697576 ], [ -99.336813366764034, 19.582623757438235 ], [ -99.33204601176628, 19.582632597172282 ], [ -99.327278654199233, 19.582641310899426 ], [ -99.327287782671036, 19.587159790631755 ], [ -99.332055273203551, 19.587151074734216 ], [ -99.336822761166417, 19.587142232798392 ], [ -99.341590246522756, 19.587133264824566 ], [ -99.346357729235663, 19.587124170813045 ], [ -99.351125209268247, 19.587114950764125 ], [ -99.355892686583616, 19.587105604678122 ], [ -99.360660161144892, 19.587096132555327 ], [ -99.365427632915171, 19.587086534396068 ], [ -99.370195101857576, 19.587076810200649 ], [ -99.374962567935199, 19.587066959969405 ], [ -99.379730031111166, 19.587056983702652 ], [ -99.384497491348569, 19.58704688140072 ], [ -99.389264948610546, 19.587036653063954 ], [ -99.394032402860162, 19.587026298692678 ], [ -99.398799854060556, 19.587015818287242 ], [ -99.403567302174835, 19.587005211847988 ], [ -99.408334747166123, 19.586994479375267 ], [ -99.413102188997513, 19.586983620869443 ], [ -99.417869627632101, 19.586972636330866 ], [ -99.422637063033036, 19.5869615257599 ], [ -99.427404495163415, 19.586950289156913 ], [ -99.432171923986317, 19.586938926522276 ], [ -99.43218398095938, 19.591457348986992 ], [ -99.427416419142006, 19.591468714451256 ], [ -99.422648854016757, 19.591479953852478 ], [ -99.417881285620524, 19.59149106719029 ], [ -99.413113713990214, 19.591502054464335 ], [ -99.408346139162703, 19.59151291567424 ], [ -99.403578561174896, 19.591523650819653 ], [ -99.398810980063672, 19.591534259900211 ], [ -99.394043395865964, 19.591544742915577 ], [ -99.389275808618621, 19.591555099865385 ], [ -99.384508218358562, 19.591565330749308 ], [ -99.379740625122679, 19.591575435567005 ], [ -99.365437827929043, 19.591604993619395 ], [ -99.36067022315882, 19.591614594168878 ], [ -99.355902615597245, 19.591624068650507 ], [ -99.351135005281208, 19.591633417063964 ], [ -99.346367392247615, 19.591642639408938 ], [ -99.341599776533371, 19.591651735685133 ], [ -99.336832158175355, 19.591660705892242 ], [ -99.332064537210471, 19.591669550029966 ], [ -99.327296913675596, 19.591678268098025 ], [ -99.327306047213256, 19.596196743297778 ], [ -99.332073803787338, 19.596188023059089 ], [ -99.336841557791146, 19.596179176719343 ], [ -99.341609309187746, 19.596170204278824 ], [ -99.346377057940231, 19.596161105737838 ], [ -99.351144804011724, 19.596151881096674 ], [ -99.355912547365307, 19.596142530355646 ], [ -99.398822109153315, 19.596052699244741 ], [ -99.403589823298347, 19.596042087522726 ], [ -99.408357534319563, 19.596031349704475 ], [ -99.413125242180101, 19.596020485790341 ], [ -99.417892946843025, 19.596009495780688 ], [ -99.422660648271446, 19.595998379675866 ], [ -99.427428346428471, 19.595987137476261 ], [ -99.422672445797531, 19.600516803229667 ], [ -99.417904611300003, 19.600527922101634 ], [ -99.346386726313852, 19.600679569799315 ], [ -99.34161884448622, 19.600688670605223 ], [ -99.336850960014146, 19.600697645279272 ], [ -99.332083072934537, 19.600706493821157 ], [ -99.327315183284298, 19.600715216230586 ], [ -99.327324321889066, 19.60523368689601 ], [ -99.332092344652352, 19.605224962315713 ], [ -99.336860364844696, 19.605216111571576 ], [ -99.327333463027898, 19.609752155293616 ] ] } }
]
}
