<?xml version="1.0" encoding="UTF-8"?>
<kml xmlns="http://www.opengis.net/kml/2.2" xmlns:gx="http://www.google.com/kml/ext/2.2">
    <Document id="1">
        <Style id="4">
            <LineStyle id="5">
                <colorMode>normal</colorMode>
                <width>3</width>
            </LineStyle>
        </Style>
        <Placemark id="3">
            <name>route</name>
            <styleUrl>#4</styleUrl>
            <LineString id="2">
                <altitudeMode>clampToGround</altitudeMode>
                <coordinates>-99.37935060086672,19.424391209871093,0.0 -99.3841132976915,19.424381198046703,0.0 -99.38887599155444,19.42437106131625,0.0 -99.39363868241881,19.424360799680063,0.0 -99.39840137024788,19.424350413138477,0.0 -99.40316405500494,19.424339901691845,0.0 -99.40792673665327,19.424329265340504,0.0 -99.41268941515614,19.424318504084813,0.0 -99.41745209047683,19.42430761792512,0.0 -99.42221476257863,19.424296606861784,0.0 -99.4269774314248,19.424285470895175,0.0 -99.43174009697864,19.424274210025654,0.0 -99.43175203382344,19.42879271389899,0.0 -99.42698923660018,19.42880397759267,0.0 -99.42222643608417,19.42881511635211,0.0 -99.41746363231212,19.428826130176954,0.0 -99.41270082532077,19.42883701906683,0.0 -99.40793801514684,19.42884778302139,0.0 -99.40317520182707,19.42885842204026,0.0 -99.39841238539816,19.428868936123106,0.0 -99.39364956589685,19.428879325269577,0.0 -99.38888674335986,19.42888958947932,0.0 -99.38412391782391,19.428899728752008,0.0 -99.37936108932576,19.428909743087306,0.0 -99.3745982579021,19.42891963248487,0.0 -99.36984565155288,19.433447932836625,0.0 -99.37460861757614,19.433438165928713,0.0 -99.37937158071028,19.43342827405143,0.0 -99.38413454091857,19.4334182572051,0.0 -99.38889749816423,19.433408115390037,0.0 -99.39366045241057,19.433397848606592,0.0 -99.39842340362085,19.4333874568551,0.0 -99.40318635175834,19.433376940135904,0.0 -99.40794929678628,19.433366298449354,0.0 -99.412712238668,19.4333555317958,0.0 -99.41747517736673,19.433344640175587,0.0 -99.42223811284575,19.43333362358909,0.0 -99.42700104506832,19.433322482036665,0.0 -99.43176397399772,19.43331121551868,0.0 -99.43653897484384,19.437818320545304,0.0 -99.4317759175019,19.437829714884266,0.0 -99.42701285682963,19.43784098422671,0.0 -99.42224979286375,19.437852128572267,0.0 -99.41748672564106,19.43786314792057,0.0 -99.4127236551982,19.437874042271257,0.0 -99.407960581572,19.437884811623963,0.0 -99.40319750479911,19.43789545597833,0.0 -99.39843442491632,19.437905975334022,0.0 -99.39367134196034,19.437916369690676,0.0 -99.38890825596792,19.437926639047955,0.0 -99.3841451669758,19.43793678340552,0.0 -99.37938207502069,19.437946802763033,0.0 -99.37461898013935,19.437956697120164,0.0 -99.3698558823685,19.437966466476592,0.0 -99.36509278174488,19.437976110831986,0.0 -99.36033964840391,19.44250416637661,0.0 -99.3651028836286,19.442494644636575,0.0 -99.36986611603689,19.442484997863858,0.0 -99.37462934559204,19.442475226058786,0.0 -99.37939257225733,19.44246532922167,0.0 -99.38415579599601,19.442455307352848,0.0 -99.38891901677134,19.442445160452642,0.0 -99.39368223454657,19.442434888521394,0.0 -99.39844544928498,19.442424491559432,0.0 -99.40320866094982,19.442413969567113,0.0 -99.40797186950434,19.442403322544784,0.0 -99.41273507491181,19.44239255049278,0.0 -99.41749827713548,19.44238165341147,0.0 -99.42226147613863,19.442370631301213,0.0 -99.42702467188451,19.442359484162377,0.0 -99.43178786433639,19.44234821199532,0.0 -99.43655105345752,19.442336814800417,0.0 -99.43656313543869,19.446855306800394,0.0 -99.43179981450163,19.4468667068514,0.0 -99.42703649023342,19.446877981843212,0.0 -99.42227316267078,19.446889131775485,0.0 -99.41750983185045,19.446900156647843,0.0 -99.4127464978092,19.44691105645992,0.0 -99.40798316058373,19.446921831211355,0.0 -99.40321982021082,19.446932480901793,0.0 -99.3984564767272,19.44694300553089,0.0 -99.39369313016964,19.446953405098284,0.0 -99.38892978057484,19.44696367960365,0.0 -99.38416642797957,19.446973829046634,0.0 -99.37940307242057,19.446983853426904,0.0 -99.3746397139346,19.44699375274413,0.0 -99.3698763525584,19.44700352699799,0.0 -99.36511298832869,19.44701317618815,0.0 -99.36034962128224,19.447022700314303,0.0 -99.3555862514558,19.447032099376127,0.0 -99.34606908369058,19.451569060960658,0.0 -99.35083259082634,19.451559909736172,0.0 -99.35559609525527,19.451550633415405,0.0 -99.36035959694058,19.45154123199867,0.0 -99.36512309584555,19.45153170548627,0.0 -99.36988659193341,19.45152205387853,0.0 -99.3746500851674,19.451512277175762,0.0 -99.37941357551082,19.451502375378286,0.0 -99.38417706292685,19.451492348486436,0.0 -99.38894054737881,19.451482196500542,0.0 -99.3937040288299,19.45147191942093,0.0 -99.3984675072434,19.45146151724795,0.0 -99.40323098258253,19.451450989981943,0.0 -99.40799445481058,19.451440337623254,0.0 -99.41275792389077,19.45142956017224,0.0 -99.41752138978636,19.451418657629244,0.0 -99.4222848524606,19.451407629994645,0.0 -99.42704831187675,19.451396477268787,0.0 -99.43181176799806,19.451385199452055,0.0 -99.43657522078777,19.451373796544814,0.0 -99.44133867020913,19.45136226854744,0.0 -99.44135089081554,19.455880753148115,0.0 -99.4365873095052,19.455892284033222,0.0 -99.43182372482606,19.455903689796866,0.0 -99.42706013681492,19.455914970438663,0.0 -99.42229654550852,19.45592612595824,0.0 -99.41753295094361,19.45593715635524,0.0 -99.41276935315695,19.455948061629297,0.0 -99.40800575218526,19.45595884178004,0.0 -99.40324214806535,19.455969496807118,0.0 -99.39847854083393,19.45598002671018,0.0 -99.39371493052778,19.455990431488885,0.0 -99.38895131718364,19.456000711142874,0.0 -99.38418770083825,19.45601086567182,0.0 -99.37942408152841,19.456020895075387,0.0 -99.37466045929082,19.456030799353243,0.0 -99.36989683416226,19.456040578505053,0.0 -99.36513320617951,19.4560502325305,0.0 -99.36036957537928,19.456059761429273,0.0 -99.35560594179833,19.45606916520104,0.0 -99.35084230547345,19.456078443845506,0.0 -99.34607866644137,19.456087597362355,0.0 -99.34131502473885,19.45609662575129,0.0 -99.33656070195673,19.460624067650837,0.0 -99.34132447822667,19.460615162160305,0.0 -99.34608825186261,19.46060613151022,0.0 -99.35085202282775,19.460596975700888,0.0 -99.35561579108537,19.4605876947326,0.0 -99.36037955659867,19.460578288605667,0.0 -99.36514331933091,19.460568757320402,0.0 -99.36990707924534,19.460559100877113,0.0 -99.3746708363052,19.46054931927613,0.0 -99.37943459047372,19.46053941251776,0.0 -99.38419834171414,19.460529380602352,0.0 -99.38896208998969,19.460519223530216,0.0 -99.39372583526364,19.4605089413017,0.0 -99.39848957749922,19.460498533917136,0.0 -99.40325331665966,19.460488001376874,0.0 -99.40801705270822,19.460477343681262,0.0 -99.41278078560812,19.460466560830646,0.0 -99.41754451532262,19.46045565282539,0.0 -99.42230824181496,19.46044461966585,0.0 -99.42707196504836,19.460433461352387,0.0 -99.43183568498608,19.460422177885373,0.0 -99.43659940159138,19.46041076926518,0.0 -99.44136311482748,19.46039923549219,0.0 -99.44137534224535,19.46491771557921,0.0 -99.43661149704677,19.46492925224025,0.0 -99.43184764847857,19.464940663717144,0.0 -99.42708379657748,19.46495195000953,0.0 -99.42231994138031,19.464963111117022,0.0 -99.4175560829238,19.464974147039257,0.0 -99.41279222124471,19.464985057775866,0.0 -99.40802835637982,19.464995843326495,0.0 -99.40326448836586,19.465006503690784,0.0 -99.39850061723963,19.465017038868382,0.0 -99.39373674303788,19.465027448858944,0.0 -99.38897286579737,19.465037733662122,0.0 -99.38420898555486,19.46504789327758,0.0 -99.37944510234713,19.465057927704972,0.0 -99.37468121621092,19.46506783694398,0.0 -99.369917327183,19.465077620994276,0.0 -99.36515343530014,19.465087279855528,0.0 -99.36038954059912,19.465096813527424,0.0 -99.35562564311667,19.465106222009645,0.0 -99.35086174288959,19.465115505301878,0.0 -99.34609783995462,19.46512466340382,0.0 -99.34133393434853,19.465133696315174,0.0 -99.33657002610808,19.465142604035634,0.0 -99.33180611527004,19.465151386564912,0.0 -99.3318153100114,19.46966992289395,0.0 -99.33657935285702,19.469661138165968,0.0 -99.34134339310472,19.46965222821546,0.0 -99.34610743071775,19.46964319304271,0.0 -99.35087146565931,19.469634032648035,0.0 -99.35563549789265,19.469624747031723,0.0 -99.36039952738098,19.469615336194092,0.0 -99.36516355408756,19.469605800135447,0.0 -99.36992757797559,19.469596138856097,0.0 -99.37469159900833,19.46958635235637,0.0 -99.379455617149,19.46957644063658,0.0 -99.38421963236082,19.469566403697065,0.0 -99.38898364460704,19.46955624153815,0.0 -99.39374765385088,19.46954595416017,0.0 -99.39851166005556,19.469535541563477,0.0 -99.40327566318435,19.469525003748398,0.0 -99.40803966320046,19.46951434071529,0.0 -99.4128036600671,19.4695035524645,0.0 -99.41756765374754,19.46949263899639,0.0 -99.42233164420499,19.469481600311315,0.0 -99.4270956314027,19.469470436409647,0.0 -99.43185961530388,19.469459147291747,0.0 -99.43662359587178,19.46944773295799,0.0 -99.44138757306963,19.469436193408754,0.0 -99.44615154686066,19.46942452864442,0.0 -99.44616391312734,19.473943001296348,0.0 -99.44139980730071,19.47395466898038,0.0 -99.43663569806684,19.473966211417967,0.0 -99.43187158546249,19.47397762860873,0.0 -99.42710746952443,19.473988920552298,0.0 -99.42234335028944,19.474000087248303,0.0 -99.41757922779428,19.474011128696358,0.0 -99.41281510207571,19.474022044896117,0.0 -99.40805097317055,19.474032835847208,0.0 -99.40328684111553,19.474043501549282,0.0 -99.39852270594743,19.474054042001978,0.0 -99.39375856770302,19.474064457204957,0.0 -99.38899442641909,19.47407474715787,0.0 -99.38423028213239,19.47408491186038,0.0 -99.37946613487972,19.474094951312146,0.0 -99.37470198469782,19.474104865512842,0.0 -99.36993783162349,19.47411465446214,0.0 -99.3651736756935,19.474124318159713,0.0 -99.36040951694461,19.474133856605246,0.0 -99.35564535541361,19.474143269798418,0.0 -99.35088119113726,19.474152557738925,0.0 -99.34611702415233,19.47416172042646,0.0 -99.34135285449563,19.474170757860712,0.0 -99.33658868220388,19.47417967004139,0.0 -99.33182450731388,19.474188456968207,0.0 -99.33183370717785,19.478706988787216,0.0 -99.33659801414899,19.478698199661466,0.0 -99.34136231852153,19.478689285250496,0.0 -99.34612662025873,19.478680245554607,0.0 -99.35089091932379,19.478671080574095,0.0 -99.35565521567993,19.478661790309275,0.0 -99.36041950929037,19.47865237476043,0.0 -99.36518380011834,19.47864283392789,0.0 -99.36994808812706,19.47863316781196,0.0 -99.37471237327975,19.478623376412962,0.0 -99.37947665553965,19.47861345973123,0.0 -99.38424093486995,19.47860341776707,0.0 -99.3890052112339,19.47859325052083,0.0 -99.39376948459469,19.478582957992845,0.0 -99.39853375491558,19.478572540183443,0.0 -99.40329802215976,19.478561997092985,0.0 -99.40806228629049,19.478551328721807,0.0 -99.41282654727095,19.478540535070266,0.0 -99.41759080506439,19.47852961613872,0.0 -99.42235505963404,19.47851857192752,0.0 -99.4271193109431,19.47850740243705,0.0 -99.43188355895481,19.478496107667656,0.0 -99.43664780363238,19.478484687619726,0.0 -99.44141204493906,19.478473142293634,0.0 -99.44617628283804,19.478461471689755,0.0 -99.45095302255643,19.482968140991577,0.0 -99.4461886559932,19.482979939824205,0.0 -99.44142428598508,19.482991613348087,0.0 -99.43665991256884,19.483003161562845,0.0 -99.43189553578127,19.483014584468087,0.0 -99.42713115565914,19.483025882063455,0.0 -99.42236677223923,19.483037054348557,0.0 -99.41760238555833,19.483048101323035,0.0 -99.4128379956532,19.483059022986524,0.0 -99.40807360256068,19.483069819338656,0.0 -99.40330920631749,19.483080490379084,0.0 -99.39854480696043,19.483091036107446,0.0 -99.39378040452628,19.4831014565234,0.0 -99.38901599905184,19.483111751626605,0.0 -99.38425159057387,19.48312192141671,0.0 -99.37948717912916,19.48313196589339,0.0 -99.3747227647545,19.4831418850563,0.0 -99.36995834748666,19.483151678905127,0.0 -99.36519392736244,19.483161347439538,0.0 -99.36042950441859,19.483170890659217,0.0 -99.35566507869193,19.483180308563853,0.0 -99.35090065021922,19.483189601153125,0.0 -99.34613621903725,19.483198768426735,0.0 -99.34137178518282,19.48320781038438,0.0 -99.33660734869267,19.483216727025752,0.0 -99.33184290960362,19.483225518350565,0.0 -99.33185211459153,19.48774404565781,0.0 -99.33661668583527,19.48773525213382,0.0 -99.34138125447977,19.487726333261914,0.0 -99.34614582048825,19.487717289042397,0.0 -99.35091038382392,19.487708119475567,0.0 -99.35567494444997,19.48769882456172,0.0 -99.36043950232964,19.487689404301168,0.0 -99.36520405742613,19.48767985869422,0.0 -99.36996860970264,19.48767018774119,0.0 -99.3747331591224,19.487660391442404,0.0 -99.37949770564863,19.48765046979818,0.0 -99.38426224924451,19.487640422808845,0.0 -99.3890267898733,19.487630250474734,0.0 -99.39379132749816,19.48761995279619,0.0 -99.39855586208236,19.487609529773536,0.0 -99.40332039358906,19.487598981407125,0.0 -99.40808492198151,19.487588307697305,0.0 -99.4128494472229,19.487577508644435,0.0 -99.41761396927646,19.487566584248864,0.0 -99.4223784881054,19.487555534510957,0.0 -99.42714300367292,19.487544359431066,0.0 -99.43190751594227,19.487533059009586,0.0 -99.43667202487663,19.487521633246867,0.0 -99.4414365304392,19.48751008214329,0.0 -99.44620103259325,19.48749840569925,0.0 -99.45096553130196,19.48748660391512,0.0 -99.45097804352963,19.49200506457866,0.0 -99.44621341263864,19.492016869314455,0.0 -99.4414487783019,19.49202854867881,0.0 -99.43668414055617,19.492040102671353,0.0 -99.43191949943825,19.492051531291697,0.0 -99.42715485498492,19.49206283453946,0.0 -99.42239020723298,19.49207401241427,0.0 -99.41762555621924,19.492085064915763,0.0 -99.41286090198044,19.49209599204357,0.0 -99.4080962445534,19.492106793797326,0.0 -99.4033315839749,19.492117470176673,0.0 -99.39856692028177,19.49212802118127,0.0 -99.39380225351076,19.49213844681076,0.0 -99.38903758369867,19.492148747064793,0.0 -99.3842729108823,19.492158921943048,0.0 -99.37950823509843,19.49216897144517,0.0 -99.37474355638386,19.492178895570838,0.0 -99.36997887477538,19.492188694319722,0.0 -99.36521419030979,19.49219836769149,0.0 -99.36044950302387,19.49220791568583,0.0 -99.35568481295442,19.492217338302428,0.0 -99.35092012013821,19.49222663554097,0.0 -99.34615542461206,19.492235807401148,0.0 -99.34139072641277,19.49224485388266,0.0 -99.33662602557712,19.492253774985212,0.0 -99.33186132214186,19.4922625707085,0.0 -99.331870532255,19.496781093502218,0.0 -99.33663536791852,19.496772295579508,0.0 -99.34140020098214,19.496763372246193,0.0 -99.34616503140906,19.49675432350256,0.0 -99.35092985916246,19.496745149348918,0.0 -99.35569468420559,19.49673584978555,0.0 -99.36045950650163,19.49672642481278,0.0 -99.36522432601377,19.49671687443092,0.0 -99.36998914270524,19.496707198640276,0.0 -99.37475395653922,19.496697397441174,0.0 -99.37951876747893,19.49668747083393,0.0 -99.38428357548756,19.496677418818877,0.0 -99.38904838052832,19.496667241396352,0.0 -99.39381318256441,19.496656938566687,0.0 -99.39857798155904,19.49664651033022,0.0 -99.40334277747542,19.4966359566873,0.0 -99.40810757027673,19.496625277638266,0.0 -99.4128723599262,19.496614473183485,0.0 -99.41763714638702,19.496603543323303,0.0 -99.4224019296224,19.496592488058088,0.0 -99.42716670959553,19.496581307388198,0.0 -99.43193148626963,19.496570001314005,0.0 -99.43669625960791,19.49655856983589,0.0 -99.44146102957357,19.49654701295422,0.0 -99.44622579612981,19.496535330669378,0.0 -99.45099055923986,19.496523522981757,0.0 -99.4557679703155,19.50103004305063,0.0 -99.45100307843309,19.501041979123983,0.0 -99.4462381830672,19.50105378976358,0.0 -99.44147328425467,19.501065474969053,0.0 -99.43670838203228,19.501077034740003,0.0 -99.43194347643686,19.501088469076056,0.0 -99.42717856750518,19.501099777976822,0.0 -99.42241365527403,19.501110961441942,0.0 -99.41764873978025,19.501122019471033,0.0 -99.41288382106062,19.501132952063735,0.0 -99.40811889915192,19.501143759219698,0.0 -99.40335397409098,19.501154440938546,0.0 -99.39858904591458,19.50116499721994,0.0 -99.39382411465954,19.50117542806352,0.0 -99.38905918036264,19.501185733468954,0.0 -99.3842942430607,19.50119591343589,0.0 -99.3795293027905,19.501205967964,0.0 -99.37476435958887,19.50121589705295,0.0 -99.36999941349258,19.50122570070241,0.0 -99.36523446453845,19.501235378912057,0.0 -99.36046951276327,19.501244931681573,0.0 -99.35570455820385,19.50125435901064,0.0 -99.35093960089701,19.50126366089895,0.0 -99.34617464087952,19.50127283734619,0.0 -99.34140967818819,19.501281888352057,0.0 -99.33664471285982,19.50129081391626,0.0 -99.33187974493123,19.501299614038494,0.0 -99.33188896017089,19.50581813231692,0.0 -99.33665406040137,19.50580932999503,0.0 -99.34141915803129,19.505800402199824,0.0 -99.34618425302382,19.5057913489316,0.0 -99.35094934534219,19.505782170190642,0.0 -99.35571443494958,19.50577286597726,0.0 -99.36047952180917,19.505763436291772,0.0 -99.36524460588417,19.505753881134478,0.0 -99.37000968713777,19.505744200505703,0.0 -99.37477476553315,19.505734394405756,0.0 -99.37953984103352,19.505724462834962,0.0 -99.38430491360208,19.505714405793654,0.0 -99.38906998320202,19.505704223282166,0.0 -99.39383504979651,19.505693915300828,0.0 -99.39860011334878,19.505683481849992,0.0 -99.403365173822,19.505672922929993,0.0 -99.40813023117936,19.505662238541177,0.0 -99.41289528538407,19.5056514286839,0.0 -99.41766033639934,19.505640493358523,0.0 -99.42242538418833,19.505629432565406,0.0 -99.42719042871427,19.505618246304916,0.0 -99.43195546994032,19.505606934577415,0.0 -99.4367205078297,19.505595497383283,0.0 -99.4414855423456,19.505583934722893,0.0 -99.44625057345122,19.505572246596635,0.0 -99.45101560110975,19.505560433004888,0.0 -99.45578062528439,19.505548493948044,0.0 -99.45579328377397,19.510066942583542,0.0 -99.45102812727032,19.510078884624033,0.0 -99.44626296728234,19.510090701168078,0.0 -99.44149780384683,19.510102392215284,0.0 -99.4367326370006,19.510113957765267,0.0 -99.43196746678046,19.51012539781764,0.0 -99.42720229322323,19.510136712372017,0.0 -99.4224371163657,19.51014790142804,0.0 -99.41767193624467,19.51015896498533,0.0 -99.412906752897,19.510169903043526,0.0 -99.40814156635945,19.510180715602264,0.0 -99.40337637666885,19.51019140266118,0.0 -99.39861118386199,19.510201964219934,0.0 -99.39384598797571,19.51021240027817,0.0 -99.38908078904682,19.51022271083555,0.0 -99.38431558711208,19.510232895891725,0.0 -99.37955038220836,19.510242955446362,0.0 -99.37478517437245,19.510252889499128,0.0 -99.37001996364116,19.51026269804969,0.0 -99.36525475005128,19.51027238109774,0.0 -99.36048953363965,19.510281938642937,0.0 -99.35572431444308,19.51029137068498,0.0 -99.35095909249836,19.510300677223547,0.0 -99.3461938678423,19.51030985825834,0.0 -99.34142864051175,19.510318913789053,0.0 -99.33666341054347,19.51032784381539,0.0 -99.3318981779743,19.510336648337045,0.0 -99.3319073983418,19.514855162098428,0.0 -99.33667276328647,19.514846355376886,0.0 -99.3414381256299,19.514837423119307,0.0 -99.34620348533531,19.514828365325986,0.0 -99.35096884236584,19.514819181997233,0.0 -99.35573419668472,19.51480987313334,0.0 -99.36049954825509,19.514800438734625,0.0 -99.36526489704018,19.51479087880139,0.0 -99.37003024300313,19.514781193333953,0.0 -99.37479558610714,19.514771382332636,0.0 -99.3795609263154,19.514761445797763,0.0 -99.3843262635911,19.514751383729664,0.0 -99.38909159789743,19.514741196128664,0.0 -99.39385692919755,19.514730882995106,0.0 -99.39862225745466,19.514720444329335,0.0 -99.40338758263195,19.514709880131687,0.0 -99.40815290469259,19.51469919040251,0.0 -99.41291822359979,19.51468837514217,0.0 -99.41768353931671,19.514677434351007,0.0 -99.42244885180655,19.5146663680294,0.0 -99.42721416103248,19.5146551761777,0.0 -99.43197946695771,19.514643858796287,0.0 -99.43674476954541,19.514632415885522,0.0 -99.44151006875877,19.5146208474458,0.0 -99.44627536456098,19.51460915347749,0.0 -99.45104065691524,19.514597333980984,0.0 -99.4558059457847,19.51458538895667,0.0 -99.46057123113258,19.51457331840495,0.0 -99.46058402906706,19.519091759499954,0.0 -99.45581861131701,19.51910383306701,0.0 -99.45105319004492,19.519115781075296,0.0 -99.4462877652876,19.519127603524424,0.0 -99.44152233708188,19.519139300413986,0.0 -99.43675690546456,19.519150871743616,0.0 -99.43199147047248,19.51916231751292,0.0 -99.42722603214246,19.51917363772152,0.0 -99.42246059051129,19.519184832369046,0.0 -99.41769514561581,19.519195901455127,0.0 -99.41292969749284,19.5192068449794,0.0 -99.4081642461792,19.519217662941493,0.0 -99.4033987917117,19.51922835534106,0.0 -99.39863333412715,19.519238922177742,0.0 -99.3938678734624,19.5192493634512,0.0 -99.38910240975424,19.51925967916107,0.0 -99.3843369430395,19.519269869307024,0.0 -99.379571473355,19.51927993388873,0.0 -99.37480600073756,19.519289872905844,0.0 -99.37004052522403,19.519299686358043,0.0 -99.36527504685117,19.519309374244997,0.0 -99.36050956565583,19.5193189365664,0.0 -99.35574408167484,19.519328373321926,0.0 -99.350978594945,19.519337684511257,0.0 -99.34621310550317,19.519346870134097,0.0 -99.34144761338611,19.519355930190134,0.0 -99.33668211863069,19.51936486467908,0.0 -99.3319166212737,19.51937367360063,0.0 -99.33192584677035,19.523892182843216,0.0 -99.33669147657646,19.523883371721546,0.0 -99.3414571037807,19.52387443500111,0.0 -99.3462227283462,19.523865372682227,0.0 -99.3509883502362,19.52385618476518,0.0 -99.35575396941381,19.523846871250274,0.0 -99.36051958584224,19.523837432137825,0.0 -99.36528519948465,19.523827867428132,0.0 -99.37005081030422,19.523818177121523,0.0 -99.37481641826413,19.523808361218308,0.0 -99.37958202332756,19.523798419718823,0.0 -99.38434762545766,19.523788352623388,0.0 -99.38911322461763,19.523778159932334,0.0 -99.39387882077064,19.523767841646002,0.0 -99.39864441387986,19.523757397764737,0.0 -99.40341000390848,19.52374682828887,0.0 -99.40817559081965,19.523736133218765,0.0 -99.41294117457657,19.523725312554774,0.0 -99.4177067551424,19.52371436629724,0.0 -99.42247233248034,19.523703294446545,0.0 -99.42723790655354,19.523692097003043,0.0 -99.4320034773252,19.523680773967097,0.0 -99.43676904475848,19.523669325339103,0.0 -99.44153460881655,19.523657751119412,0.0 -99.44630016946262,19.523646051308436,0.0 -99.45106572665982,19.523634225906537,0.0 -99.45583128037137,19.523622274914118,0.0 -99.46059683056043,19.52361019833156,0.0 -99.4606096356131,19.528128634899332,0.0 -99.45584395294821,19.52814071449754,0.0 -99.45107826676039,19.52815266847426,0.0 -99.44631257708646,19.52816449682909,0.0 -99.44154688396326,19.528176199561646,0.0 -99.43678118742758,19.528187776671547,0.0 -99.43201548751628,19.528199228158392,0.0 -99.4272497842662,19.52821055402182,0.0 -99.42248407771413,19.528221754261455,0.0 -99.41771836789692,19.52823282887692,0.0 -99.41295265485138,19.52824377786785,0.0 -99.40818693861438,19.528254601233893,0.0 -99.4034212192227,19.528265298974677,0.0 -99.39865549671318,19.528275871089857,0.0 -99.39388977112267,19.52828631757908,0.0 -99.38912404248798,19.528296638442008,0.0 -99.38435831084594,19.528306833678293,0.0 -99.3795925762334,19.5283169032876,0.0 -99.37482683868717,19.528326847269597,0.0 -99.37006109824408,19.52833666562395,0.0 -99.36529535494097,19.528346358350348,0.0 -99.36052960881464,19.52835592544846,0.0 -99.35576385990196,19.528365366917967,0.0 -99.35099810823974,19.528374682758567,0.0 -99.3462323538648,19.528383872969947,0.0 -99.341466596814,19.5283929375518,0.0 -99.33670083712414,19.528401876503832,0.0 -99.33193507483205,19.528410689825748,0.0 -99.33194430545915,19.532929194547783,0.0 -99.33671020027401,19.532920379025512,0.0 -99.34147609248633,19.53291143784175,0.0 -99.34624198205927,19.53290237099681,0.0 -99.35100786895599,19.53289317849097,0.0 -99.35577375313966,19.532883860324553,0.0 -99.36053963457343,19.53287441649786,0.0 -99.36530551322049,19.532864847011204,0.0 -99.37007138904397,19.532855151864897,0.0 -99.37483726200708,19.532845331059267,0.0 -99.37960313207294,19.532835384594627,0.0 -99.38436899920475,19.532825312471317,0.0 -99.38913486336568,19.53281511468966,0.0 -99.39390072451887,19.53280479125,0.0 -99.3986665826275,19.532794342152677,0.0 -99.40343243765474,19.532783767398037,0.0 -99.40819828956374,19.532773066986426,0.0 -99.41296413831768,19.5327622409182,0.0 -99.41772998387974,19.532751289193712,0.0 -99.42249582621307,19.532740211813334,0.0 -99.42726166528081,19.532729008777423,0.0 -99.43202750104619,19.53271768008635,0.0 -99.43679333347232,19.532706225740498,0.0 -99.44155916252242,19.532694645740232,0.0 -99.4463249881596,19.532682940085948,0.0 -99.45109081034708,19.532671108778022,0.0 -99.455856629048,19.53265915181685,0.0 -99.46062244422554,19.532647069202827,0.0 -99.46538825584284,19.53263486093635,0.0 -99.46540120056453,19.537153289927783,0.0 -99.46063525639818,19.537165501241606,0.0 -99.45586930867117,19.53717758687161,0.0 -99.45110335742032,19.537189546817395,0.0 -99.44633740268247,19.537201381078578,0.0 -99.44157144449446,19.537213089654745,0.0 -99.43680548289313,19.537224672545538,0.0 -99.43203951791531,19.53723612975055,0.0 -99.42727354959783,19.537247461269413,0.0 -99.42250757797754,19.537258667101753,0.0 -99.41774160309129,19.537269747247194,0.0 -99.41297562497589,19.537280701705377,0.0 -99.40820964366819,19.53729153047594,0.0 -99.40344365920501,19.537302233558513,0.0 -99.39867767162322,19.537312810952763,0.0 -99.39391168095963,19.537323262658322,0.0 -99.3891456872511,19.537333588674855,0.0 -99.38437969053446,19.537343789002012,0.0 -99.37961369084655,19.537353863639467,0.0 -99.37484768822421,19.53736381258688,0.0 -99.37008168270425,19.53737363584392,0.0 -99.36531567432355,19.53738333341027,0.0 -99.36054966311893,19.537392905285603,0.0 -99.35578364912723,19.53740235146961,0.0 -99.35101763238531,19.53741167196197,0.0 -99.34625161292996,19.537420866762382,0.0 -99.34148559079807,19.537429935870534,0.0 -99.33671956602646,19.53743887928614,0.0 -99.33195353865194,19.537447697008893,0.0 -99.3319627744108,19.541966197208623,0.0 -99.33672893438177,19.54195737728527,0.0 -99.34149509174952,19.541948431637707,0.0 -99.34626124647721,19.541939360266213,0.0 -99.35102739852802,19.541930163171106,0.0 -99.35579354786506,19.541920840352674,0.0 -99.36055969445152,19.541911391811237,0.0 -99.36532583825054,19.541901817547092,0.0 -99.37009197922531,19.54189211756057,0.0 -99.37485811733892,19.54188229185199,0.0 -99.37962425255458,19.54187234042167,0.0 -99.38439038483544,19.54186226326994,0.0 -99.38915651414464,19.541852060397133,0.0 -99.39392264044534,19.5418417318036,0.0 -99.39868876370072,19.54183127748966,0.0 -99.40345488387392,19.54182069745567,0.0 -99.40822100092808,19.541809991701978,0.0 -99.4129871148264,19.54179916022894,0.0 -99.41775322553197,19.541788203036916,0.0 -99.42251933300801,19.541777120126252,0.0 -99.42728543721766,19.541765911497336,0.0 -99.43205153812409,19.541754577150527,0.0 -99.43681763569042,19.541743117086202,0.0 -99.44158372987984,19.541731531304738,0.0 -99.4463498206555,19.541719819806517,0.0 -99.45111590798055,19.541707982591934,0.0 -99.45588199181817,19.541696019661366,0.0 -99.46064807213149,19.541683931015218,0.0 -99.46541414888371,19.54167171665389,0.0 -99.46542710080085,19.54619014111424,0.0 -99.46066089142596,19.546202358523242,0.0 -99.45589467848946,19.546214450185694,0.0 -99.45112846202822,19.54622641610119,0.0 -99.44636224207913,19.54623825626935,0.0 -99.44159601867898,19.546249970689768,0.0 -99.43682979186462,19.54626155936207,0.0 -99.43206356167293,19.546273022285863,0.0 -99.42729732814074,19.546284359460767,0.0 -99.42253109130488,19.546295570886414,0.0 -99.41776485120222,19.54630665656243,0.0 -99.4129986078696,19.546317616488455,0.0 -99.40823236134383,19.546328450664117,0.0 -99.40346611166184,19.54633915908906,0.0 -99.39869985886041,19.546349741762942,0.0 -99.3939336029764,19.546360198685395,0.0 -99.38916734404667,19.546370529856087,0.0 -99.38440108210807,19.54638073527467,0.0 -99.37963481719743,19.54639081494081,0.0 -99.37486854935162,19.546400768854166,0.0 -99.37010227860745,19.546410597014425,0.0 -99.36533600500181,19.546420299421246,0.0 -99.36056972857155,19.546429876074324,0.0 -99.35580344935347,19.546439326973328,0.0 -99.35103716738448,19.546448652117952,0.0 -99.34627088270136,19.546457851507892,0.0 -99.34150459534104,19.546466925142834,0.0 -99.33673830534029,19.546475873022487,0.0 -99.33197201273602,19.546484695146546,0.0 -99.32720571756504,19.546493391514737,0.0 -99.32721482578646,19.551011889359877,0.0 -99.33198125362793,19.55100319082223,0.0 -99.33674767890237,19.550994366497335,0.0 -99.34151410157293,19.55098541638548,0.0 -99.34628052160276,19.550976340486958,0.0 -99.35104693895501,19.550967138802072,0.0 -99.35581335359282,19.55095781133113,0.0 -99.36057976547936,19.550948358074432,0.0 -99.36534617457772,19.550938779032297,0.0 -99.3701125808511,19.55092907420504,0.0 -99.37487898426264,19.55091924359298,0.0 -99.37964538477546,19.550909287196447,0.0 -99.38441178235273,19.550899205015753,0.0 -99.38917817695759,19.550888997051256,0.0 -99.39394456855318,19.55087866330328,0.0 -99.39871095710267,19.55086820377216,0.0 -99.40347734256918,19.550857618458256,0.0 -99.40824372491588,19.55084690736191,0.0 -99.41301010410591,19.55083607048348,0.0 -99.4177764801024,19.550825107823318,0.0 -99.42254285286855,19.55081401938179,0.0 -99.42730922236746,19.550802805159268,0.0 -99.43207558856227,19.55079146515611,0.0 -99.43684195141618,19.550779999372697,0.0 -99.4416083108923,19.550768407809407,0.0 -99.44637466695379,19.550756690466635,0.0 -99.4511410195638,19.55074484734475,0.0 -99.45590736868547,19.550732878444148,0.0 -99.46067371428197,19.550720783765232,0.0 -99.46068654070004,19.55523920674074,0.0 -99.45592006240668,19.555251304436283,0.0 -99.4511535805877,19.555263276322147,0.0 -99.44638709527995,19.555275122397912,0.0 -99.44162060652027,19.55528684266321,0.0 -99.43685411434552,19.555298437117642,0.0 -99.43208761879255,19.555309905760826,0.0 -99.42732111989825,19.555321248592385,0.0 -99.42255461769943,19.555332465611947,0.0 -99.41778811223298,19.555343556819125,0.0 -99.41302160353575,19.555354522213573,0.0 -99.40825509164459,19.555365361794923,0.0 -99.40348857659635,19.555376075562812,0.0 -99.3987220584279,19.555386663516888,0.0 -99.39395553717607,19.5553971256568,0.0 -99.38918901287776,19.555407461982202,0.0 -99.38442248556979,19.55541767249276,0.0 -99.37965595528904,19.55542775718812,0.0 -99.37488942207236,19.55543771606797,0.0 -99.3701228859566,19.55544754913197,0.0 -99.36535634697863,19.555457256379785,0.0 -99.3605898051753,19.555466837811114,0.0 -99.35582326058346,19.555476293425627,0.0 -99.35105671324,19.555485623223017,0.0 -99.34629016318175,19.55549482720297,0.0 -99.34152361044556,19.555503905365192,0.0 -99.33675705506832,19.555512857709378,0.0 -99.33199049708685,19.55552168423522,0.0 -99.32722393653805,19.555530384942447,0.0 -99.32723304982012,19.560048878262013,0.0 -99.33199974311313,19.560040175385094,0.0 -99.33676643383848,19.560031346658178,0.0 -99.34153312195926,19.56002239208155,0.0 -99.34629980743865,19.56001331165551,0.0 -99.35106649023976,19.56000410538036,0.0 -99.35583317032575,19.5599947732564,0.0 -99.36059984765976,19.55998531528395,0.0 -99.3653665222049,19.5599757314633,0.0 -99.37013319392432,19.559966021794782,0.0 -99.37489986278115,19.559956186278722,0.0 -99.37966652873855,19.559946224915436,0.0 -99.38443319175964,19.559936137705247,0.0 -99.38919985180758,19.559925924648503,0.0 -99.39396650884547,19.559915585745532,0.0 -99.39873316283648,19.55990512099668,0.0 -99.40349981374372,19.559894530402293,0.0 -99.40826646153036,19.55988381396272,0.0 -99.41303310615953,19.55987297167831,0.0 -99.41779974759434,19.559862003549433,0.0 -99.42256638579798,19.55985090957644,0.0 -99.42733302073356,19.5598396897597,0.0 -99.4320996523642,19.559828344099586,0.0 -99.43686628065306,19.559816872596475,0.0 -99.4416329055633,19.55980527525074,0.0 -99.44639952705802,19.55979355206277,0.0 -99.45116614510037,19.559781703032957,0.0 -99.45593275965352,19.559769728161676,0.0 -99.45117871310228,19.564300127476738,0.0 -99.44641196228845,19.564311979460758,0.0 -99.44164520802181,19.564323705571553,0.0 -99.43687845033925,19.564335305808743,0.0 -99.4321116892776,19.564346780171938,0.0 -99.42734492487376,19.564358128660757,0.0 -99.42257815716458,19.564369351274824,0.0 -99.41781138618691,19.56438044801378,0.0 -99.41304461197764,19.56439141887724,0.0 -99.40827783457362,19.56440226386485,0.0 -99.40351105401173,19.564412982976258,0.0 -99.3987442703288,19.5644235762111,0.0 -99.39397748356176,19.56443404356903,0.0 -99.38921069374742,19.564444385049704,0.0 -99.38444390092268,19.564454600652777,0.0 -99.37967710512437,19.564464690377914,0.0 -99.3749103063894,19.56447465422478,0.0 -99.37014350475461,19.564484492193046,0.0 -99.36537670025687,19.564494204282383,0.0 -99.36060989293306,19.564503790492473,0.0 -99.35584308282003,19.564513250823005,0.0 -99.35107626995466,19.564522585273657,0.0 -99.34630945437382,19.56453179384413,0.0 -99.34154263611437,19.56454087653411,0.0 -99.33677581521317,19.5645498333433,0.0 -99.33200899170711,19.564558664271406,0.0 -99.32724216563302,19.564567369318134,0.0 -99.32725128397706,19.569085858110373,0.0 -99.33201824286907,19.569077150893712,0.0 -99.33678519919275,19.5690683177643,0.0 -99.34155215291122,19.569059358722424,0.0 -99.3463191039876,19.56905027376838,0.0 -99.35108605238504,19.56904106290247,0.0 -99.35585299806667,19.569031726124997,0.0 -99.36061994099558,19.569022263436267,0.0 -99.36538688113494,19.5690126748366,0.0 -99.37015381844785,19.569002960326305,0.0 -99.37492075289745,19.56899311990571,0.0 -99.37968768444688,19.568983153575136,0.0 -99.38445461305923,19.568973061334912,0.0 -99.38922153869768,19.568962843185375,0.0 -99.39398846132532,19.56895249912686,0.0 -99.39875538090529,19.568942029159704,0.0 -99.40352229740073,19.568931433284263,0.0 -99.40828921077475,19.568920711500887,0.0 -99.41305612099049,19.568909863809917,0.0 -99.41782302801109,19.568898890211727,0.0 -99.42258993179965,19.568887790706672,0.0 -99.42735683231932,19.56887656529512,0.0 -99.43212372953323,19.568865213977443,0.0 -99.43689062340451,19.56885373675402,0.0 -99.44165751389627,19.56884213362521,0.0 -99.44642440097168,19.568830404591434,0.0 -99.44643684310816,19.573348827454353,0.0 -99.44166982318713,19.573360559411288,0.0 -99.43690279984928,19.573372165431856,0.0 -99.43213577313149,19.573383645515673,0.0 -99.42736874307064,19.573394999662362,0.0 -99.42260170970361,19.573406227871544,0.0 -99.41783467306728,19.573417330142853,0.0 -99.4130676331985,19.573428306475925,0.0 -99.40830059013417,19.573439156870382,0.0 -99.40353354391115,19.573449881325878,0.0 -99.39876649456632,19.57346047984206,0.0 -99.39399944213655,19.573470952418575,0.0 -99.38923238665873,19.573481299055064,0.0 -99.38446532816972,19.573491519751208,0.0 -99.37969826670643,19.573501614506657,0.0 -99.37493120230569,19.573511583321075,0.0 -99.3701641350044,19.573521426194134,0.0 -99.36539706483943,19.57353114312551,0.0 -99.36062999184766,19.573540734114886,0.0 -99.35586291606599,19.573550199161943,0.0 -99.35109583753125,19.573559538266363,0.0 -99.34632875628033,19.573568751427835,0.0 -99.34156167235014,19.57357783864607,0.0 -99.33679458577753,19.573586799920754,0.0 -99.33202749659937,19.57359563525159,0.0 -99.32726040485257,19.57360434463829,0.0 -99.32726952825983,19.578122828901456,0.0 -99.33203675289833,19.578114117344587,0.0 -99.33680397496784,19.578105279812206,0.0 -99.34157119443148,19.5780963163046,0.0 -99.34633841125236,19.57808722682206,0.0 -99.35110562539361,19.57807801136489,0.0 -99.35587283681834,19.578068669933405,0.0 -99.36064004548967,19.578059202527896,0.0 -99.36540725137073,19.57804960914869,0.0 -99.37017445442463,19.57803988979609,0.0 -99.37494165461449,19.578030044470434,0.0 -99.3797088519034,19.578020073172045,0.0 -99.38447604625453,19.578009975901235,0.0 -99.38924323763096,19.577999752658357,0.0 -99.39401042599586,19.577989403443745,0.0 -99.39877761131228,19.57797892825773,0.0 -99.40354479354338,19.577968327100667,0.0 -99.40831197265226,19.5779575999729,0.0 -99.41307914860207,19.577946746874797,0.0 -99.4178463213559,19.57793576780671,0.0 -99.42261349087688,19.577924662768996,0.0 -99.42738065712815,19.577913431762028,0.0 -99.4321478200728,19.577902074786177,0.0 -99.43691497967397,19.57789059184182,0.0 -99.44168213589477,19.577878982929327,0.0 -99.43692716287903,19.582409015983465,0.0 -99.43215987035761,19.582420501788526,0.0 -99.42739257449226,19.582431861593697,0.0 -99.42262527531989,19.582443095398595,0.0 -99.41785797287737,19.58245420320286,0.0 -99.4130906672016,19.58246518500612,0.0 -99.40832335832944,19.582476040808015,0.0 -99.40355604629781,19.58248677060818,0.0 -99.39878873114355,19.582497374406266,0.0 -99.39402141290358,19.582507852201918,0.0 -99.38925409161477,19.5825182039948,0.0 -99.38448676731403,19.582528429784553,0.0 -99.3797194400382,19.582538529570854,0.0 -99.37495210982419,19.58254850335336,0.0 -99.3701847767089,19.58255835113174,0.0 -99.36541744072919,19.582568072905687,0.0 -99.36065010192198,19.582577668674855,0.0 -99.3558827603241,19.582587138438942,0.0 -99.35111541597249,19.58259648219763,0.0 -99.34634806890402,19.58260569995061,0.0 -99.34158071915557,19.582614791697576,0.0 -99.33681336676403,19.582623757438235,0.0 -99.33204601176628,19.58263259717228,0.0 -99.32727865419923,19.582641310899426,0.0 -99.32728778267104,19.587159790631755,0.0 -99.33205527320355,19.587151074734216,0.0 -99.33682276116642,19.587142232798392,0.0 -99.34159024652276,19.587133264824566,0.0 -99.34635772923566,19.587124170813045,0.0 -99.35112520926825,19.587114950764125,0.0 -99.35589268658362,19.587105604678122,0.0 -99.36066016114489,19.587096132555327,0.0 -99.36542763291517,19.587086534396068,0.0 -99.37019510185758,19.58707681020065,0.0 -99.3749625679352,19.587066959969405,0.0 -99.37973003111117,19.587056983702652,0.0 -99.38449749134857,19.58704688140072,0.0 -99.38926494861055,19.587036653063954,0.0 -99.39403240286016,19.587026298692678,0.0 -99.39879985406056,19.58701581828724,0.0 -99.40356730217484,19.587005211847988,0.0 -99.40833474716612,19.586994479375267,0.0 -99.41310218899751,19.586983620869443,0.0 -99.4178696276321,19.586972636330866,0.0 -99.42263706303304,19.5869615257599,0.0 -99.42740449516342,19.586950289156913,0.0 -99.43217192398632,19.586938926522276,0.0 -99.43218398095938,19.591457348986992,0.0 -99.427416419142,19.591468714451256,0.0 -99.42264885401676,19.591479953852478,0.0 -99.41788128562052,19.59149106719029,0.0 -99.41311371399021,19.591502054464335,0.0 -99.4083461391627,19.59151291567424,0.0 -99.4035785611749,19.591523650819653,0.0 -99.39881098006367,19.59153425990021,0.0 -99.39404339586596,19.591544742915577,0.0 -99.38927580861862,19.591555099865385,0.0 -99.38450821835856,19.591565330749308,0.0 -99.37974062512268,19.591575435567005,0.0 -99.36543782792904,19.591604993619395,0.0 -99.36067022315882,19.591614594168878,0.0 -99.35590261559724,19.591624068650507,0.0 -99.35113500528121,19.591633417063964,0.0 -99.34636739224761,19.59164263940894,0.0 -99.34159977653337,19.591651735685133,0.0 -99.33683215817535,19.59166070589224,0.0 -99.33206453721047,19.591669550029966,0.0 -99.3272969136756,19.591678268098025,0.0 -99.32730604721326,19.596196743297778,0.0 -99.33207380378734,19.59618802305909,0.0 -99.33684155779115,19.596179176719343,0.0 -99.34160930918775,19.596170204278824,0.0 -99.34637705794023,19.59616110573784,0.0 -99.35114480401172,19.596151881096674,0.0 -99.3559125473653,19.596142530355646,0.0 -99.39882210915331,19.59605269924474,0.0 -99.40358982329835,19.596042087522726,0.0 -99.40835753431956,19.596031349704475,0.0 -99.4131252421801,19.59602048579034,0.0 -99.41789294684303,19.596009495780688,0.0 -99.42266064827145,19.595998379675866,0.0 -99.42742834642847,19.59598713747626,0.0 -99.42267244579753,19.600516803229667,0.0 -99.4179046113,19.600527922101634,0.0 -99.34638672631385,19.600679569799315,0.0 -99.34161884448622,19.600688670605223,0.0 -99.33685096001415,19.600697645279272,0.0 -99.33208307293454,19.600706493821157,0.0 -99.3273151832843,19.600715216230586,0.0 -99.32732432188907,19.60523368689601,0.0 -99.33209234465235,19.605224962315713,0.0 -99.3368603648447,19.605216111571576,0.0 -99.3273334630279,19.609752155293616,0.0</coordinates>
            </LineString>
        </Placemark>
    </Document>
</kml>
