<?xml version="1.0" encoding="UTF-8"?>
<kml xmlns="http://www.opengis.net/kml/2.2" xmlns:gx="http://www.google.com/kml/ext/2.2">
    <Document id="1">
        <Style id="4">
            <LineStyle id="5">
                <colorMode>normal</colorMode>
                <width>3</width>
            </LineStyle>
        </Style>
        <Placemark id="3">
            <name>route</name>
            <styleUrl>#4</styleUrl>
            <LineString id="2">
                <altitudeMode>clampToGround</altitudeMode>
                <coordinates>-0.08365670299194986,51.4800005671456,0.0 -0.09274235440247147,51.48022633780183,0.0 -0.10182812384660637,51.480451405282416,0.0 -0.11091401095817294,51.48067576956608,0.0 -0.12000001537095534,51.480899430631595,0.0 -0.12000003003514959,51.481798861141954,0.0 -0.10999981234013853,51.481552658511895,0.0 -0.09999973678522422,51.4813056040396,0.0 -0.08999980385865758,51.48105769775335,0.0 -0.08000001404864221,51.4808089396816,0.0 -0.08000002898841443,51.48170837735641,0.0 -0.08999981855082918,51.481957133597355,0.0 -0.0999997512311378,51.48220503805904,0.0 -0.10999982654112912,51.48245209071305,0.0 -0.12000004399255262,51.48269829153105,0.0 -0.120000057243139,51.4835977217989,0.0 -0.10999984003285641,51.48335152279307,0.0 -0.09999976496534024,51.48310447195748,0.0 -0.0899998325288454,51.482856569320475,0.0 -0.080000043211587,51.482607814910445,0.0 -0.08000005671813211,51.48350725234371,0.0 -0.08999984579268118,51.483756004922704,0.0 -0.0999997779878085,51.484003905734916,0.0 -0.10999985281529537,51.48425095475195,0.0 -0.1200000697868805,51.484497151945504,0.0 -0.1200000816237485,51.485396581970846,0.0 -0.10999986488841378,51.4851503865897,0.0 -0.09999979029850878,51.48490333939134,0.0 -0.08999985834230352,51.48465544040405,0.0 -0.08000006950801952,51.48440668965624,0.0 -0.08000008158122221,51.48530612684798,0.0 -0.08999987017768739,51.48555487576451,0.0 -0.09999980189741721,51.48580277292676,0.0 -0.1099998762521842,51.48604981830635,0.0 -0.12000009275371476,51.48629601187495,0.0 -0.12000010317675583,51.48719544165782,0.0 -0.109999886906582,51.486949249901855,0.0 -0.09999981278450717,51.48670220634117,0.0 -0.08999988129880615,51.486454311004074,0.0 -0.08000009293771274,51.48620556391898,0.0 -0.0800001035774625,51.48710500086921,0.0 -0.08999989170563036,51.48735374612277,0.0 -0.09999982295974606,51.487601639634576,0.0 -0.10999989685157695,51.487848681376235,0.0 -0.12000011289283871,51.488094871319426,0.0 -0.12000012190193995,51.48899430085978,0.0 -0.10999990608714282,51.488748112729496,0.0 -0.09999983242311081,51.48850107280699,0.0 -0.08999990139813022,51.488253181120584,0.0 -0.08000011350044284,51.48800443769868,0.0 -0.08000012270662714,51.488903874407384,0.0 -0.08999991037628069,51.48915261599751,0.0 -0.09999984117456844,51.48940050585839,0.0 -0.1099999146132482,51.489647543961624,0.0 -0.12000013020402893,51.489893730278894,0.0 -0.12000013779907741,51.49079315957677,0.0 -0.10999992242987122,51.490546975072625,0.0 -0.09999984921409745,51.49029993878878,0.0 -0.08999991864005193,51.49005205075355,0.0 -0.08000013119598638,51.489803310995335,0.0 -0.08000013896849194,51.49070274746252,0.0 -0.08999992618941731,51.49095148538871,0.0 -0.09999985654166407,51.49119937159817,0.0 -0.1099999295369797,51.4914464060625,0.0 -0.12000014468706316,51.49169258875339,0.0 -0.12000015086795075,51.49259201780877,0.0 -0.10999993593454616,51.492345836931264,0.0 -0.09999986315724206,51.49209880428656,0.0 -0.08999993302434663,51.491850919903,0.0 -0.08000014602411676,51.49160218380895,0.0 -0.08000015236283263,51.49250162003462,0.0 -0.08999993914481562,51.49275035429638,0.0 -0.09999986906080835,51.49299823685396,0.0 -0.109999941622544,51.49324526767888,0.0 -0.12000015634171836,51.493491446742894,0.0 -0.12000016110833496,51.494390875555794,0.0 -0.10999994660094499,51.4941446983054,0.0 -0.09999987425232598,51.49389766930034,0.0 -0.08999994455079369,51.49364978856891,0.0 -0.08000015798461053,51.49340105613954,0.0 -0.08000016288942302,51.4943004921237,0.0 -0.08999994924225098,51.494549222720565,0.0 -0.09999987873177546,51.49479710162572,0.0 -0.10999995086972168,51.495044128810775,0.0 -0.12000016516777509,51.49529030424743,0.0 -0.12000016852000976,51.49618973281783,0.0 -0.10999995442884665,51.49594355919505,0.0 -0.0999998824991246,51.4956965338301,0.0 -0.08999995321916447,51.49544865675132,0.0 -0.08000016707724426,51.4951999279871,0.0 -0.08000017054804165,51.49609936372974,0.0 -0.08999995648150076,51.49634809066121,0.0 -0.09999988555434594,51.496595965913485,0.0 -0.10999995727829208,51.49684298945818,0.0 -0.1200001711650127,51.49708916126699,0.0 -0.12000017310275332,51.497988589594904,0.0 -0.10999995941802733,51.49774241960019,0.0 -0.09999988789741247,51.49749539787586,0.0 -0.08999995902923638,51.4972475244502,0.0 -0.08000017330178935,51.49699879935163,0.0 -0.08000017533846192,51.49789823485276,0.0 -0.08999996086234271,51.49814695811833,0.0 -0.09999988952829476,51.498394829717235,0.0 -0.10999996084802778,51.49864184962109,0.0 -0.12000017433320616,51.49888801780157,0.0 -0.12000017485634538,51.499787445887,0.0 -0.10999996156826597,51.49954127952086,0.0 -0.09999989044696896,51.499294261437626,0.0 -0.08999996198078834,51.49904639166557,0.0 -0.08000017665802515,51.49879767023314,0.0 -0.08000017726045601,51.49969710549276,0.0 -0.08999996238454704,51.499945825091956,0.0 -0.09999989065339927,51.50019369303701,0.0 -0.10999996157871131,51.50044070929952,0.0 -0.1200001746721372,51.50068687385119,0.0 -0.12000017378056092,51.50158630169414,0.0 -0.10999996087933796,51.501340138957055,0.0 -0.09999989014756466,51.501093124515386,0.0 -0.08999996207359216,51.500845258397455,0.0 -0.08000017714572306,51.500596540631626,0.0 -0.08000017631380286,51.50149597564974,0.0 -0.08999996104789547,51.50174469158207,0.0 -0.09999988892943606,51.501992555872775,0.0 -0.10999995947011647,51.50223956849348,0.0 -0.12000017218158199,51.502485729415845,0.0 -0.12000016987517771,51.50338515701631,0.0 -0.10999995735102062,51.50313899790877,0.0 -0.09999988699898289,51.502891987109166,0.0 -0.08999995930742678,51.50264412464581,0.0 -0.08000017476466321,51.502395410547095,0.0 -0.08000017249827589,51.503294845323694,0.0 -0.08999995685215982,51.50354355758867,0.0 -0.09999988435618248,51.503791418224566,0.0 -0.1099999545220218,51.50403842720296,0.0 -0.12000016686131948,51.50428458449554,0.0 -0.12000016313997866,51.50518401185352,0.0 -0.10999995098309255,51.50493785637601,0.0 -0.09999988100099945,51.50469084921895,0.0 -0.08999995368206758,51.50444299041067,0.0 -0.08000016951461622,51.50419427997955,0.0 -0.08000016581365242,51.50509371451465,0.0 -0.08999994979711863,51.5053424231118,0.0 -0.09999987693341113,51.505590280092356,0.0 -0.10999994673420506,51.50583728542796,0.0 -0.12000015871112625,51.50608343909029,0.0 -0.12000015357473756,51.5069828662058,0.0 -0.10999994177533268,51.50673671435879,0.0 -0.09999987215338929,51.50648971084477,0.0 -0.08999994519728595,51.50624185569203,0.0 -0.08000016139535707,51.505993148929015,0.0 -0.08000015625970508,51.506892583222594,0.0 -0.08999993988254687,51.5071412881514,0.0 -0.09999986666090492,51.50738914147617,0.0 -0.10999993610644242,51.5076361431685,0.0 -0.12000014773078202,51.507882293200076,0.0 -0.12000014117923258,51.5087817200731,0.0 -0.10999992972751281,51.50853557185709,0.0 -0.09999986045592978,51.508288571986576,0.0 -0.08999993385286562,51.5080407204899,0.0 -0.08000015040666468,51.50779201739545,0.0 -0.08000014383620722,51.508691451447554,0.0 -0.08999992710821873,51.508940152707524,0.0 -0.09999985353843406,51.509188002376,0.0 -0.10999992263851482,51.50943500042456,0.0 -0.12000013392006458,51.5096811468249,0.0 -0.12000012595324502,51.510580573455485,0.0 -0.10999991483941665,51.51033442887093,0.0 -0.09999984590839549,51.510087432644426,0.0 -0.0899999196485752,51.509839584804276,0.0 -0.08000013654830888,51.50959088537889,0.0 -0.08000012854293863,51.5104903191895,0.0 -0.08999991147391077,51.510739016780164,0.0 -0.09999983756577949,51.51098686279186,0.0 -0.10999990633019127,51.51123385719618,0.0 -0.12000011727874887,51.51147999996482,0.0 -0.12000010789655148,51.51237942635291,0.0 -0.1099998971108168,51.5121332854003,0.0 -0.0999998285105626,51.5118862928183,0.0 -0.08999990258419326,51.51163844863519,0.0 -0.08000011982006704,51.511389752879346,0.0 -0.08000011037967027,51.51228918644844,0.0 -0.08999989297939878,51.51253788036932,0.0 -0.09999981874271659,51.51278572272375,0.0 -0.10999988718125907,51.51303271348333,0.0 -0.12000009780661865,51.51327885261976,0.0 -0.12000008700892931,51.514178278765385,0.0 -0.10999987654149301,51.513932141445224,0.0 -0.09999980826221204,51.51368515250819,0.0 -0.08999988265949832,51.51343731198258,0.0 -0.0800001002217165,51.51318861989679,0.0 -0.08000008934617713,51.51408805322439,0.0 -0.0899998716244589,51.51433674347497,0.0 -0.09999979706902191,51.51458458217164,0.0 -0.10999986519148804,51.51483156928602,0.0 -0.12000007550344848,51.51507770478977,0.0 -0.1200000632901523,51.51597713069294,0.0 -0.10999985313121986,51.515730997005704,0.0 -0.09999978516311402,51.51548401171412,0.0 -0.08999985987425664,51.51523617484651,0.0 -0.08000007775302588,51.514987486431245,0.0 -0.08000006544223497,51.515886919517364,0.0 -0.08999984740886492,51.51613560609717,0.0 -0.09999977254446807,51.51638344113561,0.0 -0.10999984036065989,51.516630424604266,0.0 -0.12000005036901412,51.51687655647487,0.0 -0.12000003674000415,51.517775982135554,0.0 -0.1099998268797759,51.51752985208173,0.0 -0.09999975921304947,51.5172828704361,0.0 -0.08999983422825393,51.51703503722697,0.0 -0.08000005241377534,51.51678635248272,0.0 -0.08000003866761918,51.517685785327345,0.0 -0.08999982033239422,51.51793446823589,0.0 -0.099999745168832,51.518182299615596,0.0 -0.10999981268854524,51.518429279438074,0.0 -0.12000002240309494,51.51867540767502,0.0 -0.12000000735826105,51.519574833093245,0.0 -0.10999979778694008,51.519328706673306,0.0 -0.099999730411793,51.5190817286741,0.0 -0.08999980572126078,51.51883389912394,0.0 -0.08000002420373746,51.518585218051214,0.0 -0.08000000902210314,51.519484650654334,0.0 -0.09041507717168243,51.51974363894418,0.0 -0.10083030061240143,51.520001703522134,0.0</coordinates>
            </LineString>
        </Placemark>
    </Document>
</kml>
