{
"type": "FeatureCollection",
"name": "route",
"crs": { "type": "name", "properties": { "name": "urn:ogc:def:crs:OGC:1.3:CRS84" } },
"features": [
{ "type": "Feature", "properties": { }, "geometry": { "type": "LineString", "coordinates": [ [ -0.08365670299195, 51.480000567145602 ], [ -0.092742354402471, 51.480226337801831 ], [ -0.101828123846606, 51.480451405282416 ], [ -0.110914010958173, 51.480675769566083 ], [ -0.120000015370955, 51.480899430631595 ], [ -0.12000003003515, 51.481798861141954 ], [ -0.109999812340139, 51.481552658511895 ], [ -0.099999736785224, 51.481305604039598 ], [ -0.089999803858658, 51.48105769775335 ], [ -0.080000014048642, 51.480808939681602 ], [ -0.080000028988414, 51.481708377356412 ], [ -0.089999818550829, 51.481957133597355 ], [ -0.099999751231138, 51.482205038059043 ], [ -0.109999826541129, 51.482452090713053 ], [ -0.120000043992553, 51.482698291531051 ], [ -0.120000057243139, 51.483597721798901 ], [ -0.109999840032856, 51.483351522793072 ], [ -0.09999976496534, 51.483104471957482 ], [ -0.089999832528845, 51.482856569320475 ], [ -0.080000043211587, 51.482607814910445 ], [ -0.080000056718132, 51.483507252343713 ], [ -0.089999845792681, 51.483756004922704 ], [ -0.099999777987808, 51.484003905734916 ], [ -0.109999852815295, 51.48425095475195 ], [ -0.120000069786881, 51.484497151945504 ], [ -0.120000081623749, 51.485396581970846 ], [ -0.109999864888414, 51.485150386589702 ], [ -0.099999790298509, 51.484903339391337 ], [ -0.089999858342304, 51.484655440404048 ], [ -0.08000006950802, 51.48440668965624 ], [ -0.080000081581222, 51.485306126847981 ], [ -0.089999870177687, 51.485554875764507 ], [ -0.099999801897417, 51.48580277292676 ], [ -0.109999876252184, 51.486049818306348 ], [ -0.120000092753715, 51.486296011874948 ], [ -0.120000103176756, 51.487195441657818 ], [ -0.109999886906582, 51.486949249901855 ], [ -0.099999812784507, 51.486702206341171 ], [ -0.089999881298806, 51.486454311004074 ], [ -0.080000092937713, 51.486205563918979 ], [ -0.080000103577462, 51.487105000869207 ], [ -0.08999989170563, 51.487353746122771 ], [ -0.099999822959746, 51.487601639634576 ], [ -0.109999896851577, 51.487848681376235 ], [ -0.120000112892839, 51.488094871319426 ], [ -0.12000012190194, 51.48899430085978 ], [ -0.109999906087143, 51.488748112729496 ], [ -0.099999832423111, 51.48850107280699 ], [ -0.08999990139813, 51.488253181120584 ], [ -0.080000113500443, 51.488004437698677 ], [ -0.080000122706627, 51.488903874407384 ], [ -0.089999910376281, 51.489152615997511 ], [ -0.099999841174568, 51.489400505858391 ], [ -0.109999914613248, 51.489647543961624 ], [ -0.120000130204029, 51.489893730278894 ], [ -0.120000137799077, 51.490793159576768 ], [ -0.109999922429871, 51.490546975072625 ], [ -0.099999849214097, 51.49029993878878 ], [ -0.089999918640052, 51.490052050753548 ], [ -0.080000131195986, 51.489803310995335 ], [ -0.080000138968492, 51.490702747462521 ], [ -0.089999926189417, 51.490951485388713 ], [ -0.099999856541664, 51.491199371598171 ], [ -0.10999992953698, 51.491446406062501 ], [ -0.120000144687063, 51.491692588753388 ], [ -0.120000150867951, 51.492592017808768 ], [ -0.109999935934546, 51.492345836931264 ], [ -0.099999863157242, 51.492098804286563 ], [ -0.089999933024347, 51.491850919903001 ], [ -0.080000146024117, 51.491602183808951 ], [ -0.080000152362833, 51.492501620034623 ], [ -0.089999939144816, 51.492750354296383 ], [ -0.099999869060808, 51.492998236853957 ], [ -0.109999941622544, 51.49324526767888 ], [ -0.120000156341718, 51.493491446742894 ], [ -0.120000161108335, 51.494390875555794 ], [ -0.109999946600945, 51.494144698305398 ], [ -0.099999874252326, 51.493897669300338 ], [ -0.089999944550794, 51.493649788568909 ], [ -0.080000157984611, 51.49340105613954 ], [ -0.080000162889423, 51.494300492123699 ], [ -0.089999949242251, 51.494549222720565 ], [ -0.099999878731775, 51.494797101625721 ], [ -0.109999950869722, 51.495044128810775 ], [ -0.120000165167775, 51.495290304247433 ], [ -0.12000016852001, 51.496189732817832 ], [ -0.109999954428847, 51.495943559195048 ], [ -0.099999882499125, 51.495696533830099 ], [ -0.089999953219164, 51.495448656751321 ], [ -0.080000167077244, 51.495199927987102 ], [ -0.080000170548042, 51.496099363729741 ], [ -0.089999956481501, 51.496348090661208 ], [ -0.099999885554346, 51.496595965913485 ], [ -0.109999957278292, 51.49684298945818 ], [ -0.120000171165013, 51.497089161266992 ], [ -0.120000173102753, 51.497988589594904 ], [ -0.109999959418027, 51.497742419600193 ], [ -0.099999887897412, 51.497495397875859 ], [ -0.089999959029236, 51.497247524450202 ], [ -0.080000173301789, 51.49699879935163 ], [ -0.080000175338462, 51.497898234852762 ], [ -0.089999960862343, 51.498146958118333 ], [ -0.099999889528295, 51.498394829717235 ], [ -0.109999960848028, 51.498641849621087 ], [ -0.120000174333206, 51.498888017801569 ], [ -0.120000174856345, 51.499787445887002 ], [ -0.109999961568266, 51.499541279520862 ], [ -0.099999890446969, 51.499294261437626 ], [ -0.089999961980788, 51.499046391665573 ], [ -0.080000176658025, 51.498797670233138 ], [ -0.080000177260456, 51.499697105492757 ], [ -0.089999962384547, 51.499945825091956 ], [ -0.099999890653399, 51.500193693037012 ], [ -0.109999961578711, 51.500440709299518 ], [ -0.120000174672137, 51.500686873851187 ], [ -0.120000173780561, 51.50158630169414 ], [ -0.109999960879338, 51.501340138957055 ], [ -0.099999890147565, 51.501093124515386 ], [ -0.089999962073592, 51.500845258397455 ], [ -0.080000177145723, 51.500596540631626 ], [ -0.080000176313803, 51.501495975649739 ], [ -0.089999961047895, 51.501744691582068 ], [ -0.099999888929436, 51.501992555872775 ], [ -0.109999959470116, 51.502239568493479 ], [ -0.120000172181582, 51.502485729415845 ], [ -0.120000169875178, 51.503385157016311 ], [ -0.109999957351021, 51.503138997908771 ], [ -0.099999886998983, 51.502891987109166 ], [ -0.089999959307427, 51.502644124645812 ], [ -0.080000174764663, 51.502395410547095 ], [ -0.080000172498276, 51.503294845323694 ], [ -0.08999995685216, 51.503543557588671 ], [ -0.099999884356182, 51.503791418224566 ], [ -0.109999954522022, 51.504038427202957 ], [ -0.120000166861319, 51.504284584495537 ], [ -0.120000163139979, 51.505184011853522 ], [ -0.109999950983093, 51.50493785637601 ], [ -0.099999881000999, 51.504690849218953 ], [ -0.089999953682068, 51.504442990410674 ], [ -0.080000169514616, 51.504194279979551 ], [ -0.080000165813652, 51.505093714514651 ], [ -0.089999949797119, 51.505342423111799 ], [ -0.099999876933411, 51.505590280092356 ], [ -0.109999946734205, 51.505837285427958 ], [ -0.120000158711126, 51.50608343909029 ], [ -0.120000153574738, 51.506982866205803 ], [ -0.109999941775333, 51.506736714358787 ], [ -0.099999872153389, 51.506489710844768 ], [ -0.089999945197286, 51.506241855692032 ], [ -0.080000161395357, 51.505993148929015 ], [ -0.080000156259705, 51.506892583222594 ], [ -0.089999939882547, 51.507141288151402 ], [ -0.099999866660905, 51.507389141476168 ], [ -0.109999936106442, 51.507636143168497 ], [ -0.120000147730782, 51.507882293200076 ], [ -0.120000141179233, 51.508781720073102 ], [ -0.109999929727513, 51.508535571857088 ], [ -0.09999986045593, 51.508288571986576 ], [ -0.089999933852866, 51.508040720489902 ], [ -0.080000150406665, 51.507792017395452 ], [ -0.080000143836207, 51.508691451447554 ], [ -0.089999927108219, 51.508940152707524 ], [ -0.099999853538434, 51.509188002376 ], [ -0.109999922638515, 51.50943500042456 ], [ -0.120000133920065, 51.509681146824903 ], [ -0.120000125953245, 51.510580573455485 ], [ -0.109999914839417, 51.510334428870927 ], [ -0.099999845908395, 51.510087432644426 ], [ -0.089999919648575, 51.509839584804276 ], [ -0.080000136548309, 51.509590885378891 ], [ -0.080000128542939, 51.5104903191895 ], [ -0.089999911473911, 51.510739016780164 ], [ -0.099999837565779, 51.51098686279186 ], [ -0.109999906330191, 51.511233857196181 ], [ -0.120000117278749, 51.51147999996482 ], [ -0.120000107896551, 51.512379426352908 ], [ -0.109999897110817, 51.512133285400303 ], [ -0.099999828510563, 51.511886292818303 ], [ -0.089999902584193, 51.511638448635189 ], [ -0.080000119820067, 51.511389752879346 ], [ -0.08000011037967, 51.512289186448442 ], [ -0.089999892979399, 51.512537880369322 ], [ -0.099999818742717, 51.512785722723748 ], [ -0.109999887181259, 51.513032713483327 ], [ -0.120000097806619, 51.513278852619763 ], [ -0.120000087008929, 51.514178278765385 ], [ -0.109999876541493, 51.513932141445224 ], [ -0.099999808262212, 51.513685152508188 ], [ -0.089999882659498, 51.513437311982578 ], [ -0.080000100221716, 51.513188619896788 ], [ -0.080000089346177, 51.514088053224391 ], [ -0.089999871624459, 51.514336743474971 ], [ -0.099999797069022, 51.514584582171643 ], [ -0.109999865191488, 51.514831569286017 ], [ -0.120000075503448, 51.515077704789768 ], [ -0.120000063290152, 51.515977130692939 ], [ -0.10999985313122, 51.515730997005704 ], [ -0.099999785163114, 51.515484011714122 ], [ -0.089999859874257, 51.515236174846507 ], [ -0.080000077753026, 51.514987486431245 ], [ -0.080000065442235, 51.515886919517364 ], [ -0.089999847408865, 51.516135606097173 ], [ -0.099999772544468, 51.516383441135609 ], [ -0.10999984036066, 51.516630424604266 ], [ -0.120000050369014, 51.51687655647487 ], [ -0.120000036740004, 51.517775982135554 ], [ -0.109999826879776, 51.517529852081729 ], [ -0.099999759213049, 51.517282870436098 ], [ -0.089999834228254, 51.517035037226968 ], [ -0.080000052413775, 51.516786352482718 ], [ -0.080000038667619, 51.517685785327345 ], [ -0.089999820332394, 51.517934468235893 ], [ -0.099999745168832, 51.518182299615596 ], [ -0.109999812688545, 51.518429279438074 ], [ -0.120000022403095, 51.518675407675019 ], [ -0.120000007358261, 51.519574833093245 ], [ -0.10999979778694, 51.519328706673306 ], [ -0.099999730411793, 51.519081728674102 ], [ -0.089999805721261, 51.518833899123941 ], [ -0.080000024203737, 51.518585218051214 ], [ -0.080000009022103, 51.519484650654334 ], [ -0.090415077171682, 51.519743638944178 ], [ -0.100830300612401, 51.520001703522134 ] ] } }
]
}
