{
"type": "FeatureCollection",
"name": "route",
"crs": { "type": "name", "properties": { "name": "urn:ogc:def:crs:OGC:1.3:CRS84" } },
"features": [
{ "type": "Feature", "properties": { }, "geometry": { "type": "LineString", "coordinates": [ [ -0.08365670299195, 51.480000567145602 ], [ -0.084565262811055, 51.480023175853518 ], [ -0.08547382381379, 51.480045777529874 ], [ -0.086382385999792, 51.480068372174642 ], [ -0.087290949368691, 51.480090959787802 ], [ -0.088199513920125, 51.480113540369331 ], [ -0.089108079653725, 51.480136113919215 ], [ -0.090016646569126, 51.480158680437434 ], [ -0.090925214665961, 51.480181239923944 ], [ -0.091833783943866, 51.480203792378752 ], [ -0.092742354402471, 51.480226337801831 ], [ -0.093650926041416, 51.480248876193137 ], [ -0.094559498860327, 51.480271407552685 ], [ -0.095468072858844, 51.480293931880425 ], [ -0.096376648036598, 51.480316449176328 ], [ -0.097285224393223, 51.480338959440417 ], [ -0.098193801928354, 51.480361462672626 ], [ -0.099102380641625, 51.480383958872956 ], [ -0.100010960532667, 51.480406448041379 ], [ -0.100919541601117, 51.480428930177872 ], [ -0.101828123846606, 51.480451405282416 ], [ -0.102736707268771, 51.480473873355002 ], [ -0.103645291867245, 51.480496334395596 ], [ -0.104553877641658, 51.480518788404162 ], [ -0.105462464591649, 51.480541235380706 ], [ -0.106371052716848, 51.4805636753252 ], [ -0.107279642016891, 51.480586108237617 ], [ -0.108188232491412, 51.480608534117927 ], [ -0.109096824140043, 51.480630952966131 ], [ -0.110005416962417, 51.480653364782192 ], [ -0.110914010958173, 51.480675769566083 ], [ -0.111822606126938, 51.480698167317811 ], [ -0.112731202468351, 51.480720558037312 ], [ -0.113639799982042, 51.4807429417246 ], [ -0.114548398667648, 51.480765318379653 ], [ -0.1154569985248, 51.48078768800243 ], [ -0.116365599553135, 51.480810050592929 ], [ -0.117274201752283, 51.480832406151116 ], [ -0.11818280512188, 51.480854754676969 ], [ -0.119091409661559, 51.480877096170467 ], [ -0.120000015370955, 51.480899430631595 ], [ -0.12000003003515, 51.481798861141954 ], [ -0.119090913474886, 51.481776514285507 ], [ -0.118181798085664, 51.481754160388832 ], [ -0.117272683867853, 51.48173179945195 ], [ -0.116363570821818, 51.48170943147489 ], [ -0.115454458947927, 51.481687056457638 ], [ -0.114545348246544, 51.481664674400271 ], [ -0.113636238718041, 51.481642285302755 ], [ -0.112727130362782, 51.481619889165138 ], [ -0.111818023181134, 51.48159748598745 ], [ -0.110908917173463, 51.48157507576969 ], [ -0.109999812340139, 51.481552658511895 ], [ -0.109090708681525, 51.481530234214084 ], [ -0.108181606197989, 51.481507802876266 ], [ -0.107272504889898, 51.481485364498482 ], [ -0.10636340475762, 51.481462919080741 ], [ -0.105454305801522, 51.48144046662307 ], [ -0.104545208021967, 51.481418007125477 ], [ -0.103636111419325, 51.481395540587997 ], [ -0.102727015993965, 51.481373067010644 ], [ -0.101817921746249, 51.481350586393461 ], [ -0.100908828676546, 51.481328098736434 ], [ -0.099999736785224, 51.481305604039598 ], [ -0.099090646072648, 51.481283102302982 ], [ -0.098181556539187, 51.481260593526606 ], [ -0.097272468185205, 51.481238077710486 ], [ -0.09636338101107, 51.481215554854643 ], [ -0.09545429501715, 51.481193024959097 ], [ -0.094545210203809, 51.481170488023878 ], [ -0.093636126571416, 51.481147944049006 ], [ -0.092727044120338, 51.481125393034503 ], [ -0.091817962850941, 51.481102834980369 ], [ -0.090908882763592, 51.481080269886654 ], [ -0.089999803858658, 51.48105769775335 ], [ -0.089090726136504, 51.481035118580515 ], [ -0.0881816495975, 51.481012532368162 ], [ -0.08727257424201, 51.480989939116277 ], [ -0.086363500070401, 51.480967338824925 ], [ -0.085454427083043, 51.480944731494098 ], [ -0.084545355280297, 51.480922117123832 ], [ -0.083636284662535, 51.480899495714141 ], [ -0.082727215230121, 51.48087686726506 ], [ -0.081818146983424, 51.480854231776597 ], [ -0.080909079922809, 51.480831589248766 ], [ -0.080000014048642, 51.480808939681602 ], [ -0.080000028988414, 51.481708377356412 ], [ -0.080909094840017, 51.481731026756869 ], [ -0.081818161878077, 51.481753669118056 ], [ -0.082727230102233, 51.481776304439933 ], [ -0.083636299512116, 51.481798932722484 ], [ -0.084545370107356, 51.48182155396568 ], [ -0.085454441887592, 51.481844168169509 ], [ -0.086363514852455, 51.481866775333948 ], [ -0.087272589001575, 51.481889375458962 ], [ -0.08818166433459, 51.481911968544566 ], [ -0.089090740851129, 51.481934554590694 ], [ -0.089999818550829, 51.481957133597355 ], [ -0.090908897433321, 51.48197970556452 ], [ -0.091817977498239, 51.48200227049216 ], [ -0.092727058745215, 51.482024828380268 ], [ -0.093636141173885, 51.48204737922881 ], [ -0.094545224783878, 51.48206992303777 ], [ -0.095454309574831, 51.482092459807113 ], [ -0.096363395546376, 51.482114989536832 ], [ -0.097272482698147, 51.48213751222692 ], [ -0.098181571029773, 51.482160027877313 ], [ -0.099090660540894, 51.48218253648804 ], [ -0.099999751231138, 51.482205038059043 ], [ -0.100908843100138, 51.482227532590315 ], [ -0.101817936147531, 51.482250020081842 ], [ -0.102727030372947, 51.482272500533576 ], [ -0.10363612577602, 51.482294973945521 ], [ -0.104545222356386, 51.482317440317658 ], [ -0.105454320113673, 51.482339899649936 ], [ -0.106363419047518, 51.482362351942371 ], [ -0.107272519157554, 51.482384797194918 ], [ -0.10818162044341, 51.48240723540755 ], [ -0.109090722904725, 51.482429666580281 ], [ -0.109999826541129, 51.482452090713053 ], [ -0.110908931352255, 51.482474507805854 ], [ -0.111818037337737, 51.482496917858668 ], [ -0.112727144497209, 51.482519320871475 ], [ -0.113636252830301, 51.482541716844253 ], [ -0.11454536233665, 51.482564105776973 ], [ -0.115454473015887, 51.482586487669629 ], [ -0.116363584867643, 51.482608862522184 ], [ -0.117272697891556, 51.482631230334633 ], [ -0.118181812087258, 51.482653591106931 ], [ -0.119090927454377, 51.48267594483908 ], [ -0.120000043992553, 51.482698291531051 ], [ -0.120000057243139, 51.483597721798901 ], [ -0.119090940726831, 51.483575375271414 ], [ -0.118181825381589, 51.483553021703798 ], [ -0.117272711207776, 51.48353066109609 ], [ -0.116363598205763, 51.483508293448281 ], [ -0.115454486375917, 51.483485918760408 ], [ -0.114545375718603, 51.483463537032506 ], [ -0.113636266234187, 51.483441148264575 ], [ -0.112727157923038, 51.483418752456643 ], [ -0.111818050785522, 51.483396349608739 ], [ -0.110908944822007, 51.48337393972087 ], [ -0.109999840032856, 51.483351522793072 ], [ -0.109090736418441, 51.483329098825351 ], [ -0.108181633979126, 51.483306667817729 ], [ -0.10727253271528, 51.483284229770234 ], [ -0.106363432627266, 51.483261784682902 ], [ -0.105454333715451, 51.48323933255574 ], [ -0.104545235980207, 51.483216873388763 ], [ -0.103636139421897, 51.48319440718199 ], [ -0.102727044040888, 51.483171933935459 ], [ -0.101817949837548, 51.48314945364919 ], [ -0.100908856812243, 51.483126966323191 ], [ -0.09999976496534, 51.483104471957482 ], [ -0.099090674297206, 51.483081970552092 ], [ -0.098181584808207, 51.48305946210705 ], [ -0.09727249649871, 51.48303694662237 ], [ -0.096363409369084, 51.483014424098066 ], [ -0.095454323419693, 51.482991894534166 ], [ -0.094545238650906, 51.482969357930699 ], [ -0.093636155063085, 51.482946814287679 ], [ -0.092727072656604, 51.482924263605121 ], [ -0.091817991431827, 51.482901705883059 ], [ -0.090908911389117, 51.482879141121501 ], [ -0.089999832528845, 51.482856569320475 ], [ -0.089090754851377, 51.482833990479996 ], [ -0.088181678357079, 51.482811404600113 ], [ -0.08727260304632, 51.482788811680805 ], [ -0.086363528919464, 51.482766211722122 ], [ -0.085454455976876, 51.482743604724085 ], [ -0.084545384218928, 51.482720990686694 ], [ -0.083636313645984, 51.482698369609999 ], [ -0.082727244258412, 51.482675741493999 ], [ -0.081818176056576, 51.482653106338731 ], [ -0.080909109040845, 51.482630464144208 ], [ -0.080000043211587, 51.482607814910445 ], [ -0.080000056718132, 51.483507252343713 ], [ -0.080909122525272, 51.483529901410769 ], [ -0.081818189518893, 51.483552543438613 ], [ -0.082727257698629, 51.483575178427273 ], [ -0.083636327064116, 51.483597806376721 ], [ -0.084545397614986, 51.483620427286901 ], [ -0.085454469350869, 51.483643041157819 ], [ -0.086363542271401, 51.483665647989469 ], [ -0.087272616376214, 51.483688247781785 ], [ -0.088181691664944, 51.483710840534783 ], [ -0.089090768137222, 51.483733426248435 ], [ -0.089999845792681, 51.483756004922704 ], [ -0.090908924630955, 51.483778576557576 ], [ -0.091818004651676, 51.483801141153037 ], [ -0.092727085854479, 51.483823698709053 ], [ -0.093636168238996, 51.483846249225614 ], [ -0.094545251804862, 51.483868792702694 ], [ -0.095454336551708, 51.483891329140285 ], [ -0.096363422479167, 51.483913858538337 ], [ -0.097272509586874, 51.48393638089685 ], [ -0.09818159787446, 51.483958896215803 ], [ -0.099090687341561, 51.483981404495168 ], [ -0.099999777987808, 51.484003905734916 ], [ -0.100908869812834, 51.48402639993504 ], [ -0.101817962816275, 51.484048887095511 ], [ -0.102727056997762, 51.484071367216302 ], [ -0.103636152356927, 51.484093840297412 ], [ -0.104545248893405, 51.484116306338798 ], [ -0.105454346606829, 51.484138765340461 ], [ -0.106363445496832, 51.484161217302365 ], [ -0.107272545563047, 51.484183662224481 ], [ -0.108181646805107, 51.484206100106796 ], [ -0.109090749222645, 51.484228530949295 ], [ -0.109999852815295, 51.48425095475195 ], [ -0.110908957582689, 51.484273371514753 ], [ -0.111818063524462, 51.484295781237648 ], [ -0.112727170640246, 51.484318183920649 ], [ -0.113636278929672, 51.484340579563721 ], [ -0.114545388392377, 51.484362968166849 ], [ -0.115454499027992, 51.484385349730012 ], [ -0.11636361083615, 51.484407724253174 ], [ -0.117272723816486, 51.484430091736336 ], [ -0.11818183796863, 51.484452452179447 ], [ -0.119090953292216, 51.484474805582515 ], [ -0.120000069786881, 51.484497151945504 ], [ -0.120000081623749, 51.485396581970846 ], [ -0.119090965150508, 51.485374235772369 ], [ -0.118181849848353, 51.48535188253387 ], [ -0.117272735717653, 51.485329522255356 ], [ -0.116363622758774, 51.485307154936855 ], [ -0.115454510972081, 51.485284780578411 ], [ -0.114545400357944, 51.485262399180016 ], [ -0.113636290916727, 51.485240010741705 ], [ -0.112727182648798, 51.485217615263508 ], [ -0.111818075554526, 51.485195212745424 ], [ -0.110908969634275, 51.485172803187481 ], [ -0.109999864888414, 51.485150386589702 ], [ -0.109090761317307, 51.485127962952134 ], [ -0.108181658921323, 51.485105532274758 ], [ -0.107272557700829, 51.485083094557616 ], [ -0.10636345765619, 51.485060649800729 ], [ -0.105454358787774, 51.485038198004112 ], [ -0.104545261095949, 51.485015739167785 ], [ -0.103636164581079, 51.484993273291785 ], [ -0.102727069243534, 51.484970800376118 ], [ -0.10181797508368, 51.484948320420798 ], [ -0.100908882101881, 51.484925833425869 ], [ -0.099999790298509, 51.484903339391337 ], [ -0.099090699673927, 51.484880838317231 ], [ -0.098181610228502, 51.484858330203558 ], [ -0.097272521962602, 51.484835815050367 ], [ -0.096363434876594, 51.484813292857645 ], [ -0.095454348970842, 51.484790763625448 ], [ -0.094545264245717, 51.484768227353761 ], [ -0.093636180701584, 51.484745684042636 ], [ -0.092727098338808, 51.484723133692064 ], [ -0.09181801715776, 51.48470057630211 ], [ -0.090908937158802, 51.484678011872759 ], [ -0.089999858342304, 51.484655440404048 ], [ -0.089090780708632, 51.484632861895989 ], [ -0.088181704258151, 51.484610276348604 ], [ -0.087272628991232, 51.484587683761923 ], [ -0.086363554908237, 51.484565084135966 ], [ -0.085454482009535, 51.484542477470747 ], [ -0.084545410295494, 51.484519863766295 ], [ -0.083636339766478, 51.484497243022624 ], [ -0.082727270422857, 51.484474615239762 ], [ -0.081818202264996, 51.484451980417724 ], [ -0.08090913529326, 51.484429338556545 ], [ -0.08000006950802, 51.48440668965624 ], [ -0.080000081581222, 51.485306126847981 ], [ -0.080909147344787, 51.485328775581557 ], [ -0.081818214294859, 51.485351417276057 ], [ -0.082727282431067, 51.485374051931451 ], [ -0.083636351753047, 51.485396679547726 ], [ -0.084545422260431, 51.48541930012486 ], [ -0.085454493952852, 51.485441913662832 ], [ -0.086363566829946, 51.485464520161621 ], [ -0.08727264089134, 51.485487119621204 ], [ -0.088181716136674, 51.485509712041555 ], [ -0.089090792565578, 51.485532297422672 ], [ -0.089999870177687, 51.485554875764507 ], [ -0.090908948972632, 51.485577447067051 ], [ -0.091818028950047, 51.485600011330277 ], [ -0.092727110109567, 51.485622568554177 ], [ -0.093636192450821, 51.485645118738717 ], [ -0.094545275973447, 51.48566766188388 ], [ -0.095454360677075, 51.485690197989648 ], [ -0.096363446561339, 51.48571272705599 ], [ -0.097272533625872, 51.4857352490829 ], [ -0.098181621870307, 51.485757764070343 ], [ -0.099090711294279, 51.485780272018303 ], [ -0.099999801897417, 51.48580277292676 ], [ -0.10090889367936, 51.485825266795686 ], [ -0.101817986639736, 51.485847753625059 ], [ -0.102727080778181, 51.485870233414879 ], [ -0.103636176094329, 51.48589270616511 ], [ -0.10454527258781, 51.48591517187571 ], [ -0.10545437025826, 51.485937630546687 ], [ -0.10636346910531, 51.485960082178018 ], [ -0.107272569128594, 51.485982526769668 ], [ -0.108181670327747, 51.486004964321616 ], [ -0.1090907727024, 51.48602739483384 ], [ -0.109999876252184, 51.486049818306348 ], [ -0.110908980976737, 51.48607223473909 ], [ -0.111818086875688, 51.486094644132038 ], [ -0.112727193948674, 51.486117046485191 ], [ -0.113636302195323, 51.486139441798514 ], [ -0.114545411615275, 51.486161830072 ], [ -0.115454522208158, 51.486184211305613 ], [ -0.116363633973606, 51.486206585499346 ], [ -0.117272746911253, 51.486228952653157 ], [ -0.118181861020731, 51.486251312767045 ], [ -0.119090976301673, 51.48627366584099 ], [ -0.120000092753715, 51.486296011874948 ], [ -0.120000103176756, 51.487195441657818 ], [ -0.119090986745691, 51.487173095788371 ], [ -0.118181871485737, 51.487150742879017 ], [ -0.117272757397258, 51.487128382929754 ], [ -0.116363644480623, 51.487106015940618 ], [ -0.115454532736195, 51.487083641911624 ], [ -0.114545422164345, 51.487061260842793 ], [ -0.113636312765439, 51.487038872734153 ], [ -0.112727204539843, 51.487016477585712 ], [ -0.111818097487921, 51.486994075397504 ], [ -0.110908991610047, 51.486971666169552 ], [ -0.109999886906582, 51.486949249901855 ], [ -0.109090783377895, 51.486926826594463 ], [ -0.108181681024352, 51.486904396247368 ], [ -0.107272579846322, 51.486881958860614 ], [ -0.106363479844167, 51.486859514434215 ], [ -0.105454381018261, 51.486837062968199 ], [ -0.104545283368964, 51.486814604462573 ], [ -0.10363618689665, 51.486792138917373 ], [ -0.102727091601677, 51.486769666332606 ], [ -0.101817997484419, 51.486747186708307 ], [ -0.10090890454524, 51.486724700044491 ], [ -0.099999812784507, 51.486702206341171 ], [ -0.099090722202586, 51.486679705598384 ], [ -0.098181632799846, 51.486657197816136 ], [ -0.097272544576654, 51.486634682994463 ], [ -0.096363457533372, 51.48661216113338 ], [ -0.095454371670374, 51.486589632232899 ], [ -0.09454528698802, 51.486567096293065 ], [ -0.093636203486683, 51.486544553313877 ], [ -0.092727121166724, 51.486522003295356 ], [ -0.091818040028516, 51.486499446237538 ], [ -0.09090896007242, 51.48647688214043 ], [ -0.089999881298806, 51.486454311004074 ], [ -0.08909080370804, 51.486431732828471 ], [ -0.088181727300488, 51.486409147613657 ], [ -0.087272652076518, 51.48638655535963 ], [ -0.086363578036498, 51.486363956066441 ], [ -0.08545450518079, 51.486341349734104 ], [ -0.084545433509767, 51.48631873636262 ], [ -0.083636363023791, 51.48629611595203 ], [ -0.082727293723232, 51.486273488502356 ], [ -0.081818225608452, 51.486250854013598 ], [ -0.080909158679825, 51.486228212485798 ], [ -0.080000092937713, 51.486205563918979 ], [ -0.080000103577462, 51.487105000869207 ], [ -0.080909169298345, 51.487127649269262 ], [ -0.081818236205753, 51.48715029063036 ], [ -0.082727304299321, 51.487172924952446 ], [ -0.083636373578685, 51.487195552235519 ], [ -0.084545444043474, 51.487218172479551 ], [ -0.085454515693323, 51.487240785684527 ], [ -0.086363588527866, 51.487263391850426 ], [ -0.087272662546735, 51.48728599097722 ], [ -0.088181737749563, 51.487308583064888 ], [ -0.089090814135984, 51.487331168113407 ], [ -0.08999989170563, 51.487353746122771 ], [ -0.090908970458136, 51.487376317092938 ], [ -0.091818050393134, 51.4873988810239 ], [ -0.092727131510257, 51.487421437915636 ], [ -0.09363621380914, 51.48744398776811 ], [ -0.094545297289414, 51.487466530581308 ], [ -0.095454381950713, 51.487489066355216 ], [ -0.09636346779267, 51.487511595089799 ], [ -0.097272554814918, 51.487534116785064 ], [ -0.098181643017092, 51.487556631440953 ], [ -0.099090732398823, 51.487579139057459 ], [ -0.099999822959746, 51.487601639634576 ], [ -0.100908914699494, 51.487624133172268 ], [ -0.101818007617697, 51.487646619670521 ], [ -0.102727101713991, 51.487669099129292 ], [ -0.103636196988008, 51.487691571548588 ], [ -0.104545293439383, 51.487714036928374 ], [ -0.105454391067746, 51.487736495268635 ], [ -0.106363489872734, 51.487758946569336 ], [ -0.107272589853978, 51.48778139083047 ], [ -0.108181691011112, 51.487803828052016 ], [ -0.109090793343765, 51.487826258233937 ], [ -0.109999896851577, 51.487848681376235 ], [ -0.110909001534176, 51.487871097478866 ], [ -0.111818107391196, 51.487893506541823 ], [ -0.112727214422273, 51.487915908565085 ], [ -0.113636322627039, 51.487938303548617 ], [ -0.114545432005125, 51.487960691492418 ], [ -0.115454542556165, 51.487983072396446 ], [ -0.116363654279793, 51.488005446260694 ], [ -0.117272767175641, 51.488027813085132 ], [ -0.118181881243343, 51.488050172869748 ], [ -0.119090996482531, 51.48807252561452 ], [ -0.120000112892839, 51.488094871319426 ], [ -0.12000012190194, 51.48899430085978 ], [ -0.119091005512163, 51.488971955319435 ], [ -0.11818189029352, 51.488949602739275 ], [ -0.117272776246372, 51.488927243119306 ], [ -0.116363663371089, 51.488904876459571 ], [ -0.11545455166804, 51.48888250276007 ], [ -0.114545441137587, 51.488860122020853 ], [ -0.113636331780098, 51.488837734241926 ], [ -0.112727223595946, 51.488815339423283 ], [ -0.111818116585488, 51.488792937565009 ], [ -0.110909010749098, 51.488770528667061 ], [ -0.109999906087143, 51.488748112729496 ], [ -0.109090802599985, 51.488725689752329 ], [ -0.108181700287994, 51.488703259735559 ], [ -0.107272599151538, 51.488680822679243 ], [ -0.106363499190981, 51.488658378583381 ], [ -0.10545440040669, 51.488635927448001 ], [ -0.104545302799036, 51.488613469273133 ], [ -0.103636206368381, 51.488591004058769 ], [ -0.102727111115094, 51.488568531804944 ], [ -0.101818017039544, 51.488546052511708 ], [ -0.100908924142093, 51.488523566179047 ], [ -0.099999832423111, 51.48850107280699 ], [ -0.099090741882963, 51.488478572395564 ], [ -0.098181652522018, 51.488456064944785 ], [ -0.097272564340643, 51.488433550454687 ], [ -0.096363477339201, 51.48841102892527 ], [ -0.095454391518063, 51.488388500356578 ], [ -0.094545306877596, 51.48836596474861 ], [ -0.093636223418163, 51.488343422101408 ], [ -0.092727141140133, 51.488320872414981 ], [ -0.091818060043874, 51.488298315689349 ], [ -0.09090898012975, 51.48827575192454 ], [ -0.08999990139813, 51.488253181120584 ], [ -0.089090823849382, 51.488230603277472 ], [ -0.088181747483868, 51.488208018395262 ], [ -0.087272672301959, 51.488185426473954 ], [ -0.086363598304022, 51.488162827513577 ], [ -0.085454525490421, 51.488140221514143 ], [ -0.084545453861523, 51.488117608475676 ], [ -0.0836363834177, 51.48809498839821 ], [ -0.082727314159312, 51.488072361281752 ], [ -0.081818246086728, 51.488049727126338 ], [ -0.080909179200317, 51.488027085931968 ], [ -0.080000113500443, 51.488004437698677 ], [ -0.080000122706627, 51.488903874407384 ], [ -0.080909188385713, 51.488926522473896 ], [ -0.08181825525135, 51.48894916350153 ], [ -0.082727323303171, 51.488971797490265 ], [ -0.083636392540806, 51.488994424440094 ], [ -0.084545462963889, 51.48901704435098 ], [ -0.085454534572055, 51.489039657222925 ], [ -0.086363607364937, 51.489062263055885 ], [ -0.087272681342168, 51.48908486184984 ], [ -0.088181756503378, 51.489107453604774 ], [ -0.089090832848206, 51.489130038320674 ], [ -0.089999910376281, 51.489152615997511 ], [ -0.090908989087237, 51.489175186635251 ], [ -0.091818068980707, 51.489197750233899 ], [ -0.092727150056324, 51.489220306793413 ], [ -0.093636232313723, 51.48924285631378 ], [ -0.094545315752538, 51.48926539879497 ], [ -0.095454400372398, 51.489287934236984 ], [ -0.096363486172938, 51.489310462639772 ], [ -0.097272573153793, 51.489332984003333 ], [ -0.098181661314595, 51.489355498327633 ], [ -0.099090750654976, 51.489378005612657 ], [ -0.099999841174568, 51.489400505858391 ], [ -0.100908932873009, 51.4894229990648 ], [ -0.101818025749928, 51.489445485231862 ], [ -0.102727119804963, 51.489467964359577 ], [ -0.103636215037739, 51.489490436447895 ], [ -0.104545311447896, 51.489512901496816 ], [ -0.105454409035065, 51.489535359506291 ], [ -0.106363507798879, 51.489557810476342 ], [ -0.107272607738971, 51.489580254406917 ], [ -0.108181708854975, 51.48960269129801 ], [ -0.109090811146522, 51.489625121149579 ], [ -0.109999914613248, 51.489647543961624 ], [ -0.110909019254786, 51.489669959734115 ], [ -0.111818125070766, 51.489692368467026 ], [ -0.112727232060823, 51.489714770160347 ], [ -0.113636340224591, 51.489737164814038 ], [ -0.114545449561703, 51.489759552428104 ], [ -0.115454560071789, 51.489781933002511 ], [ -0.116363671754485, 51.489804306537231 ], [ -0.117272784609423, 51.489826673032269 ], [ -0.11818189863624, 51.489849032487555 ], [ -0.119091013834564, 51.489871384903111 ], [ -0.120000130204029, 51.489893730278894 ], [ -0.120000137799077, 51.490793159576768 ], [ -0.1190910214497, 51.490770814365547 ], [ -0.118181906271475, 51.490748462114617 ], [ -0.117272792264771, 51.490726102823999 ], [ -0.116363679429952, 51.490703736493707 ], [ -0.115454567767388, 51.490681363123763 ], [ -0.114545457277443, 51.490658982714187 ], [ -0.113636347960487, 51.490636595265002 ], [ -0.112727239816884, 51.490614200776243 ], [ -0.111818132847002, 51.490591799247902 ], [ -0.110909027051208, 51.490569390680029 ], [ -0.109999922429871, 51.490546975072625 ], [ -0.109090818983354, 51.490524552425725 ], [ -0.108181716712025, 51.490502122739343 ], [ -0.107272615616253, 51.490479686013501 ], [ -0.106363515696402, 51.490457242248226 ], [ -0.105454416952842, 51.490434791443519 ], [ -0.104545319385939, 51.49041233359943 ], [ -0.103636222996056, 51.490389868715958 ], [ -0.102727127783564, 51.490367396793147 ], [ -0.101818033748829, 51.490344917830996 ], [ -0.100908940892218, 51.49032243182954 ], [ -0.099999849214097, 51.49029993878878 ], [ -0.099090758714833, 51.490277438708759 ], [ -0.098181669394792, 51.490254931589497 ], [ -0.097272581254346, 51.490232417431017 ], [ -0.096363494293855, 51.490209896233324 ], [ -0.095454408513688, 51.490187367996448 ], [ -0.094545323914214, 51.490164832720403 ], [ -0.093636240495798, 51.490142290405224 ], [ -0.092727158258807, 51.49011974105094 ], [ -0.091818077203608, 51.490097184657543 ], [ -0.090908997330566, 51.490074621225077 ], [ -0.089999918640052, 51.490052050753548 ], [ -0.08909084113243, 51.490029473242991 ], [ -0.088181764808067, 51.490006888693429 ], [ -0.087272689667329, 51.489984297104883 ], [ -0.086363615710585, 51.489961698477352 ], [ -0.085454542938201, 51.489939092810879 ], [ -0.084545471350543, 51.489916480105478 ], [ -0.083636400947977, 51.489893860361164 ], [ -0.082727331730873, 51.489871233577986 ], [ -0.081818263699596, 51.489848599755931 ], [ -0.080909196854511, 51.48982595889504 ], [ -0.080000131195986, 51.489803310995335 ], [ -0.080000138968492, 51.490702747462521 ], [ -0.080909204606674, 51.490725395195426 ], [ -0.08181827143143, 51.490748035889567 ], [ -0.082727339442388, 51.490770669544915 ], [ -0.083636408639184, 51.490793296161449 ], [ -0.084545479021454, 51.490815915739141 ], [ -0.085454550588827, 51.49083852827799 ], [ -0.086363623340938, 51.490861133777976 ], [ -0.087272697277418, 51.490883732239048 ], [ -0.088181772397902, 51.490906323661228 ], [ -0.089090848702025, 51.490928908044452 ], [ -0.089999926189417, 51.490951485388713 ], [ -0.090909004859712, 51.490974055693997 ], [ -0.091818084712546, 51.490996618960281 ], [ -0.092727165747548, 51.491019175187539 ], [ -0.093636247964353, 51.491041724375748 ], [ -0.094545331362596, 51.491064266524894 ], [ -0.095454415941906, 51.491086801634957 ], [ -0.096363501701922, 51.4911093297059 ], [ -0.097272588642271, 51.491131850737716 ], [ -0.098181676762588, 51.491154364730392 ], [ -0.099090766062509, 51.491176871683876 ], [ -0.099999856541664, 51.491199371598171 ], [ -0.100908948199689, 51.49122186447326 ], [ -0.101818041036215, 51.491244350309103 ], [ -0.102727135050873, 51.49126682910569 ], [ -0.103636230243302, 51.491289300862988 ], [ -0.104545326613131, 51.491311765580996 ], [ -0.105454424159994, 51.491334223259678 ], [ -0.106363522883524, 51.491356673899013 ], [ -0.107272622783355, 51.49137911749898 ], [ -0.108181723859118, 51.491401554059571 ], [ -0.10909082611045, 51.491423983580759 ], [ -0.10999992953698, 51.491446406062501 ], [ -0.110909034138341, 51.49146882150481 ], [ -0.111818139914171, 51.491491229907638 ], [ -0.112727246864099, 51.491513631270969 ], [ -0.113636354987758, 51.49153602559479 ], [ -0.114545464284785, 51.49155841287908 ], [ -0.115454574754809, 51.491580793123809 ], [ -0.116363686397464, 51.491603166328971 ], [ -0.117272799212384, 51.491625532494524 ], [ -0.118181913199201, 51.49164789162046 ], [ -0.119091028357551, 51.491670243706757 ], [ -0.120000144687063, 51.491692588753388 ], [ -0.120000150867951, 51.492592017808768 ], [ -0.119091034558082, 51.49256967292672 ], [ -0.118181919419387, 51.492547321005077 ], [ -0.117272805452234, 51.492524962043838 ], [ -0.11636369265699, 51.492502596043032 ], [ -0.115454581034022, 51.49248022300268 ], [ -0.114545470583696, 51.492457842922789 ], [ -0.113636361306379, 51.492435455803417 ], [ -0.112727253202441, 51.492413061644541 ], [ -0.111818146272243, 51.492390660446219 ], [ -0.110909040516156, 51.492368252208443 ], [ -0.109999935934546, 51.492345836931264 ], [ -0.109090832527779, 51.492323414614667 ], [ -0.108181730296225, 51.492300985258709 ], [ -0.107272629240247, 51.492278548863382 ], [ -0.106363529360213, 51.492256105428737 ], [ -0.105454430656491, 51.492233654954759 ], [ -0.104545333129448, 51.492211197441499 ], [ -0.103636236779449, 51.49218873288897 ], [ -0.102727141606862, 51.492166261297186 ], [ -0.101818047612055, 51.492143782666183 ], [ -0.100908954795392, 51.492121296995968 ], [ -0.099999863157242, 51.492098804286563 ], [ -0.099090772697975, 51.492076304537996 ], [ -0.09818168341795, 51.492053797750287 ], [ -0.09727259531754, 51.49203128392346 ], [ -0.096363508397109, 51.492008763057527 ], [ -0.095454422657025, 51.491986235152524 ], [ -0.094545338097654, 51.491963700208444 ], [ -0.093636254719365, 51.491941158225337 ], [ -0.092727172522522, 51.491918609203225 ], [ -0.091818091507494, 51.491896053142113 ], [ -0.090909011674646, 51.491873490042025 ], [ -0.089999933024347, 51.491850919903001 ], [ -0.089090855556962, 51.491828342725029 ], [ -0.088181779272858, 51.491805758508157 ], [ -0.087272704172402, 51.4917831672524 ], [ -0.086363630255964, 51.491760568957773 ], [ -0.085454557523906, 51.491737963624296 ], [ -0.084545485976596, 51.491715351252004 ], [ -0.083636415614402, 51.491692731840914 ], [ -0.08272734643769, 51.491670105391044 ], [ -0.081818278446827, 51.491647471902404 ], [ -0.080909211642181, 51.491624831375034 ], [ -0.080000146024117, 51.491602183808951 ], [ -0.080000152362833, 51.492501620034623 ], [ -0.080909217961001, 51.492524267433886 ], [ -0.081818284745763, 51.492546907794477 ], [ -0.082727352716751, 51.492569541116374 ], [ -0.0836364218736, 51.492592167399579 ], [ -0.084545492215941, 51.492614786644047 ], [ -0.085454563743411, 51.492637398849766 ], [ -0.086363636455639, 51.492660004016727 ], [ -0.087272710352262, 51.492682602144889 ], [ -0.088181785432909, 51.492705193234237 ], [ -0.089090861697217, 51.492727777284742 ], [ -0.089999939144816, 51.492750354296383 ], [ -0.090909017775342, 51.492772924269168 ], [ -0.091818097588426, 51.492795487203054 ], [ -0.092727178583703, 51.492818043098005 ], [ -0.093636260760803, 51.492840591954021 ], [ -0.094545344119364, 51.492863133771074 ], [ -0.095454428659016, 51.492885668549135 ], [ -0.096363514379393, 51.492908196288191 ], [ -0.097272601280125, 51.492930716988226 ], [ -0.098181689360852, 51.492953230649206 ], [ -0.0990907786212, 51.492975737271124 ], [ -0.099999869060808, 51.492998236853957 ], [ -0.100908960679304, 51.493020729397664 ], [ -0.101818053476325, 51.493043214902237 ], [ -0.102727147451503, 51.493065693367662 ], [ -0.10363624260447, 51.493088164793903 ], [ -0.104545338934861, 51.493110629180947 ], [ -0.105454436442307, 51.493133086528779 ], [ -0.106363535126445, 51.493155536837371 ], [ -0.107272634986903, 51.493177980106694 ], [ -0.108181736023317, 51.493200416336741 ], [ -0.109090838235319, 51.49322284552747 ], [ -0.109999941622544, 51.49324526767888 ], [ -0.110909046184622, 51.493267682790957 ], [ -0.111818151921191, 51.493290090863653 ], [ -0.112727258831879, 51.493312491896965 ], [ -0.113636366916322, 51.49333488589086 ], [ -0.114545476174152, 51.493357272845323 ], [ -0.115454586605002, 51.493379652760346 ], [ -0.116363698208506, 51.493402025635888 ], [ -0.117272810984297, 51.49342439147194 ], [ -0.118181924932006, 51.493446750268468 ], [ -0.11909104005127, 51.493469102025465 ], [ -0.120000156341718, 51.493491446742894 ], [ -0.120000161108335, 51.494390875555794 ], [ -0.119091044837085, 51.494368531002969 ], [ -0.118181929737032, 51.494346179410648 ], [ -0.117272815808542, 51.494323820778838 ], [ -0.116363703051983, 51.494301455107554 ], [ -0.115454591467721, 51.494279082396837 ], [ -0.114545481056123, 51.494256702646702 ], [ -0.113636371817558, 51.494234315857156 ], [ -0.112727263752389, 51.494211922028235 ], [ -0.111818156860987, 51.494189521159939 ], [ -0.110909051143717, 51.494167113252331 ], [ -0.109999946600945, 51.494144698305398 ], [ -0.10909084323304, 51.494122276319175 ], [ -0.108181741040367, 51.494099847293668 ], [ -0.107272640023295, 51.494077411228915 ], [ -0.106363540182188, 51.494054968124921 ], [ -0.105454441517416, 51.494032517981729 ], [ -0.104545344029344, 51.494010060799347 ], [ -0.103636247718339, 51.493987596577789 ], [ -0.102727152584768, 51.493965125317096 ], [ -0.101818058628997, 51.493942647017278 ], [ -0.100908965851395, 51.493920161678346 ], [ -0.099999874252326, 51.493897669300338 ], [ -0.09909078383216, 51.493875169883268 ], [ -0.098181694591263, 51.493852663427162 ], [ -0.097272606530001, 51.493830149932037 ], [ -0.096363519648741, 51.493807629397914 ], [ -0.095454433947849, 51.493785101824813 ], [ -0.094545349427693, 51.493762567212755 ], [ -0.093636266088641, 51.49374002556177 ], [ -0.092727183931057, 51.493717476871872 ], [ -0.09181810295531, 51.493694921143081 ], [ -0.090909023161767, 51.493672358375427 ], [ -0.089999944550794, 51.493649788568909 ], [ -0.089090867122756, 51.493627211723584 ], [ -0.088181790878024, 51.493604627839453 ], [ -0.08727271581696, 51.493582036916536 ], [ -0.086363641939933, 51.493559438954847 ], [ -0.085454569247312, 51.493536833954423 ], [ -0.084545497739461, 51.493514221915298 ], [ -0.083636427416749, 51.493491602837452 ], [ -0.08272735827954, 51.493468976720941 ], [ -0.081818290328203, 51.493446343565772 ], [ -0.080909223563104, 51.493423703371967 ], [ -0.080000157984611, 51.49340105613954 ], [ -0.080000162889423, 51.494300492123699 ], [ -0.080909228448466, 51.49432313918927 ], [ -0.081818295194123, 51.494345779216275 ], [ -0.082727363126033, 51.494368412204693 ], [ -0.083636432243824, 51.494391038154511 ], [ -0.084545502547127, 51.494413657065707 ], [ -0.085454574035583, 51.494436268938252 ], [ -0.086363646708819, 51.494458873772146 ], [ -0.087272720566472, 51.494481471567333 ], [ -0.088181795608172, 51.494504062323813 ], [ -0.089090871833554, 51.494526646041564 ], [ -0.089999949242251, 51.494549222720565 ], [ -0.090909027833896, 51.494571792360787 ], [ -0.091818107608121, 51.49459435496221 ], [ -0.092727188564562, 51.494616910524826 ], [ -0.093636270702851, 51.494639459048599 ], [ -0.094545354022617, 51.494662000533509 ], [ -0.095454438523499, 51.494684534979541 ], [ -0.096363524205127, 51.494707062386667 ], [ -0.097272611067137, 51.494729582754864 ], [ -0.098181699109158, 51.494752096084135 ], [ -0.099090788330826, 51.49477460237442 ], [ -0.099999878731775, 51.494797101625721 ], [ -0.100908970311636, 51.494819593838017 ], [ -0.101818063070041, 51.494842079011278 ], [ -0.102727157006627, 51.494864557145505 ], [ -0.103636252121025, 51.494887028240633 ], [ -0.104545348412865, 51.494909492296678 ], [ -0.105454445881787, 51.49493194931361 ], [ -0.106363544527417, 51.494954399291409 ], [ -0.107272644349395, 51.494976842230038 ], [ -0.10818174534735, 51.494999278129484 ], [ -0.109090847520913, 51.495021706989746 ], [ -0.109999950869722, 51.495044128810775 ], [ -0.110909055393408, 51.495066543592579 ], [ -0.111818161091603, 51.495088951335092 ], [ -0.112727267963941, 51.495111352038336 ], [ -0.113636376010057, 51.495133745702276 ], [ -0.11454548522958, 51.495156132326869 ], [ -0.115454595622148, 51.495178511912137 ], [ -0.116363707187389, 51.495200884458022 ], [ -0.117272819924941, 51.495223249964504 ], [ -0.118181933834434, 51.495245608431588 ], [ -0.1190910489155, 51.495267959859234 ], [ -0.120000165167775, 51.495290304247433 ], [ -0.12000016852001, 51.496189732817832 ], [ -0.119091052286488, 51.496167388594273 ], [ -0.118181937224185, 51.496145037331324 ], [ -0.117272823333467, 51.496122679028979 ], [ -0.116363710614703, 51.496100313687279 ], [ -0.115454599068257, 51.49607794130624 ], [ -0.1145454886945, 51.496055561885875 ], [ -0.113636379493795, 51.496033175426227 ], [ -0.11272727146651, 51.496010781927289 ], [ -0.111818164613011, 51.495988381389097 ], [ -0.110909058933669, 51.495965973811671 ], [ -0.109999954428847, 51.495943559195048 ], [ -0.109090851098913, 51.495921137539213 ], [ -0.108181748944233, 51.49589870884423 ], [ -0.107272647965175, 51.495876273110078 ], [ -0.106363548162106, 51.495853830336792 ], [ -0.105454449535392, 51.495831380524422 ], [ -0.104545352085402, 51.495808923672953 ], [ -0.1036362558125, 51.49578645978243 ], [ -0.102727160717055, 51.495763988852858 ], [ -0.101818066799432, 51.495741510884258 ], [ -0.100908974059999, 51.495719025876674 ], [ -0.099999882499125, 51.495696533830099 ], [ -0.099090792117172, 51.495674034744582 ], [ -0.098181702914511, 51.495651528620108 ], [ -0.097272614891506, 51.495629015456728 ], [ -0.096363528048527, 51.495606495254457 ], [ -0.095454442385938, 51.495583968013314 ], [ -0.094545357904109, 51.495561433733315 ], [ -0.093636274603402, 51.495538892414494 ], [ -0.092727192484189, 51.49551634405686 ], [ -0.091818111546832, 51.49549378866044 ], [ -0.090909031791702, 51.495471226225249 ], [ -0.089999953219164, 51.495448656751321 ], [ -0.089090875829585, 51.49542608023868 ], [ -0.088181799623332, 51.495403496687317 ], [ -0.087272724600771, 51.495380906097289 ], [ -0.08636365076227, 51.495358308468589 ], [ -0.085454578108197, 51.495335703801253 ], [ -0.084545506638915, 51.495313092095316 ], [ -0.083636436354795, 51.495290473350778 ], [ -0.0827273672562, 51.495267847567661 ], [ -0.081818299343497, 51.495245214745999 ], [ -0.080909232617057, 51.495222574885801 ], [ -0.080000167077244, 51.495199927987102 ], [ -0.080000170548042, 51.496099363729741 ], [ -0.080909236068849, 51.496122010461576 ], [ -0.081818302776295, 51.496144650154939 ], [ -0.08272737067001, 51.496167282809843 ], [ -0.083636439749631, 51.496189908426224 ], [ -0.084545510014791, 51.496212527004111 ], [ -0.085454581465122, 51.49623513854344 ], [ -0.086363654100255, 51.496257743044204 ], [ -0.087272727919828, 51.496280340506388 ], [ -0.088181802923472, 51.496302930929957 ], [ -0.089090879110819, 51.496325514314911 ], [ -0.089999956481501, 51.496348090661208 ], [ -0.090909035035155, 51.496370659968825 ], [ -0.091818114771413, 51.496393222237764 ], [ -0.092727195689908, 51.49641577746798 ], [ -0.09363627779027, 51.496438325659462 ], [ -0.094545361072135, 51.496460866812193 ], [ -0.095454445535137, 51.496483400926152 ], [ -0.096363531178909, 51.496505928001298 ], [ -0.097272618003083, 51.496528448037637 ], [ -0.098181706007289, 51.496550961035119 ], [ -0.099090795191167, 51.496573466993738 ], [ -0.099999885554346, 51.496595965913485 ], [ -0.10090897709646, 51.496618457794327 ], [ -0.101818069817141, 51.496640942636226 ], [ -0.102727163716022, 51.496663420439184 ], [ -0.103636258792738, 51.496685891203185 ], [ -0.104545355046923, 51.496708354928188 ], [ -0.105454452478208, 51.496730811614164 ], [ -0.106363551086224, 51.496753261261119 ], [ -0.107272650870608, 51.496775703869019 ], [ -0.108181751830992, 51.496798139437843 ], [ -0.109090853967009, 51.496820567967575 ], [ -0.109999957278292, 51.49684298945818 ], [ -0.110909061764472, 51.496865403909645 ], [ -0.111818167425187, 51.496887811321962 ], [ -0.112727274260065, 51.496910211695081 ], [ -0.113636382268744, 51.496932605029002 ], [ -0.11454549145085, 51.496954991323697 ], [ -0.115454601806024, 51.496977370579152 ], [ -0.116363713333895, 51.496999742795332 ], [ -0.117272826034096, 51.497022107972235 ], [ -0.118181939906259, 51.497044466109827 ], [ -0.119091054950021, 51.497066817208079 ], [ -0.120000171165013, 51.497089161266992 ], [ -0.120000173102753, 51.497988589594904 ], [ -0.119091056906071, 51.497966245700653 ], [ -0.118181941880628, 51.497943894767111 ], [ -0.117272828026793, 51.49792153679428 ], [ -0.116363715344935, 51.497899171782208 ], [ -0.115454603835415, 51.497876799730882 ], [ -0.114545493498605, 51.497854420640358 ], [ -0.113636384334872, 51.497832034510623 ], [ -0.112727276344579, 51.497809641341725 ], [ -0.111818169528097, 51.497787241133672 ], [ -0.110909063885791, 51.497764833886485 ], [ -0.109999959418027, 51.497742419600193 ], [ -0.109090856125174, 51.497719998274825 ], [ -0.108181754007598, 51.497697569910372 ], [ -0.107272653065665, 51.497675134506878 ], [ -0.106363553299744, 51.497652692064364 ], [ -0.1054544547102, 51.497630242582851 ], [ -0.1045453572974, 51.497607786062353 ], [ -0.103636261061712, 51.497585322502886 ], [ -0.102727166003504, 51.497562851904476 ], [ -0.101818072123137, 51.497540374267167 ], [ -0.100908979420985, 51.497517889590945 ], [ -0.099999887897412, 51.497495397875859 ], [ -0.099090797552784, 51.497472899121917 ], [ -0.098181708387468, 51.497450393329146 ], [ -0.097272620401831, 51.497427880497561 ], [ -0.096363533596244, 51.497405360627184 ], [ -0.095454447971069, 51.497382833718028 ], [ -0.094545363526672, 51.497360299770143 ], [ -0.093636280263423, 51.497337758783516 ], [ -0.09272719818169, 51.497315210758202 ], [ -0.091818117281835, 51.497292655694181 ], [ -0.090909037564228, 51.497270093591517 ], [ -0.089999959029236, 51.497247524450202 ], [ -0.089090881677225, 51.497224948270279 ], [ -0.088181805508563, 51.497202365051749 ], [ -0.087272730523616, 51.497179774794645 ], [ -0.086363656722748, 51.497157177498991 ], [ -0.085454584106332, 51.497134573164793 ], [ -0.08454551267473, 51.497111961792093 ], [ -0.083636442428309, 51.497089343380893 ], [ -0.08272737336744, 51.497066717931233 ], [ -0.081818305492485, 51.497044085443122 ], [ -0.080909238803811, 51.497021445916573 ], [ -0.080000173301789, 51.49699879935163 ], [ -0.080000175338462, 51.497898234852762 ], [ -0.080909240821923, 51.497920881250813 ], [ -0.081818307492045, 51.497943520610505 ], [ -0.08272737534846, 51.497966152931816 ], [ -0.083636444390803, 51.497988778214747 ], [ -0.084545514618703, 51.498011396459262 ], [ -0.0854545860318, 51.498034007665325 ], [ -0.086363658629724, 51.498056611832936 ], [ -0.087272732412106, 51.498079208962054 ], [ -0.088181807378581, 51.498101799052677 ], [ -0.089090883528783, 51.498124382104777 ], [ -0.089999960862343, 51.498146958118333 ], [ -0.090909039378896, 51.498169527093317 ], [ -0.091818119078074, 51.498192089029708 ], [ -0.09272719995951, 51.498214643927483 ], [ -0.093636282022839, 51.498237191786657 ], [ -0.094545365267692, 51.498259732607153 ], [ -0.095454449693705, 51.498282266388969 ], [ -0.096363535300507, 51.4983047931321 ], [ -0.097272622087735, 51.498327312836516 ], [ -0.098181710055021, 51.498349825502189 ], [ -0.099090799201997, 51.498372331129097 ], [ -0.099999889528295, 51.498394829717235 ], [ -0.100908981033551, 51.498417321266572 ], [ -0.101818073717397, 51.498439805777089 ], [ -0.102727167579467, 51.498462283248749 ], [ -0.103636262619393, 51.498484753681545 ], [ -0.104545358836808, 51.498507217075456 ], [ -0.105454456231346, 51.498529673430461 ], [ -0.106363554802638, 51.498552122746531 ], [ -0.10727265455032, 51.498574565023652 ], [ -0.108181755474022, 51.498597000261803 ], [ -0.10909085757338, 51.498619428460941 ], [ -0.109999960848028, 51.498641849621087 ], [ -0.110909065297595, 51.498664263742199 ], [ -0.111818170921718, 51.498686670824235 ], [ -0.112727277720026, 51.498709070867207 ], [ -0.113636385692155, 51.498731463871067 ], [ -0.114545494837739, 51.498753849835815 ], [ -0.115454605156408, 51.498776228761422 ], [ -0.116363716647795, 51.498798600647852 ], [ -0.117272829311536, 51.498820965495121 ], [ -0.118181943147262, 51.49884332330317 ], [ -0.119091058154609, 51.498865674071993 ], [ -0.120000174333206, 51.498888017801569 ], [ -0.120000174856345, 51.499787445887002 ], [ -0.119091058695611, 51.499765102322101 ], [ -0.118181943706139, 51.499742751718003 ], [ -0.117272829888298, 51.49972039407475 ], [ -0.116363717242451, 51.499698029392334 ], [ -0.115454605768971, 51.499675657670778 ], [ -0.114545495468219, 51.49965327891011 ], [ -0.113636386340568, 51.499630893110357 ], [ -0.112727278386377, 51.499608500271535 ], [ -0.111818171606019, 51.499586100393671 ], [ -0.11090906599986, 51.499563693476759 ], [ -0.109999961568266, 51.499541279520862 ], [ -0.109090858311603, 51.499518858525974 ], [ -0.10818175623024, 51.499496430492123 ], [ -0.107272655324543, 51.499473995419336 ], [ -0.106363555594879, 51.499451553307615 ], [ -0.105454457041614, 51.499429104156995 ], [ -0.104545359665117, 51.499406647967518 ], [ -0.103636263465751, 51.499384184739164 ], [ -0.102727168443888, 51.499361714471981 ], [ -0.101818074599891, 51.499339237165984 ], [ -0.100908981934128, 51.49931675282118 ], [ -0.099999890446969, 51.499294261437626 ], [ -0.099090800138774, 51.499271763015308 ], [ -0.098181711009917, 51.499249257554254 ], [ -0.097272623060758, 51.499226745054514 ], [ -0.09636353629167, 51.499204225516074 ], [ -0.095454450703016, 51.499181698938976 ], [ -0.094545366295166, 51.499159165323228 ], [ -0.093636283068485, 51.49913662466885 ], [ -0.09272720102334, 51.499114076975886 ], [ -0.091818120160097, 51.499091522244335 ], [ -0.090909040479125, 51.499068960474226 ], [ -0.089999961980788, 51.499046391665573 ], [ -0.089090884665457, 51.499023815818411 ], [ -0.088181808533493, 51.499001232932763 ], [ -0.087272733585269, 51.498978643008627 ], [ -0.086363659821147, 51.498956046046047 ], [ -0.085454587241498, 51.498933442045036 ], [ -0.084545515846685, 51.49891083100561 ], [ -0.083636445637077, 51.49888821292781 ], [ -0.08272737661304, 51.498865587811622 ], [ -0.081818308774941, 51.498842955657118 ], [ -0.080909242123147, 51.498820316464275 ], [ -0.080000176658025, 51.498797670233138 ], [ -0.080000177260456, 51.499697105492757 ], [ -0.080909242707461, 51.499719751556981 ], [ -0.081818309341149, 51.499742390582952 ], [ -0.082727377161153, 51.499765022570671 ], [ -0.083636446167106, 51.499787647520073 ], [ -0.084545516358643, 51.499810265431158 ], [ -0.085454587735394, 51.499832876303934 ], [ -0.086363660296994, 51.499855480138336 ], [ -0.087272734043076, 51.499878076934365 ], [ -0.088181808973273, 51.499900666691993 ], [ -0.08909088508722, 51.499923249411189 ], [ -0.089999962384547, 51.499945825091956 ], [ -0.09090904086489, 51.49996839373425 ], [ -0.09181812052788, 51.499990955338056 ], [ -0.09272720137315, 51.500013509903361 ], [ -0.093636283400334, 51.500036057430151 ], [ -0.094545366609065, 51.500058597918375 ], [ -0.095454450998977, 51.500081131368034 ], [ -0.096363536569702, 51.500103657779093 ], [ -0.097272623320874, 51.50012617715155 ], [ -0.098181711252125, 51.500148689485364 ], [ -0.099090800363089, 51.500171194780528 ], [ -0.099999890653399, 51.500193693037012 ], [ -0.100908982122688, 51.500216184254796 ], [ -0.101818074770589, 51.500238668433859 ], [ -0.102727168596736, 51.500261145574186 ], [ -0.10363626360076, 51.500283615675748 ], [ -0.104545359782297, 51.500306078738518 ], [ -0.105454457140978, 51.500328534762488 ], [ -0.106363555676437, 51.500350983747637 ], [ -0.107272655388305, 51.50037342569393 ], [ -0.108181756276219, 51.500395860601358 ], [ -0.109090858339809, 51.500418288469895 ], [ -0.109999961578711, 51.500440709299518 ], [ -0.110909065992555, 51.500463123090213 ], [ -0.111818171580974, 51.500485529841953 ], [ -0.112727278343603, 51.500507929554722 ], [ -0.113636386280075, 51.500530322228492 ], [ -0.114545495390021, 51.500552707863243 ], [ -0.115454605673076, 51.500575086458959 ], [ -0.116363717128873, 51.500597458015605 ], [ -0.117272829757045, 51.500619822533174 ], [ -0.118181943557224, 51.500642180011639 ], [ -0.119091058529043, 51.500664530450997 ], [ -0.120000174672137, 51.500686873851187 ], [ -0.120000173780561, 51.50158630169414 ], [ -0.119091057654884, 51.501563958458647 ], [ -0.118181942700494, 51.501541608184056 ], [ -0.117272828917754, 51.501519250870388 ], [ -0.116363716307033, 51.501496886517678 ], [ -0.1154546048687, 51.501474515125928 ], [ -0.114545494603116, 51.501452136695193 ], [ -0.113636385510655, 51.501429751225452 ], [ -0.112727277591679, 51.501407358716747 ], [ -0.111818170846555, 51.501384959169094 ], [ -0.110909065275654, 51.501362552582535 ], [ -0.109999960879338, 51.501340138957055 ], [ -0.109090857657975, 51.501317718292711 ], [ -0.108181755611936, 51.501295290589482 ], [ -0.107272654741584, 51.501272855847439 ], [ -0.106363555047286, 51.501250414066568 ], [ -0.105454456529412, 51.501227965246912 ], [ -0.104545359188325, 51.501205509388463 ], [ -0.103636263024395, 51.501183046491271 ], [ -0.102727168037986, 51.50116057655535 ], [ -0.101818074229467, 51.501138099580707 ], [ -0.100908981599205, 51.501115615567379 ], [ -0.099999890147565, 51.501093124515386 ], [ -0.099090799874915, 51.501070626424749 ], [ -0.098181710781624, 51.501048121295483 ], [ -0.097272622868055, 51.501025609127602 ], [ -0.096363536134577, 51.501003089921156 ], [ -0.095454450581557, 51.500980563676151 ], [ -0.094545366209361, 51.500958030392589 ], [ -0.093636283018359, 51.500935490070511 ], [ -0.092727201008912, 51.500912942709931 ], [ -0.091818120181391, 51.500890388310893 ], [ -0.090909040536162, 51.500867826873375 ], [ -0.089999962073592, 51.500845258397455 ], [ -0.089090884794048, 51.500822682883097 ], [ -0.088181808697897, 51.500800100330352 ], [ -0.087272733785504, 51.50077751073924 ], [ -0.086363660057236, 51.500754914109784 ], [ -0.085454587513465, 51.500732310441997 ], [ -0.084545516154551, 51.500709699735914 ], [ -0.083636445980866, 51.500687081991529 ], [ -0.082727376992774, 51.500664457208899 ], [ -0.081818309190639, 51.500641825388016 ], [ -0.080909242574835, 51.500619186528915 ], [ -0.080000177145723, 51.500596540631626 ], [ -0.080000176313803, 51.501495975649739 ], [ -0.080909241725243, 51.501518621380086 ], [ -0.081818308323387, 51.501541260072301 ], [ -0.082727376107871, 51.501563891726342 ], [ -0.083636445078326, 51.501586516342186 ], [ -0.084545515234384, 51.501609133919843 ], [ -0.08545458657568, 51.501631744459246 ], [ -0.086363659101849, 51.501654347960404 ], [ -0.087272732812521, 51.501676944423288 ], [ -0.088181807707332, 51.501699533847869 ], [ -0.089090883785912, 51.501722116234141 ], [ -0.089999961047895, 51.501744691582068 ], [ -0.090909039492915, 51.501767259891636 ], [ -0.091818119120607, 51.501789821162824 ], [ -0.092727199930602, 51.501812375395602 ], [ -0.093636281922531, 51.501834922589957 ], [ -0.09454536509603, 51.501857462745868 ], [ -0.095454449450731, 51.501879995863312 ], [ -0.096363534986268, 51.50190252194227 ], [ -0.097272621702275, 51.501925040982719 ], [ -0.098181709598382, 51.501947552984639 ], [ -0.099090798674225, 51.501970057947986 ], [ -0.099999888929436, 51.501992555872775 ], [ -0.100908980363649, 51.502015046758963 ], [ -0.101818072976495, 51.50203753060655 ], [ -0.102727166767609, 51.50206000741548 ], [ -0.103636261736624, 51.502082477185766 ], [ -0.104545357883171, 51.502104939917359 ], [ -0.105454455206885, 51.502127395610252 ], [ -0.106363553707399, 51.50214984426443 ], [ -0.107272653384346, 51.502172285879873 ], [ -0.108181754237361, 51.502194720456522 ], [ -0.109090856266073, 51.502217147994408 ], [ -0.109999959470116, 51.502239568493479 ], [ -0.110909063849125, 51.502261981953716 ], [ -0.111818169402734, 51.502284388375102 ], [ -0.112727276130574, 51.502306787757625 ], [ -0.113636384032277, 51.502329180101242 ], [ -0.114545493107478, 51.502351565405959 ], [ -0.115454603355809, 51.502373943671742 ], [ -0.116363714776903, 51.502396314898562 ], [ -0.117272827370395, 51.502418679086389 ], [ -0.118181941135919, 51.50244103623524 ], [ -0.119091056073103, 51.502463386345056 ], [ -0.120000172181582, 51.502485729415845 ], [ -0.120000169875178, 51.503385157016311 ], [ -0.11909105378367, 51.503362814110261 ], [ -0.118181938863471, 51.50334046416522 ], [ -0.117272825114944, 51.503318107181201 ], [ -0.116363712538457, 51.503295743158233 ], [ -0.115454601134379, 51.503273372096345 ], [ -0.114545490903075, 51.50325099399555 ], [ -0.113636381844914, 51.503228608855878 ], [ -0.11272727396026, 51.503206216677349 ], [ -0.111818167249481, 51.50318381745997 ], [ -0.110909061712948, 51.503161411203763 ], [ -0.109999957351021, 51.503138997908771 ], [ -0.10909085416407, 51.503116577575 ], [ -0.108181752152463, 51.503094150202472 ], [ -0.107272651316566, 51.503071715791201 ], [ -0.106363551656746, 51.503049274341222 ], [ -0.10545445317337, 51.503026825852544 ], [ -0.104545355866805, 51.503004370325208 ], [ -0.103636259737419, 51.502981907759221 ], [ -0.102727164785576, 51.502959438154591 ], [ -0.101818071011644, 51.502936961511367 ], [ -0.100908978415991, 51.502914477829556 ], [ -0.099999886998983, 51.502891987109166 ], [ -0.099090796760989, 51.502869489350246 ], [ -0.098181707702372, 51.502846984552797 ], [ -0.097272619823503, 51.502824472716846 ], [ -0.096363533124747, 51.502801953842429 ], [ -0.095454447606468, 51.502779427929539 ], [ -0.094545363269039, 51.502756894978212 ], [ -0.09363628011282, 51.502734354988483 ], [ -0.092727198138186, 51.502711807960353 ], [ -0.091818117345497, 51.502689253893848 ], [ -0.090909037735121, 51.502666692788992 ], [ -0.089999959307427, 51.502644124645812 ], [ -0.089090882062781, 51.502621549464315 ], [ -0.08818180600155, 51.502598967244531 ], [ -0.0872727311241, 51.502576377986486 ], [ -0.086363657430799, 51.502553781690196 ], [ -0.085454584922012, 51.502531178355682 ], [ -0.08454551359811, 51.502508567982957 ], [ -0.083636443459455, 51.502485950572051 ], [ -0.082727374506416, 51.502463326123006 ], [ -0.081818306739361, 51.502440694635808 ], [ -0.080909240158653, 51.502418056110493 ], [ -0.080000174764663, 51.502395410547095 ], [ -0.080000172498276, 51.503294845323694 ], [ -0.080909237875039, 51.503317490720143 ], [ -0.081818304438532, 51.503340129078538 ], [ -0.082727372188383, 51.503362760398865 ], [ -0.083636441124228, 51.503385384681131 ], [ -0.084545511245702, 51.503408001925266 ], [ -0.085454582552434, 51.503430612131282 ], [ -0.086363655044059, 51.503453215299146 ], [ -0.087272728720213, 51.503475811428842 ], [ -0.088181803580524, 51.503498400520343 ], [ -0.089090879624629, 51.503520982573619 ], [ -0.08999995685216, 51.503543557588671 ], [ -0.09090903526275, 51.50356612556547 ], [ -0.091818114856031, 51.503588686503988 ], [ -0.092727195631639, 51.50361124040419 ], [ -0.093636277589205, 51.503633787266089 ], [ -0.094545360728361, 51.503656327089637 ], [ -0.095454445048744, 51.503678859874832 ], [ -0.096363530549983, 51.503701385621632 ], [ -0.097272617231713, 51.503723904330023 ], [ -0.098181705093568, 51.503746416 ], [ -0.099090794135179, 51.503768920631515 ], [ -0.099999884356182, 51.503791418224566 ], [ -0.100908975756207, 51.503813908779122 ], [ -0.101818068334887, 51.503836392295163 ], [ -0.10272716209186, 51.503858868772667 ], [ -0.103636257026754, 51.503881338211627 ], [ -0.104545353139202, 51.503903800611994 ], [ -0.105454450428843, 51.503926255973774 ], [ -0.106363548895302, 51.503948704296931 ], [ -0.107272648538216, 51.503971145581446 ], [ -0.10818174935722, 51.503993579827309 ], [ -0.109090851351943, 51.504016007034487 ], [ -0.109999954522022, 51.504038427202957 ], [ -0.110909058867088, 51.504060840332691 ], [ -0.111818164386775, 51.50408324642369 ], [ -0.112727271080713, 51.504105645475917 ], [ -0.113636378948541, 51.504128037489352 ], [ -0.114545487989885, 51.504150422463979 ], [ -0.115454598204384, 51.504172800399779 ], [ -0.116363709591667, 51.504195171296722 ], [ -0.11727282215137, 51.504217535154801 ], [ -0.118181935883123, 51.504239891973967 ], [ -0.119091050786563, 51.504262241754219 ], [ -0.120000166861319, 51.504284584495537 ], [ -0.120000163139979, 51.505184011853522 ], [ -0.119091047081748, 51.505161669276958 ], [ -0.118181932194849, 51.505139319661495 ], [ -0.117272818479643, 51.505116963007183 ], [ -0.116363705936502, 51.505094599314013 ], [ -0.115454594565792, 51.505072228582016 ], [ -0.114545484367877, 51.505049850811233 ], [ -0.113636375343125, 51.505027466001664 ], [ -0.112727267491904, 51.505005074153345 ], [ -0.11181816081458, 51.50498267526627 ], [ -0.110909055311521, 51.504960269340486 ], [ -0.109999950983093, 51.50493785637601 ], [ -0.109090847829663, 51.504915436372855 ], [ -0.108181745851599, 51.504893009331056 ], [ -0.107272645049269, 51.504870575250621 ], [ -0.106363545423036, 51.504848134131578 ], [ -0.105454446973267, 51.504825685973948 ], [ -0.104545349700335, 51.504803230777739 ], [ -0.103636253604599, 51.504780768542993 ], [ -0.102727158686432, 51.50475829926971 ], [ -0.101818064946199, 51.50473582295794 ], [ -0.100908972384265, 51.504713339607676 ], [ -0.099999881000999, 51.504690849218953 ], [ -0.09909079079677, 51.504668351791786 ], [ -0.09818170177194, 51.504645847326209 ], [ -0.097272613926878, 51.504623335822231 ], [ -0.096363527261952, 51.504600817279879 ], [ -0.095454441777527, 51.504578291699168 ], [ -0.094545357473972, 51.50455575908012 ], [ -0.093636274351651, 51.504533219422775 ], [ -0.092727192410934, 51.504510672727129 ], [ -0.091818111652188, 51.504488118993223 ], [ -0.090909032075776, 51.504465558221057 ], [ -0.089999953682068, 51.504442990410674 ], [ -0.089090876471429, 51.504420415562066 ], [ -0.088181800444228, 51.504397833675299 ], [ -0.08727272560083, 51.504375244750356 ], [ -0.086363651941605, 51.504352648787268 ], [ -0.085454579466917, 51.50433004578607 ], [ -0.084545508177131, 51.504307435746775 ], [ -0.083636438072619, 51.504284818669404 ], [ -0.082727369153745, 51.504262194553966 ], [ -0.081818301420875, 51.504239563400503 ], [ -0.080909234874377, 51.504216925209022 ], [ -0.080000169514616, 51.504194279979551 ], [ -0.080000165813652, 51.505093714514651 ], [ -0.080909231156629, 51.505116359577144 ], [ -0.081818297686357, 51.505138997601691 ], [ -0.082727365402468, 51.505161628588276 ], [ -0.083636434304595, 51.505184252536864 ], [ -0.08454550439237, 51.505206869447477 ], [ -0.08545457566543, 51.505229479320043 ], [ -0.086363648123404, 51.50525208215457 ], [ -0.087272721765926, 51.505274677951043 ], [ -0.08818179659263, 51.505297266709405 ], [ -0.089090872603151, 51.505319848429664 ], [ -0.089999949797119, 51.505342423111799 ], [ -0.090909028174167, 51.505364990755766 ], [ -0.09181810773393, 51.505387551361558 ], [ -0.09272718847604, 51.505410104929169 ], [ -0.093636270400133, 51.505432651458548 ], [ -0.094545353505838, 51.505455190949696 ], [ -0.09545443779279, 51.505477723402578 ], [ -0.096363523260622, 51.505500248817185 ], [ -0.097272609908968, 51.50552276719349 ], [ -0.098181697737458, 51.505545278531457 ], [ -0.099090786745729, 51.5055677828311 ], [ -0.099999876933411, 51.505590280092356 ], [ -0.100908968300139, 51.505612770315238 ], [ -0.101818060845547, 51.505635253499698 ], [ -0.102727154569266, 51.505657729645733 ], [ -0.10363624947093, 51.505680198753311 ], [ -0.10454534555017, 51.505702660822429 ], [ -0.105454442806623, 51.505725115853053 ], [ -0.106363541239918, 51.505747563845141 ], [ -0.107272640849693, 51.505770004798705 ], [ -0.108181741635575, 51.505792438713705 ], [ -0.109090843597202, 51.505814865590132 ], [ -0.109999946734205, 51.505837285427958 ], [ -0.110909051046216, 51.505859698227155 ], [ -0.111818156532872, 51.505882103987716 ], [ -0.112727263193801, 51.505904502709605 ], [ -0.113636371028641, 51.505926894392822 ], [ -0.11454548003702, 51.505949279037324 ], [ -0.115454590218576, 51.505971656643091 ], [ -0.116363701572939, 51.505994027210114 ], [ -0.117272814099742, 51.50601639073836 ], [ -0.118181927798618, 51.506038747227819 ], [ -0.119091042669202, 51.506061096678472 ], [ -0.120000158711126, 51.50608343909029 ], [ -0.120000153574738, 51.506982866205803 ], [ -0.119091037548896, 51.506960523958753 ], [ -0.118181922694407, 51.506938174672925 ], [ -0.117272809011634, 51.506915818348347 ], [ -0.116363696500947, 51.506893454985011 ], [ -0.115454585162712, 51.506871084582968 ], [ -0.114545474997294, 51.506848707142225 ], [ -0.113636366005062, 51.506826322662803 ], [ -0.112727258186384, 51.506803931144731 ], [ -0.111818151541625, 51.506781532588022 ], [ -0.110909046071152, 51.506759126992698 ], [ -0.109999941775333, 51.506736714358787 ], [ -0.109090838654532, 51.506714294686297 ], [ -0.108181736709121, 51.506691867975263 ], [ -0.107272635939462, 51.506669434225707 ], [ -0.106363536345927, 51.506646993437634 ], [ -0.105454437928878, 51.506624545611082 ], [ -0.104545340688686, 51.506602090746064 ], [ -0.103636244625715, 51.506579628842601 ], [ -0.102727149740333, 51.506557159900723 ], [ -0.101818056032906, 51.506534683920442 ], [ -0.100908963503803, 51.506512200901781 ], [ -0.099999872153389, 51.506489710844768 ], [ -0.099090781982032, 51.506467213749403 ], [ -0.098181692990099, 51.506444709615735 ], [ -0.097272605177956, 51.506422198443772 ], [ -0.096363518545969, 51.506399680233528 ], [ -0.095454433094506, 51.506377154985046 ], [ -0.094545348823936, 51.506354622698318 ], [ -0.093636265734623, 51.506332083373394 ], [ -0.092727183826934, 51.506309537010281 ], [ -0.091818103101239, 51.506286983609002 ], [ -0.090909023557901, 51.506264423169583 ], [ -0.089999945197286, 51.506241855692032 ], [ -0.089090868019766, 51.506219281176392 ], [ -0.088181792025705, 51.506196699622656 ], [ -0.087272717215471, 51.506174111030859 ], [ -0.08636364358943, 51.506151515401051 ], [ -0.085454571147947, 51.506128912733196 ], [ -0.084545499891393, 51.506106303027359 ], [ -0.083636429820131, 51.50608368628356 ], [ -0.08272736093453, 51.506061062501793 ], [ -0.081818293234956, 51.5060384316821 ], [ -0.080909226721776, 51.506015793824496 ], [ -0.080000161395357, 51.505993148929015 ], [ -0.080000156259705, 51.506892583222594 ], [ -0.080909221569788, 51.506915227951083 ], [ -0.081818288066642, 51.506937865641738 ], [ -0.082727355749902, 51.506960496294525 ], [ -0.083636424619199, 51.506983119909435 ], [ -0.084545494674169, 51.507005736486448 ], [ -0.085454565914444, 51.507028346025542 ], [ -0.086363638339656, 51.50705094852669 ], [ -0.08727271194944, 51.507073543989861 ], [ -0.088181786743425, 51.507096132415064 ], [ -0.089090862721252, 51.507118713802242 ], [ -0.089999939882547, 51.507141288151402 ], [ -0.090909018226944, 51.507163855462522 ], [ -0.09181809775408, 51.507186415735553 ], [ -0.092727178463584, 51.507208968970502 ], [ -0.093636260355092, 51.507231515167334 ], [ -0.094545343428235, 51.507254054326026 ], [ -0.095454427682647, 51.507276586446572 ], [ -0.096363513117963, 51.507299111528923 ], [ -0.097272599733812, 51.507321629573092 ], [ -0.098181687529831, 51.507344140579036 ], [ -0.09909077650565, 51.507366644546728 ], [ -0.099999866660905, 51.507389141476168 ], [ -0.100908957995227, 51.507411631367319 ], [ -0.101818050508249, 51.507434114220167 ], [ -0.102727144199606, 51.507456590034678 ], [ -0.103636239068928, 51.507479058810858 ], [ -0.104545335115852, 51.507501520548658 ], [ -0.105454432340009, 51.507523975248063 ], [ -0.106363530741031, 51.507546422909058 ], [ -0.107272630318554, 51.507568863531617 ], [ -0.108181731072206, 51.507591297115731 ], [ -0.109090833001626, 51.507613723661365 ], [ -0.109999936106442, 51.507636143168497 ], [ -0.110909040386293, 51.507658555637114 ], [ -0.111818145840807, 51.507680961067187 ], [ -0.112727252469616, 51.507703359458695 ], [ -0.113636360272359, 51.507725750811638 ], [ -0.114545469248663, 51.507748135125958 ], [ -0.115454579398166, 51.507770512401663 ], [ -0.116363690720499, 51.507792882638725 ], [ -0.117272803215291, 51.507815245837115 ], [ -0.118181916882183, 51.507837601996819 ], [ -0.1190910317208, 51.507859951117808 ], [ -0.120000147730782, 51.507882293200076 ], [ -0.120000141179233, 51.508781720073102 ], [ -0.119091025184889, 51.508759378155638 ], [ -0.118181910361919, 51.508737029199487 ], [ -0.11727279671069, 51.508714673204679 ], [ -0.116363684231565, 51.508692310171234 ], [ -0.115454572924915, 51.508669940099175 ], [ -0.114545462791105, 51.508647562988529 ], [ -0.113636353830504, 51.508625178839296 ], [ -0.112727246043477, 51.508602787651512 ], [ -0.111818139430392, 51.508580389425212 ], [ -0.110909033991614, 51.50855798416039 ], [ -0.109999929727513, 51.508535571857088 ], [ -0.109090826638455, 51.508513152515306 ], [ -0.108181724724805, 51.508490726135093 ], [ -0.107272623986932, 51.508468292716451 ], [ -0.106363524425203, 51.508445852259399 ], [ -0.105454426039982, 51.508423404763988 ], [ -0.10454532883164, 51.50840095023019 ], [ -0.103636232800541, 51.50837848865806 ], [ -0.102727137947054, 51.508356020047621 ], [ -0.101818044271546, 51.508333544398873 ], [ -0.100908951774382, 51.508311061711858 ], [ -0.09999986045593, 51.508288571986576 ], [ -0.099090770316554, 51.508266075223077 ], [ -0.098181681356627, 51.508243571421353 ], [ -0.097272593576511, 51.508221060581455 ], [ -0.096363506976575, 51.508198542703383 ], [ -0.095454421557185, 51.508176017787157 ], [ -0.094545337318709, 51.5081534858328 ], [ -0.093636254261511, 51.508130946840346 ], [ -0.092727172385962, 51.50810840080981 ], [ -0.091818091692427, 51.508085847741206 ], [ -0.090909012181272, 51.508063287634563 ], [ -0.089999933852866, 51.508040720489902 ], [ -0.089090856707573, 51.508018146307251 ], [ -0.088181780745762, 51.507995565086603 ], [ -0.087272705967799, 51.507972976828015 ], [ -0.086363632374052, 51.507950381531494 ], [ -0.085454559964887, 51.507927779197047 ], [ -0.084545488740671, 51.50790516982471 ], [ -0.083636418701771, 51.507882553414525 ], [ -0.082727349848551, 51.507859929966472 ], [ -0.081818282181383, 51.507837299480599 ], [ -0.080909215700632, 51.507814661956921 ], [ -0.080000150406665, 51.507792017395452 ], [ -0.080000143836207, 51.508691451447554 ], [ -0.080909209114286, 51.508714095841988 ], [ -0.081818275579158, 51.508736733198688 ], [ -0.082727343230455, 51.50875936351764 ], [ -0.083636412067816, 51.508781986798809 ], [ -0.08454548209087, 51.508804603042186 ], [ -0.085454553299249, 51.508827212247745 ], [ -0.086363625692591, 51.50884981441547 ], [ -0.087272699270525, 51.508872409545326 ], [ -0.088181774032686, 51.508894997637306 ], [ -0.089090849978706, 51.508917578691381 ], [ -0.089999927108219, 51.508940152707524 ], [ -0.090909005420856, 51.508962719685726 ], [ -0.091818084916253, 51.508985279625968 ], [ -0.092727165594041, 51.509007832528219 ], [ -0.093636247453856, 51.509030378392445 ], [ -0.094545330495328, 51.509052917218654 ], [ -0.095454414718092, 51.509075449006801 ], [ -0.09636350012178, 51.509097973756873 ], [ -0.097272586706024, 51.509120491468856 ], [ -0.09818167447046, 51.509143002142714 ], [ -0.099090763414719, 51.509165505778441 ], [ -0.099999853538434, 51.509188002376 ], [ -0.100908944841241, 51.509210491935384 ], [ -0.10181803732277, 51.509232974456559 ], [ -0.102727130982655, 51.509255449939523 ], [ -0.103636225820529, 51.509277918384228 ], [ -0.104545321836024, 51.509300379790673 ], [ -0.105454419028775, 51.509322834158837 ], [ -0.106363517398414, 51.509345281488692 ], [ -0.107272616944573, 51.509367721780194 ], [ -0.108181717666889, 51.509390155033365 ], [ -0.109090819564991, 51.509412581248164 ], [ -0.109999922638515, 51.50943500042456 ], [ -0.110909026887091, 51.509457412562547 ], [ -0.111818132310353, 51.50947981766209 ], [ -0.112727238907935, 51.509502215723195 ], [ -0.113636346679471, 51.509524606745806 ], [ -0.11454545562459, 51.509546990729916 ], [ -0.11545456574293, 51.509569367675503 ], [ -0.116363677034122, 51.509591737582561 ], [ -0.117272789497798, 51.509614100451046 ], [ -0.118181903133592, 51.509636456280944 ], [ -0.119091017941136, 51.509658805072249 ], [ -0.120000133920065, 51.509681146824903 ], [ -0.120000125953245, 51.510580573455485 ], [ -0.11909100998951, 51.510558231867613 ], [ -0.118181895197168, 51.510535883241182 ], [ -0.117272781576588, 51.510513527576208 ], [ -0.116363669128139, 51.51049116487269 ], [ -0.115454557852185, 51.510468795130663 ], [ -0.11454544774909, 51.510446418350142 ], [ -0.113636338819229, 51.510424034531155 ], [ -0.112727231062964, 51.510401643673717 ], [ -0.11181812448066, 51.510379245777848 ], [ -0.11090901907269, 51.510356840843585 ], [ -0.109999914839417, 51.510334428870927 ], [ -0.109090811781206, 51.510312009859902 ], [ -0.10818170989843, 51.510289583810547 ], [ -0.10727260919145, 51.510267150722868 ], [ -0.106363509660638, 51.510244710596879 ], [ -0.105454411306355, 51.510222263432624 ], [ -0.104545314128973, 51.510199809230116 ], [ -0.103636218128859, 51.510177347989362 ], [ -0.102727123306374, 51.510154879710399 ], [ -0.101818029661892, 51.510132404393232 ], [ -0.100908937195778, 51.510109922037906 ], [ -0.099999845908395, 51.510087432644426 ], [ -0.099090755800115, 51.510064936212807 ], [ -0.098181666871302, 51.510042432743099 ], [ -0.097272579122325, 51.510019922235287 ], [ -0.096363492553546, 51.509997404689408 ], [ -0.095454407165338, 51.509974880105496 ], [ -0.094545322958067, 51.509952348483566 ], [ -0.093636239932095, 51.509929809823625 ], [ -0.092727158087794, 51.509907264125708 ], [ -0.091818077425531, 51.50988471138983 ], [ -0.090908997945669, 51.509862151616005 ], [ -0.089999919648575, 51.509839584804276 ], [ -0.089090842534622, 51.509817010954649 ], [ -0.088181766604171, 51.509794430067153 ], [ -0.087272691857588, 51.509771842141802 ], [ -0.086363618295246, 51.509749247178625 ], [ -0.085454545917507, 51.509726645177622 ], [ -0.084545474724739, 51.509704036138849 ], [ -0.08363640471731, 51.5096814200623 ], [ -0.082727335895585, 51.509658796948017 ], [ -0.081818268259932, 51.509636166796007 ], [ -0.080909201810718, 51.509613529606298 ], [ -0.080000136548309, 51.509590885378891 ], [ -0.080000128542939, 51.5104903191895 ], [ -0.0809091937899, 51.510512963249845 ], [ -0.081818260223681, 51.510535600272561 ], [ -0.082727327843909, 51.510558230257629 ], [ -0.08363639665022, 51.510580853205013 ], [ -0.084545466642247, 51.51060346911472 ], [ -0.085454537819626, 51.5106260779867 ], [ -0.086363610181985, 51.510648679820953 ], [ -0.087272683728961, 51.510671274617444 ], [ -0.088181758460185, 51.510693862376165 ], [ -0.08909083437529, 51.510716443097081 ], [ -0.089999911473911, 51.510739016780164 ], [ -0.090908989755677, 51.510761583425413 ], [ -0.091818069220227, 51.510784143032808 ], [ -0.09272714986719, 51.510806695602305 ], [ -0.093636231696202, 51.510829241133905 ], [ -0.094545314706893, 51.510851779627565 ], [ -0.095454398898898, 51.510874311083278 ], [ -0.096363484271849, 51.510896835501022 ], [ -0.097272570825379, 51.510919352880769 ], [ -0.098181658559122, 51.510941863222513 ], [ -0.099090747472712, 51.510964366526217 ], [ -0.099999837565779, 51.51098686279186 ], [ -0.100908928837961, 51.511009352019428 ], [ -0.101818021288885, 51.511031834208907 ], [ -0.102727114918189, 51.511054309360254 ], [ -0.103636209725501, 51.511076777473463 ], [ -0.104545305710461, 51.511099238548503 ], [ -0.105454402872696, 51.511121692585377 ], [ -0.106363501211843, 51.511144139584033 ], [ -0.107272600727533, 51.511166579544451 ], [ -0.108181701419399, 51.511189012466644 ], [ -0.109090803287076, 51.51121143835055 ], [ -0.109999906330191, 51.511233857196181 ], [ -0.110909010548386, 51.511256269003489 ], [ -0.111818115941289, 51.511278673772459 ], [ -0.112727222508532, 51.511301071503098 ], [ -0.113636330249752, 51.511323462195342 ], [ -0.114545439164578, 51.511345845849199 ], [ -0.115454549252645, 51.51136822246464 ], [ -0.116363660513587, 51.511390592041636 ], [ -0.117272772947034, 51.511412954580166 ], [ -0.118181886552621, 51.511435310080223 ], [ -0.119091001329983, 51.511457658541794 ], [ -0.120000117278749, 51.51147999996482 ], [ -0.120000107896551, 51.512379426352908 ], [ -0.119090991962532, 51.51235708509472 ], [ -0.118181877199929, 51.512334736798046 ], [ -0.117272763609111, 51.512312381462927 ], [ -0.116363651190441, 51.512290019089384 ], [ -0.115454539944293, 51.512267649677426 ], [ -0.114545429871027, 51.512245273227087 ], [ -0.113636320971013, 51.512222889738368 ], [ -0.112727213244619, 51.512200499211318 ], [ -0.11181810669221, 51.512178101645937 ], [ -0.110909001314153, 51.512155697042267 ], [ -0.109999897110817, 51.512133285400303 ], [ -0.109090794082567, 51.512110866720079 ], [ -0.108181692229771, 51.51208844100163 ], [ -0.107272591552795, 51.512066008244958 ], [ -0.106363492052006, 51.512043568450096 ], [ -0.105454393727773, 51.512021121617039 ], [ -0.10454529658046, 51.511998667745843 ], [ -0.103636200610438, 51.511976206836515 ], [ -0.102727105818067, 51.511953738889076 ], [ -0.101818012203722, 51.511931263903548 ], [ -0.100908919767765, 51.511908781879946 ], [ -0.099999828510563, 51.511886292818303 ], [ -0.099090738432486, 51.511863796718629 ], [ -0.098181649533897, 51.51184129358095 ], [ -0.097272561815167, 51.511818783405289 ], [ -0.096363475276658, 51.511796266191659 ], [ -0.095454389918742, 51.511773741940111 ], [ -0.094545305741783, 51.511751210650623 ], [ -0.093636222746149, 51.511728672323244 ], [ -0.092727140932205, 51.511706126957982 ], [ -0.091818060300321, 51.51168357455488 ], [ -0.09090898085086, 51.511661015113937 ], [ -0.089999902584193, 51.511638448635189 ], [ -0.089090825500686, 51.511615875118629 ], [ -0.088181749600703, 51.511593294564307 ], [ -0.087272674884614, 51.511570706972243 ], [ -0.086363601352783, 51.511548112342453 ], [ -0.085454529005581, 51.511525510674957 ], [ -0.084545457843371, 51.511502901969777 ], [ -0.083636387866522, 51.511480286226927 ], [ -0.0827273190754, 51.511457663446429 ], [ -0.081818251470373, 51.511435033628331 ], [ -0.080909185051806, 51.511412396772627 ], [ -0.080000119820067, 51.511389752879346 ], [ -0.08000011037967, 51.512289186448442 ], [ -0.080909175596408, 51.512311830174653 ], [ -0.081818241999985, 51.512334466863329 ], [ -0.082727309590035, 51.512357096514471 ], [ -0.083636378366188, 51.512379719128042 ], [ -0.084545448328081, 51.512402334704021 ], [ -0.085454519475345, 51.51242494324238 ], [ -0.086363591807615, 51.512447544743125 ], [ -0.087272665324521, 51.512470139206208 ], [ -0.088181740025699, 51.512492726631613 ], [ -0.089090815910781, 51.512515307019321 ], [ -0.089999892979399, 51.512537880369322 ], [ -0.090908971231188, 51.512560446681569 ], [ -0.091818050665781, 51.51258300595606 ], [ -0.092727131282809, 51.512605558192767 ], [ -0.093636213081906, 51.512628103391684 ], [ -0.094545296062707, 51.51265064155276 ], [ -0.095454380224844, 51.512673172676003 ], [ -0.096363465567948, 51.512695696761362 ], [ -0.097272552091655, 51.512718213808853 ], [ -0.098181639795596, 51.512740723818418 ], [ -0.099090728679406, 51.512763226790064 ], [ -0.099999818742717, 51.512785722723748 ], [ -0.100908909985162, 51.512808211619458 ], [ -0.101818002406374, 51.512830693477163 ], [ -0.102727096005985, 51.512853168296871 ], [ -0.103636190783631, 51.512875636078533 ], [ -0.104545286738943, 51.512898096822141 ], [ -0.105454383871554, 51.512920550527667 ], [ -0.106363482181099, 51.512942997195083 ], [ -0.107272581667207, 51.512965436824388 ], [ -0.108181682329515, 51.512987869415539 ], [ -0.109090784167654, 51.513010294968531 ], [ -0.109999887181259, 51.513032713483327 ], [ -0.110908991369961, 51.513055124959926 ], [ -0.111818096733394, 51.513077529398281 ], [ -0.11272720327119, 51.513099926798404 ], [ -0.113636310982983, 51.513122317160253 ], [ -0.114545419868406, 51.513144700483792 ], [ -0.115454529927092, 51.513167076769037 ], [ -0.116363641158673, 51.513189446015936 ], [ -0.117272753562784, 51.513211808224476 ], [ -0.118181867139056, 51.51323416339465 ], [ -0.119090981887123, 51.513256511526414 ], [ -0.120000097806619, 51.513278852619763 ], [ -0.120000087008929, 51.514178278765385 ], [ -0.119090971103734, 51.514155937836897 ], [ -0.11818185636998, 51.514133589870035 ], [ -0.117272742808031, 51.514111234864828 ], [ -0.116363630418256, 51.514088872821283 ], [ -0.115454519201021, 51.514066503739457 ], [ -0.114545409156691, 51.514044127619336 ], [ -0.113636300285635, 51.514021744460955 ], [ -0.112727192588221, 51.513999354264335 ], [ -0.111818086064816, 51.513976957029477 ], [ -0.110908980715783, 51.513954552756445 ], [ -0.109999876541493, 51.513932141445224 ], [ -0.109090773542312, 51.51390972309585 ], [ -0.108181671718607, 51.513887297708344 ], [ -0.107272571070744, 51.513864865282713 ], [ -0.10636347159909, 51.513842425819 ], [ -0.105454373304015, 51.513819979317205 ], [ -0.104545276185881, 51.513797525777385 ], [ -0.103636180245058, 51.513775065199511 ], [ -0.102727085481913, 51.513752597583647 ], [ -0.101817991896812, 51.513730122929779 ], [ -0.100908899490124, 51.513707641237957 ], [ -0.099999808262212, 51.513685152508188 ], [ -0.099090718213445, 51.5136626567405 ], [ -0.098181629344193, 51.513640153934915 ], [ -0.097272541654818, 51.513617644091447 ], [ -0.09636345514569, 51.51359512721011 ], [ -0.095454369817173, 51.513572603290946 ], [ -0.094545285669637, 51.513550072333963 ], [ -0.093636202703448, 51.513527534339197 ], [ -0.092727120918972, 51.513504989306647 ], [ -0.091818040316579, 51.513482437236341 ], [ -0.09090896089663, 51.513459878128316 ], [ -0.089999882659498, 51.513437311982578 ], [ -0.089090805605545, 51.513414738799156 ], [ -0.08818172973514, 51.513392158578057 ], [ -0.087272655048654, 51.513369571319323 ], [ -0.086363581546447, 51.513346977022962 ], [ -0.085454509228889, 51.513324375689002 ], [ -0.084545438096348, 51.513301767317458 ], [ -0.083636368149187, 51.513279151908357 ], [ -0.082727299387779, 51.513256529461714 ], [ -0.081818231812485, 51.513233899977557 ], [ -0.080909165423677, 51.513211263455908 ], [ -0.080000100221716, 51.513188619896788 ], [ -0.080000089346177, 51.514088053224391 ], [ -0.080909154533581, 51.514110696616413 ], [ -0.081818220907846, 51.514133332971028 ], [ -0.082727288468605, 51.514155962288179 ], [ -0.083636357215494, 51.514178584567894 ], [ -0.084545427148142, 51.514201199810095 ], [ -0.085454498266183, 51.514223808014812 ], [ -0.086363570569252, 51.514246409181986 ], [ -0.087272644056981, 51.514269003311611 ], [ -0.088181718729003, 51.514291590403658 ], [ -0.089090794584952, 51.514314170458128 ], [ -0.089999871624459, 51.514336743474971 ], [ -0.090908949847159, 51.514359309454186 ], [ -0.091818029252685, 51.514381868395738 ], [ -0.092727109840668, 51.514404420299627 ], [ -0.093636191610743, 51.514426965165804 ], [ -0.094545274562545, 51.51444950299426 ], [ -0.095454358695703, 51.514472033784969 ], [ -0.096363444009852, 51.514494557537923 ], [ -0.097272530504625, 51.514517074253078 ], [ -0.098181618179656, 51.514539583930443 ], [ -0.099090707034576, 51.514562086569967 ], [ -0.099999797069022, 51.514584582171643 ], [ -0.100908888282621, 51.514607070735465 ], [ -0.10181798067501, 51.514629552261383 ], [ -0.102727074245822, 51.514652026749395 ], [ -0.103636168994688, 51.514674494199461 ], [ -0.104545264921244, 51.51469695461158 ], [ -0.105454362025122, 51.514719407985716 ], [ -0.106363460305955, 51.514741854321862 ], [ -0.107272559763375, 51.514764293619983 ], [ -0.108181660397014, 51.514786725880064 ], [ -0.109090762206508, 51.514809151102078 ], [ -0.109999865191488, 51.514831569286017 ], [ -0.110908969351589, 51.514853980431852 ], [ -0.111818074686444, 51.514876384539555 ], [ -0.112727181195682, 51.514898781609119 ], [ -0.113636288878941, 51.514921171640502 ], [ -0.11454539773585, 51.514943554633717 ], [ -0.115454507766045, 51.514965930588701 ], [ -0.116363618969157, 51.514988299505468 ], [ -0.117272731344821, 51.515010661383975 ], [ -0.11818184489267, 51.515033016224208 ], [ -0.119090959612334, 51.515055364026161 ], [ -0.120000075503448, 51.515077704789768 ], [ -0.120000063290152, 51.515977130692939 ], [ -0.119090947412894, 51.515954790094199 ], [ -0.118181832707098, 51.515932442457178 ], [ -0.117272719173128, 51.515910087781933 ], [ -0.116363606811354, 51.515887726068449 ], [ -0.11545449562214, 51.515865357316777 ], [ -0.114545385605858, 51.51584298152693 ], [ -0.113636276762871, 51.515820598698902 ], [ -0.112727169093546, 51.51579820883277 ], [ -0.111818062598251, 51.515775811928485 ], [ -0.110908957277354, 51.515753407986132 ], [ -0.10999985313122, 51.515730997005704 ], [ -0.109090750160216, 51.515708578987208 ], [ -0.108181648364713, 51.515686153930687 ], [ -0.107272547745072, 51.515663721836162 ], [ -0.106363448301662, 51.515641282703641 ], [ -0.105454350034852, 51.51561883653315 ], [ -0.104545252945009, 51.51559638332472 ], [ -0.103636157032496, 51.515573923078371 ], [ -0.102727062297683, 51.51555145579411 ], [ -0.101817968740937, 51.515528981471974 ], [ -0.100908876362627, 51.515506500111968 ], [ -0.099999785163114, 51.515484011714122 ], [ -0.09909069514277, 51.515461516278457 ], [ -0.098181606301961, 51.515439013804993 ], [ -0.097272518641052, 51.515416504293768 ], [ -0.096363432160411, 51.51539398774478 ], [ -0.095454346860404, 51.515371464158051 ], [ -0.094545262741402, 51.515348933533616 ], [ -0.093636179803767, 51.515326395871483 ], [ -0.092727098047868, 51.515303851171701 ], [ -0.091818017474072, 51.515281299434257 ], [ -0.090908938082747, 51.515258740659178 ], [ -0.089999859874257, 51.515236174846507 ], [ -0.089090782848971, 51.515213601996244 ], [ -0.088181707007256, 51.515191022108425 ], [ -0.087272632349479, 51.515168435183064 ], [ -0.086363558876004, 51.515145841220182 ], [ -0.085454486587201, 51.5151232402198 ], [ -0.084545415483438, 51.515100632181934 ], [ -0.083636345565078, 51.515078017106632 ], [ -0.082727276832489, 51.515055394993887 ], [ -0.081818209286039, 51.515032765843713 ], [ -0.080909142926098, 51.515010129656169 ], [ -0.080000077753026, 51.514987486431245 ], [ -0.080000065442235, 51.515886919517364 ], [ -0.080909130601195, 51.515909562575168 ], [ -0.081818196947041, 51.51593219859565 ], [ -0.082727264479402, 51.515954827578796 ], [ -0.083636333197913, 51.515977449524584 ], [ -0.084545403102206, 51.516000064432987 ], [ -0.085454474191916, 51.516022672303976 ], [ -0.086363546466675, 51.516045273137557 ], [ -0.087272619926116, 51.516067866933682 ], [ -0.088181694569874, 51.516090453692343 ], [ -0.089090770397579, 51.516113033413511 ], [ -0.089999847408865, 51.516135606097173 ], [ -0.090908925603367, 51.516158171743299 ], [ -0.091818004980718, 51.516180730351877 ], [ -0.092727085540547, 51.51620328192287 ], [ -0.09363616728249, 51.516225826456278 ], [ -0.094545250206182, 51.516248363952059 ], [ -0.095454334311252, 51.516270894410212 ], [ -0.096363419597337, 51.516293417830695 ], [ -0.097272506064069, 51.516315934213495 ], [ -0.098181593711078, 51.516338443558595 ], [ -0.099090682537999, 51.516360945865983 ], [ -0.099999772544468, 51.516383441135609 ], [ -0.100908863730113, 51.51640592936748 ], [ -0.101817956094572, 51.516428410561552 ], [ -0.102727049637472, 51.51645088471782 ], [ -0.103636144358453, 51.516473351836261 ], [ -0.104545240257143, 51.51649581191684 ], [ -0.105454337333177, 51.516518264959558 ], [ -0.106363435586189, 51.516540710964364 ], [ -0.107272535015809, 51.516563149931272 ], [ -0.108181635621672, 51.516585581860234 ], [ -0.10909073740341, 51.516608006751241 ], [ -0.10999984036066, 51.516630424604266 ], [ -0.110908944493049, 51.516652835419293 ], [ -0.111818049800213, 51.51667523919631 ], [ -0.112727156281787, 51.516697635935259 ], [ -0.1136362639374, 51.516720025636161 ], [ -0.114545372766688, 51.516742408298967 ], [ -0.115454482769283, 51.516764783923676 ], [ -0.116363593944817, 51.516787152510254 ], [ -0.117272706292924, 51.516809514058686 ], [ -0.118181819813237, 51.51683186856895 ], [ -0.119090934505391, 51.516854216041004 ], [ -0.120000050369014, 51.51687655647487 ], [ -0.120000036740004, 51.517775982135554 ], [ -0.119090920889791, 51.517753641866605 ], [ -0.11818180621106, 51.517731294559489 ], [ -0.117272692704179, 51.517708940214234 ], [ -0.116363580369518, 51.517686578830862 ], [ -0.115454469207438, 51.517664210409393 ], [ -0.114545359218309, 51.517641834949849 ], [ -0.113636250402499, 51.517619452452251 ], [ -0.112727142760372, 51.517597062916622 ], [ -0.111818036292299, 51.517574666342966 ], [ -0.110908930998645, 51.517552262731336 ], [ -0.109999826879776, 51.517529852081729 ], [ -0.109090723936061, 51.517507434394169 ], [ -0.108181622167866, 51.51748500966869 ], [ -0.107272521575557, 51.517462577905299 ], [ -0.106363422159501, 51.517440139104018 ], [ -0.105454323920066, 51.517417693264882 ], [ -0.10454522685762, 51.517395240387899 ], [ -0.103636130972528, 51.517372780473096 ], [ -0.10272703626516, 51.517350313520495 ], [ -0.101817942735879, 51.517327839530111 ], [ -0.100908850385053, 51.517305358501972 ], [ -0.099999759213049, 51.517282870436098 ], [ -0.099090669220236, 51.517260375332498 ], [ -0.098181580406978, 51.517237873191227 ], [ -0.097272492773645, 51.517215364012266 ], [ -0.096363406320603, 51.517192847795656 ], [ -0.095454321048217, 51.517170324541418 ], [ -0.094545236956856, 51.517147794249574 ], [ -0.093636154046885, 51.517125256920139 ], [ -0.092727072318672, 51.51710271255314 ], [ -0.091817991772584, 51.517080161148598 ], [ -0.09090891240899, 51.517057602706537 ], [ -0.089999834228254, 51.517035037226968 ], [ -0.089090757230744, 51.517012464709907 ], [ -0.088181681416826, 51.516989885155404 ], [ -0.087272606786867, 51.516967298563472 ], [ -0.086363533341236, 51.516944704934104 ], [ -0.085454461080296, 51.516922104267351 ], [ -0.084545390004419, 51.516899496563219 ], [ -0.083636320113968, 51.516876881821744 ], [ -0.082727251409313, 51.516854260042926 ], [ -0.081818183890816, 51.5168316312268 ], [ -0.080909117558849, 51.516808995373395 ], [ -0.080000052413775, 51.516786352482718 ], [ -0.080000038667619, 51.517685785327345 ], [ -0.080909103799025, 51.517708428050874 ], [ -0.08181817011734, 51.517731063737195 ], [ -0.082727237622192, 51.517753692386265 ], [ -0.083636306313219, 51.517776313998098 ], [ -0.084545376190048, 51.517798928572653 ], [ -0.085454447252317, 51.517821536109899 ], [ -0.086363519499657, 51.517844136609824 ], [ -0.0872725929317, 51.517866730072406 ], [ -0.088181667548084, 51.517889316497623 ], [ -0.089090743348436, 51.517911895885454 ], [ -0.089999820332394, 51.517934468235893 ], [ -0.090908898499588, 51.517957033548882 ], [ -0.091817977849652, 51.517979591824442 ], [ -0.092727058382219, 51.518002143062517 ], [ -0.093636140096921, 51.5180246872631 ], [ -0.094545222993395, 51.518047224426162 ], [ -0.095454307071268, 51.518069754551696 ], [ -0.096363392330179, 51.518092277639681 ], [ -0.097272478769757, 51.518114793690074 ], [ -0.098181566389638, 51.518137302702876 ], [ -0.099090655189451, 51.518159804678049 ], [ -0.099999745168832, 51.518182299615596 ], [ -0.100908836327416, 51.518204787515479 ], [ -0.101817928664832, 51.518227268377665 ], [ -0.102727022180716, 51.518249742202137 ], [ -0.103636116874698, 51.518272208988897 ], [ -0.104545212746414, 51.518294668737909 ], [ -0.105454309795495, 51.518317121449151 ], [ -0.106363408021575, 51.518339567122602 ], [ -0.107272507424288, 51.518362005758242 ], [ -0.108181608003264, 51.51838443735604 ], [ -0.109090709758139, 51.518406861915999 ], [ -0.109999812688545, 51.518429279438074 ], [ -0.110908916794115, 51.518451689922244 ], [ -0.111818022074482, 51.518474093368511 ], [ -0.11272712852928, 51.518496489776823 ], [ -0.113636236158139, 51.51851887914718 ], [ -0.114545344960694, 51.518541261479562 ], [ -0.115454454936581, 51.518563636773933 ], [ -0.116363566085427, 51.518586005030294 ], [ -0.11727267840687, 51.518608366248586 ], [ -0.11818179190054, 51.518630720428824 ], [ -0.119090906566072, 51.518653067570973 ], [ -0.120000022403095, 51.518675407675019 ], [ -0.120000007358261, 51.519574833093245 ], [ -0.119090891534202, 51.51955249315413 ], [ -0.118181776881647, 51.519530146176955 ], [ -0.117272663400965, 51.51950779216174 ], [ -0.116363551092522, 51.519485431108528 ], [ -0.115454439956683, 51.519463063017298 ], [ -0.11454532999382, 51.519440687888107 ], [ -0.113636221204296, 51.519418305720961 ], [ -0.112727113588479, 51.519395916515897 ], [ -0.111818007146735, 51.519373520272907 ], [ -0.110908901879434, 51.519351116992041 ], [ -0.10999979778694, 51.519328706673306 ], [ -0.109090694869621, 51.519306289316731 ], [ -0.108181593127843, 51.519283864922322 ], [ -0.107272492561975, 51.519261433490115 ], [ -0.106363393172384, 51.519238995020125 ], [ -0.105454294959435, 51.519216549512372 ], [ -0.104545197923496, 51.519194096966892 ], [ -0.103636102064933, 51.519171637383678 ], [ -0.102727007384116, 51.51914917076278 ], [ -0.101817913881407, 51.519126697104205 ], [ -0.100908821557178, 51.519104216407968 ], [ -0.099999730411793, 51.519081728674102 ], [ -0.09909064044562, 51.519059233902631 ], [ -0.098181551659025, 51.519036732093561 ], [ -0.097272464052377, 51.519014223246927 ], [ -0.096363377626039, 51.518991707362751 ], [ -0.095454292380383, 51.518969184441048 ], [ -0.094545208315773, 51.51894665448183 ], [ -0.093636125432576, 51.518924117485135 ], [ -0.092727043731159, 51.518901573450975 ], [ -0.09181796321189, 51.518879022379373 ], [ -0.090908883875135, 51.518856464270364 ], [ -0.089999805721261, 51.518833899123941 ], [ -0.089090728750634, 51.518811326940153 ], [ -0.088181652963623, 51.518788747719 ], [ -0.087272578360595, 51.518766161460519 ], [ -0.086363504941913, 51.518743568164723 ], [ -0.08545443270795, 51.518720967831634 ], [ -0.084545361659068, 51.518698360461286 ], [ -0.083636291795634, 51.518675746053674 ], [ -0.082727223118019, 51.518653124608846 ], [ -0.081818155626586, 51.518630496126811 ], [ -0.080909089321704, 51.518607860607595 ], [ -0.080000024203737, 51.518585218051214 ], [ -0.080000009022103, 51.519484650654334 ], [ -0.080905660943422, 51.519507208043471 ], [ -0.081811314042775, 51.519529758448236 ], [ -0.082716968319798, 51.519552301868622 ], [ -0.083622623774129, 51.519574838304578 ], [ -0.084528280405405, 51.519597367756127 ], [ -0.085433938213265, 51.519619890223211 ], [ -0.086339597197341, 51.519642405705831 ], [ -0.087245257357276, 51.51966491420395 ], [ -0.088150918692706, 51.519687415717556 ], [ -0.089056581203267, 51.519709910246632 ], [ -0.089962244888595, 51.519732397791138 ], [ -0.090867909748327, 51.519754878351065 ], [ -0.091773575782104, 51.519777351926408 ], [ -0.092679242989561, 51.519799818517107 ], [ -0.093584911370336, 51.519822278123186 ], [ -0.094490580924064, 51.519844730744595 ], [ -0.095396251650382, 51.519867176381325 ], [ -0.09630192354893, 51.51988961503335 ], [ -0.097207596619344, 51.51991204670064 ], [ -0.098113270861262, 51.519934471383188 ], [ -0.099018946274317, 51.519956889080966 ], [ -0.099924622858152, 51.51997929979396 ], [ -0.100830300612401, 51.520001703522134 ] ] } }
]
}
